{"type":"FeatureCollection","crs":{"type":"name","properties":{"name":"EPSG:6668"}},"features":[{"type":"Feature","id":0,"geometry":{"type":"Polygon","coordinates":[[[139.69892518794254,35.689030592092848],[139.69887108203085,35.689023898492323],[139.69887146629074,35.689021407535215],[139.69886317768086,35.689020619493711],[139.69886273751658,35.68902284538563],[139.69880743410081,35.689016045860022],[139.6988149119486,35.688972609089809],[139.69881620325219,35.688965100485774],[139.69882150840357,35.688934252355942],[139.69882837929131,35.688894323939039],[139.69884222644507,35.688903884780224],[139.69884407258974,35.688905155011518],[139.69884585579683,35.688906394799481],[139.69885157589471,35.688910340155374],[139.69884980100122,35.688913244189152],[139.69885629847741,35.688909490030774],[139.69885452358412,35.688912394064602],[139.69885987262805,35.688916088504349],[139.69886116460808,35.688916980839828],[139.69887870239526,35.688929093709831],[139.69887674955288,35.688940594811093],[139.69887079938587,35.68897500819557],[139.69887042235862,35.688977188769201],[139.69887899369684,35.688978046531489],[139.69887953828774,35.688974901647939],[139.69888527870825,35.688941567901104],[139.6988930161622,35.688896809105792],[139.698910244122,35.688899154025705],[139.69891244236456,35.688899453231144],[139.69892753327667,35.688901503943121],[139.69892952495832,35.688901778362165],[139.69893150634098,35.688902045191675],[139.69894467657349,35.688903841242166],[139.69894806200864,35.688904301458066],[139.69893418795732,35.688981037159202],[139.69893237633318,35.688991057022349],[139.69892518794254,35.689030592092848]]]},"properties":{"FID":0,"id":"b9b1fdfdd6d040088a5fcba1d54cc786","category":"1","name":"地下5階","ordinal":"-5.0","short_name":" ","source":"2"}}]}