{"type":"FeatureCollection","crs":{"type":"name","properties":{"name":"EPSG:6668"}},"features":[{"type":"Feature","id":0,"geometry":{"type":"Polygon","coordinates":[[[139.69939332101251,35.686863402748756],[139.69937291487724,35.686874673180128],[139.69934100267159,35.686859587820962],[139.69935205974764,35.686843932301599],[139.69939332101251,35.686863402748756]]]},"properties":{"FID":0,"id":"37cf644721094adcab1be2475894e583","category":"B021","floor_id":"f570ed519db442faa0c85f1a934547e5","name":" ","restricted":"2","suite":" ","nonpublic":"2","toll":"3","source":"2"}},{"type":"Feature","id":1,"geometry":{"type":"Polygon","coordinates":[[[139.69937291487724,35.686874673180128],[139.69937022547467,35.686876158552849],[139.69932486122156,35.686854699550139],[139.69932381357171,35.686854188208422],[139.69932526654839,35.686852149123681],[139.69934100267159,35.686859587820962],[139.69937291487724,35.686874673180128]]]},"properties":{"FID":1,"id":"3c7dfe0410264f998f38691f8161fad7","category":"B019","floor_id":"f570ed519db442faa0c85f1a934547e5","name":" ","restricted":"1","suite":" ","nonpublic":"2","toll":"1","source":"2"}},{"type":"Feature","id":2,"geometry":{"type":"Polygon","coordinates":[[[139.69937022547467,35.686876158552849],[139.6993562569775,35.686883873433523],[139.6993170714766,35.686865662677917],[139.69932486122156,35.686854699550139],[139.69937022547467,35.686876158552849]]]},"properties":{"FID":2,"id":"5f36f7c361c34022a1b67788581e301e","category":"B023","floor_id":"f570ed519db442faa0c85f1a934547e5","name":" ","restricted":"2","suite":" ","nonpublic":"2","toll":"3","source":"2"}},{"type":"Feature","id":3,"geometry":{"type":"Polygon","coordinates":[[[139.6993562569775,35.686883873433523],[139.69935494781737,35.686884596489975],[139.69933266549157,35.686874103019321],[139.69931650601362,35.686866458607412],[139.6993170714766,35.686865662677917],[139.6993562569775,35.686883873433523]]]},"properties":{"FID":3,"id":"fa76bde5abd04cbcaa8ed1cb033f01ef","category":"B019","floor_id":"f570ed519db442faa0c85f1a934547e5","name":" ","restricted":"1","suite":" ","nonpublic":"2","toll":"1","source":"2"}},{"type":"Feature","id":4,"geometry":{"type":"Polygon","coordinates":[[[139.69931157281857,35.686883605020498],[139.69930049551132,35.686899271457492],[139.69926043189062,35.686880366440995],[139.69928661882784,35.686843552094892],[139.69928833111314,35.686844353516776],[139.699296035917,35.686833386110408],[139.69929432252852,35.686832583786028],[139.69930276696692,35.686820662651655],[139.69935205974764,35.686843932301599],[139.69934100267159,35.686859587820962],[139.69932526654839,35.686852149123681],[139.69932381357171,35.686854188208422],[139.69932486122156,35.686854699550139],[139.6993170714766,35.686865662677917],[139.69931650601362,35.686866458607412],[139.69931593820479,35.686867257856626],[139.69930761828405,35.686878949736183],[139.69930654172722,35.686878440176471],[139.69930506766093,35.686880536925202],[139.69931157281857,35.686883605020498]]]},"properties":{"FID":4,"id":"9a137a24b6f448d182472914385d8198","category":"B029","floor_id":"f570ed519db442faa0c85f1a934547e5","name":" ","restricted":"2","suite":" ","nonpublic":"2","toll":"3","source":"2"}},{"type":"Feature","id":5,"geometry":{"type":"Polygon","coordinates":[[[139.69943284783469,35.686921282083169],[139.69943222891536,35.686922159655253],[139.69935373882976,35.686885048375864],[139.69931593820479,35.686867257856626],[139.69931650601362,35.686866458607412],[139.69933266549157,35.686874103019321],[139.69935494781737,35.686884596489975],[139.6994050149984,35.68690817616033],[139.69943284783469,35.686921282083169]]]},"properties":{"FID":5,"id":"53443b4e3a61417b978b923d526740e6","category":"B019","floor_id":"f570ed519db442faa0c85f1a934547e5","name":" ","restricted":"1","suite":" ","nonpublic":"2","toll":"1","source":"2"}},{"type":"Feature","id":6,"geometry":{"type":"Polygon","coordinates":[[[139.69943222891536,35.686922159655253],[139.69942393953983,35.686933918139154],[139.69933831424331,35.686893478850536],[139.69930761828405,35.686878949736183],[139.69931593820479,35.686867257856626],[139.69935373882976,35.686885048375864],[139.69943222891536,35.686922159655253]]]},"properties":{"FID":6,"id":"739a5ca2891a4594a2d1f6409db16e1b","category":"B023","floor_id":"f570ed519db442faa0c85f1a934547e5","name":" ","restricted":"2","suite":" ","nonpublic":"2","toll":"3","source":"2"}},{"type":"Feature","id":7,"geometry":{"type":"Polygon","coordinates":[[[139.69942393953983,35.686933918139154],[139.69942253609659,35.686935948428015],[139.69941215107804,35.686931049405381],[139.69933567225362,35.686894971283067],[139.69931157281857,35.686883605020498],[139.69930506766093,35.686880536925202],[139.69930654172722,35.686878440176471],[139.69930761828405,35.686878949736183],[139.69933831424331,35.686893478850536],[139.69942393953983,35.686933918139154]]]},"properties":{"FID":7,"id":"7e7d917ec3a84efab52b76a7aa9d863c","category":"B019","floor_id":"f570ed519db442faa0c85f1a934547e5","name":" ","restricted":"1","suite":" ","nonpublic":"2","toll":"1","source":"2"}},{"type":"Feature","id":8,"geometry":{"type":"Polygon","coordinates":[[[139.69941215107804,35.686931049405381],[139.69939542791454,35.686954648993741],[139.69938752131944,35.686952822133435],[139.6993911841254,35.686942117930926],[139.69931512092722,35.686906174071339],[139.69930049551132,35.686899271457492],[139.69931157281857,35.686883605020498],[139.69933567225362,35.686894971283067],[139.69941215107804,35.686931049405381]]]},"properties":{"FID":8,"id":"7923cd2bcc5b49789330aa0e990efea4","category":"B021","floor_id":"f570ed519db442faa0c85f1a934547e5","name":" ","restricted":"2","suite":" ","nonpublic":"2","toll":"3","source":"2"}},{"type":"Feature","id":9,"geometry":{"type":"Polygon","coordinates":[[[139.69947928068402,35.687009614064415],[139.69947878547876,35.68701095059707],[139.6994476380888,35.687003813874412],[139.69943021213217,35.686999813320931],[139.69943334823185,35.686990637818006],[139.6994450297727,35.686993333287518],[139.69944241910557,35.687001205655299],[139.69947928068402,35.687009614064415]]]},"properties":{"FID":9,"id":"153044418ddd4b0e82c1701835a15806","category":"B019","floor_id":"f570ed519db442faa0c85f1a934547e5","name":" ","restricted":"1","suite":" ","nonpublic":"2","toll":"1","source":"2"}},{"type":"Feature","id":10,"geometry":{"type":"Polygon","coordinates":[[[139.69937835384465,35.687023177395808],[139.69937510792536,35.687032343422779],[139.69937298306087,35.687031819165092],[139.69937353937573,35.687030229646133],[139.69937556417787,35.687024444322333],[139.69935629869525,35.687020045520939],[139.69935690247436,35.687018258184025],[139.69937835384465,35.687023177395808]]]},"properties":{"FID":10,"id":"7842fdf8d61141b5bb3b1a892dd47d0a","category":"B019","floor_id":"f570ed519db442faa0c85f1a934547e5","name":" ","restricted":"1","suite":" ","nonpublic":"2","toll":"1","source":"2"}},{"type":"Feature","id":11,"geometry":{"type":"Polygon","coordinates":[[[139.69956007354565,35.687029588908892],[139.6995417520325,35.687040010366026],[139.69944294464415,35.687017297500034],[139.69944334565122,35.687016008085294],[139.69944366750741,35.687015141325141],[139.6994476380888,35.687003813874412],[139.69947878547876,35.68701095059707],[139.69956007354565,35.687029588908892]]]},"properties":{"FID":11,"id":"aa07aabc9e7a4e3d9cdbda4275068f8b","category":"B023","floor_id":"f570ed519db442faa0c85f1a934547e5","name":" ","restricted":"2","suite":" ","nonpublic":"2","toll":"3","source":"2"}},{"type":"Feature","id":12,"geometry":{"type":"Polygon","coordinates":[[[139.6995417520325,35.687040010366026],[139.69953992740952,35.687041048229268],[139.69944559035579,35.687019348403332],[139.69944245186795,35.687018626473012],[139.69944294464415,35.687017297500034],[139.6995417520325,35.687040010366026]]]},"properties":{"FID":12,"id":"097260a77d2a4adb974d25efd0ff17fb","category":"B019","floor_id":"f570ed519db442faa0c85f1a934547e5","name":" ","restricted":"1","suite":" ","nonpublic":"2","toll":"1","source":"2"}},{"type":"Feature","id":13,"geometry":{"type":"Polygon","coordinates":[[[139.69945484177438,35.687040276327004],[139.69945409679525,35.687042447458204],[139.6993969304998,35.687029264688],[139.69939770487426,35.687027082414865],[139.69942546961792,35.687033549598311],[139.6994395817587,35.687036781522146],[139.69945484177438,35.687040276327004]]]},"properties":{"FID":13,"id":"495caa26b7544d1baa834f07a7b2fa77","category":"B019","floor_id":"f570ed519db442faa0c85f1a934547e5","name":" ","restricted":"1","suite":" ","nonpublic":"2","toll":"1","source":"2"}},{"type":"Feature","id":14,"geometry":{"type":"Polygon","coordinates":[[[139.69936997874154,35.687040541085281],[139.69936901930416,35.687043314592955],[139.6993516490686,35.687039295725533],[139.69935611910523,35.687026203791632],[139.69937353937573,35.687030229646133],[139.69937298306087,35.687031819165092],[139.69936997874154,35.687040541085281]]]},"properties":{"FID":14,"id":"36e38f0570354533a62a03df2b52e9bf","category":"B022","floor_id":"f570ed519db442faa0c85f1a934547e5","name":" ","restricted":"2","suite":" ","nonpublic":"2","toll":"3","source":"2"}},{"type":"Feature","id":15,"geometry":{"type":"Polygon","coordinates":[[[139.69936901930416,35.687043314592955],[139.69936679581491,35.687049742176065],[139.69934648413303,35.687045085787496],[139.69934834238683,35.687039867119616],[139.69934513400372,35.687039137044536],[139.69935024775435,35.687024312492461],[139.69935345724332,35.68702504166729],[139.69935524481573,35.687019804893232],[139.69935629869525,35.687020045520939],[139.69937556417787,35.687024444322333],[139.69937353937573,35.687030229646133],[139.69935611910523,35.687026203791632],[139.6993516490686,35.687039295725533],[139.69936901930416,35.687043314592955]]]},"properties":{"FID":15,"id":"2502bd9868ca49459088984c6ac6316f","category":"B019","floor_id":"f570ed519db442faa0c85f1a934547e5","name":" ","restricted":"1","suite":" ","nonpublic":"2","toll":"1","source":"2"}},{"type":"Feature","id":16,"geometry":{"type":"Polygon","coordinates":[[[139.69937210471107,35.687041065344246],[139.69936894450052,35.687050234755183],[139.69936679581491,35.687049742176065],[139.69936901930416,35.687043314592955],[139.69936997874154,35.687040541085281],[139.69937210471107,35.687041065344246]]]},"properties":{"FID":16,"id":"0f62e32d9768424ab476f72d9757d243","category":"B019","floor_id":"f570ed519db442faa0c85f1a934547e5","name":" ","restricted":"1","suite":" ","nonpublic":"2","toll":"1","source":"2"}},{"type":"Feature","id":17,"geometry":{"type":"Polygon","coordinates":[[[139.69953992740952,35.687041048229268],[139.6995164710066,35.687054390453518],[139.69945484177438,35.687040276327004],[139.6994395817587,35.687036781522146],[139.69944559035579,35.687019348403332],[139.69953992740952,35.687041048229268]]]},"properties":{"FID":17,"id":"51ec544c653548e5b9dcbe24a824cd2e","category":"B021","floor_id":"f570ed519db442faa0c85f1a934547e5","name":" ","restricted":"2","suite":" ","nonpublic":"2","toll":"3","source":"2"}},{"type":"Feature","id":18,"geometry":{"type":"Polygon","coordinates":[[[139.69945409679525,35.687042447458204],[139.69944541476616,35.687067749935231],[139.6994213204465,35.687062241003702],[139.6994231798007,35.687057022335892],[139.69941248779298,35.687054571334969],[139.69941062954152,35.687059790905195],[139.69936894450052,35.687050234755183],[139.69937210471107,35.687041065344246],[139.69936997874154,35.687040541085281],[139.69937298306087,35.687031819165092],[139.69937510792536,35.687032343422779],[139.69937835384465,35.687023177395808],[139.69935690247436,35.687018258184025],[139.69936320967221,35.687000005246013],[139.69937157891232,35.686975573005462],[139.69938002307219,35.686951145538494],[139.69938752131944,35.686952822133435],[139.69939542791454,35.686954648993741],[139.69941215107804,35.686931049405381],[139.69942253609659,35.686935948428015],[139.69942393953983,35.686933918139154],[139.69943222891536,35.686922159655253],[139.69943284783469,35.686921282083169],[139.6994050149984,35.68690817616033],[139.69942634908176,35.686878184103236],[139.69947261477742,35.686900018967954],[139.69946700828078,35.686916173400036],[139.69946253384228,35.686914059218402],[139.69945692358027,35.686921884985317],[139.69946396700391,35.686925201747513],[139.69945674385954,35.686946130741951],[139.69945032488613,35.686944672397722],[139.69944732057849,35.686953394319985],[139.6994580114704,35.68695584441523],[139.69945979903449,35.68695060763956],[139.69949673237676,35.686959034150554],[139.69949487413299,35.686964253722159],[139.6995018374711,35.686965910069226],[139.69948919984282,35.687002473621568],[139.69948228499032,35.687000892141413],[139.69947928068402,35.687009614064415],[139.69944241910557,35.687001205655299],[139.6994450297727,35.686993333287518],[139.69943334823185,35.686990637818006],[139.69943021213217,35.686999813320931],[139.6994476380888,35.687003813874412],[139.69944366750741,35.687015141325141],[139.69944334565122,35.687016008085294],[139.69944294464415,35.687017297500034],[139.69944245186795,35.687018626473012],[139.69944559035579,35.687019348403332],[139.6994395817587,35.687036781522146],[139.69942546961792,35.687033549598311],[139.69939770487426,35.687027082414865],[139.6993969304998,35.687029264688],[139.69945409679525,35.687042447458204]]]},"properties":{"FID":18,"id":"52ceb3deea68487986ce9f82efb9d7b6","category":"B029","floor_id":"f570ed519db442faa0c85f1a934547e5","name":" ","restricted":"2","suite":" ","nonpublic":"2","toll":"3","source":"2"}},{"type":"Feature","id":19,"geometry":{"type":"Polygon","coordinates":[[[139.69885529094864,35.688283038020394],[139.69882334725847,35.688302543112592],[139.69878767859075,35.68829043722581],[139.6988009341608,35.688264520924022],[139.69885529094864,35.688283038020394]]]},"properties":{"FID":19,"id":"08dbc61c874e4c41a33236bff35fb796","category":"B021","floor_id":"918d35f85b4c4cef84c6ba5225f954d2","name":" ","restricted":"2","suite":" ","nonpublic":"2","toll":"3","source":"2"}},{"type":"Feature","id":20,"geometry":{"type":"Polygon","coordinates":[[[139.69882334725847,35.688302543112592],[139.69882121490267,35.688303845146727],[139.69878682280654,35.688292118225789],[139.69878767859075,35.68829043722581],[139.69882334725847,35.688302543112592]]]},"properties":{"FID":20,"id":"9f9c400be17d4337b6e603d55ec3c111","category":"B019","floor_id":"918d35f85b4c4cef84c6ba5225f954d2","name":" ","restricted":"1","suite":" ","nonpublic":"2","toll":"1","source":"2"}},{"type":"Feature","id":21,"geometry":{"type":"Polygon","coordinates":[[[139.69872777021615,35.68845419244407],[139.69872436815513,35.688460859679125],[139.69871619563943,35.688458085137952],[139.69871868567998,35.688453086519885],[139.6986693585437,35.688435288487945],[139.69866686185895,35.688440350492847],[139.69865861756247,35.688437556938702],[139.69866115807943,35.688432578134261],[139.69860831779019,35.688413463826706],[139.69860582110226,35.6884185258304],[139.69859757681016,35.688415732272048],[139.69860100107425,35.688409007377693],[139.69860320296101,35.688409739951595],[139.69861287616791,35.68839263376146],[139.69855408063015,35.688371427220822],[139.69854479801654,35.688387687663173],[139.69854880814503,35.688389178306004],[139.69854512334004,35.688395776715382],[139.69853703630358,35.688392769704286],[139.69853979573909,35.688387835990717],[139.6984873214781,35.688368183417289],[139.69848463876602,35.688373079186626],[139.69847645885514,35.688370113530425],[139.6984793100662,35.688365139359362],[139.69842677699572,35.688345539082604],[139.69842399066448,35.688350405781129],[139.69841597431852,35.688347416868496],[139.69841965913042,35.688340819364406],[139.6984208180518,35.688341259571388],[139.69844781379115,35.688294013586614],[139.69845439156197,35.688296399110627],[139.69845576128751,35.688293961538115],[139.69862629933797,35.688356453370062],[139.69862835663272,35.688358412546229],[139.69875262316495,35.688402826017843],[139.69872777021615,35.68845419244407]]]},"properties":{"FID":21,"id":"801dc8d5138b43a2af4b719f2ff1ca74","category":"B026","floor_id":"918d35f85b4c4cef84c6ba5225f954d2","name":" ","restricted":"1","suite":" ","nonpublic":"2","toll":"3","source":"2"}},{"type":"Feature","id":22,"geometry":{"type":"Polygon","coordinates":[[[139.6989529927734,35.688468366227021],[139.69894856006096,35.688477547631955],[139.69885718133278,35.688447664249964],[139.69886160388432,35.688438858359042],[139.69893039151501,35.688460442679968],[139.69893081239209,35.688461807823934],[139.6989529927734,35.688468366227021]]]},"properties":{"FID":22,"id":"e3003f03f1c64482a323159454af43e9","category":"B019","floor_id":"918d35f85b4c4cef84c6ba5225f954d2","name":" ","restricted":"1","suite":" ","nonpublic":"2","toll":"2","source":"2"}},{"type":"Feature","id":23,"geometry":{"type":"Polygon","coordinates":[[[139.6989674574717,35.688483727682112],[139.6989666353646,35.688485362218678],[139.6988564228412,35.688449182148233],[139.69885718133278,35.688447664249964],[139.69894856006096,35.688477547631955],[139.6989674574717,35.688483727682112]]]},"properties":{"FID":23,"id":"8dc2ca3ee3814e09b512541d5b1a98b6","category":"B019","floor_id":"918d35f85b4c4cef84c6ba5225f954d2","name":" ","restricted":"1","suite":" ","nonpublic":"2","toll":"1","source":"2"}},{"type":"Feature","id":24,"geometry":{"type":"Polygon","coordinates":[[[139.6989666353646,35.688485362218678],[139.69896174066031,35.688495094006669],[139.69885143594038,35.688459119510981],[139.6988564228412,35.688449182148233],[139.6989666353646,35.688485362218678]]]},"properties":{"FID":24,"id":"36f0a804297c439aa07c4c3f787725b4","category":"B023","floor_id":"918d35f85b4c4cef84c6ba5225f954d2","name":" ","restricted":"2","suite":" ","nonpublic":"2","toll":"2","source":"2"}},{"type":"Feature","id":25,"geometry":{"type":"Polygon","coordinates":[[[139.69896174066031,35.688495094006669],[139.69896099112586,35.688496584251745],[139.69885067372681,35.6884606312587],[139.69885143594038,35.688459119510981],[139.69896174066031,35.688495094006669]]]},"properties":{"FID":25,"id":"ababcbf7677e4abe8205bbf65c88eae4","category":"B019","floor_id":"918d35f85b4c4cef84c6ba5225f954d2","name":" ","restricted":"1","suite":" ","nonpublic":"2","toll":"1","source":"2"}},{"type":"Feature","id":26,"geometry":{"type":"Polygon","coordinates":[[[139.69896099112586,35.688496584251745],[139.69896010099779,35.688498354028937],[139.69884991513538,35.688462150008029],[139.69885067372681,35.6884606312587],[139.69896099112586,35.688496584251745]]]},"properties":{"FID":26,"id":"18938def3fd44400b8e7444ceab2bcfb","category":"B019","floor_id":"918d35f85b4c4cef84c6ba5225f954d2","name":" ","restricted":"1","suite":" ","nonpublic":"2","toll":"1","source":"2"}},{"type":"Feature","id":27,"geometry":{"type":"Polygon","coordinates":[[[139.69896010099779,35.688498354028937],[139.69895511492155,35.68850826748163],[139.69884487271179,35.688472198007062],[139.69884991513538,35.688462150008029],[139.69896010099779,35.688498354028937]]]},"properties":{"FID":27,"id":"a2a8ae84e5564122a8aee14bde74b7f8","category":"B023","floor_id":"918d35f85b4c4cef84c6ba5225f954d2","name":" ","restricted":"2","suite":" ","nonpublic":"2","toll":"2","source":"2"}},{"type":"Feature","id":28,"geometry":{"type":"Polygon","coordinates":[[[139.69895511492155,35.68850826748163],[139.69895438426698,35.688509720188712],[139.69884411068819,35.688473716485454],[139.69884487271179,35.688472198007062],[139.69895511492155,35.68850826748163]]]},"properties":{"FID":28,"id":"6d84233d017f4231967b3885500c9f46","category":"B019","floor_id":"918d35f85b4c4cef84c6ba5225f954d2","name":" ","restricted":"1","suite":" ","nonpublic":"2","toll":"1","source":"2"}},{"type":"Feature","id":29,"geometry":{"type":"Polygon","coordinates":[[[139.69895438426698,35.688509720188712],[139.6989535949572,35.688511289515638],[139.69884337977564,35.688475172969035],[139.69884411068819,35.688473716485454],[139.69895438426698,35.688509720188712]]]},"properties":{"FID":29,"id":"267f3f7a8a314e7bad57971715e73754","category":"B019","floor_id":"918d35f85b4c4cef84c6ba5225f954d2","name":" ","restricted":"1","suite":" ","nonpublic":"2","toll":"1","source":"2"}},{"type":"Feature","id":30,"geometry":{"type":"Polygon","coordinates":[[[139.69894829137547,35.688521834237541],[139.69894782687501,35.688522781633068],[139.69883757768696,35.688486734742575],[139.69884337977564,35.688475172969035],[139.6989535949572,35.688511289515638],[139.69894829137547,35.688521834237541]]]},"properties":{"FID":30,"id":"1b2f06e72fd14593a82621270084ab92","category":"B023","floor_id":"918d35f85b4c4cef84c6ba5225f954d2","name":" ","restricted":"2","suite":" ","nonpublic":"2","toll":"2","source":"2"}},{"type":"Feature","id":31,"geometry":{"type":"Polygon","coordinates":[[[139.69916220754592,35.688529947978374],[139.69915874552359,35.688538044173306],[139.69908694729313,35.68851777845844],[139.69909041130919,35.688509385347558],[139.69916220754592,35.688529947978374]]]},"properties":{"FID":31,"id":"f0b8eaddc556415089e41678a1414109","category":"B019","floor_id":"918d35f85b4c4cef84c6ba5225f954d2","name":" ","restricted":"1","suite":" ","nonpublic":"2","toll":"2","source":"2"}},{"type":"Feature","id":32,"geometry":{"type":"Polygon","coordinates":[[[139.69917935495323,35.688545012881285],[139.69917905489962,35.688545711543632],[139.69908630893059,35.688519325173807],[139.69908694729313,35.68851777845844],[139.69915874552359,35.688538044173306],[139.69917981187416,35.688543990335582],[139.69917935495323,35.688545012881285]]]},"properties":{"FID":32,"id":"14d099f2506c4433a11b5ec6f6e88192","category":"B019","floor_id":"918d35f85b4c4cef84c6ba5225f954d2","name":" ","restricted":"1","suite":" ","nonpublic":"2","toll":"1","source":"2"}},{"type":"Feature","id":33,"geometry":{"type":"Polygon","coordinates":[[[139.69893854153455,35.688545842874994],[139.69893683875736,35.68854918884675],[139.69890300671628,35.68853777758725],[139.6989142168517,35.688515657299781],[139.69894824774096,35.688526770090604],[139.69894654852033,35.688530108722503],[139.69893854153455,35.688545842874994]]]},"properties":{"FID":33,"id":"6c44629c68b54ef7a387db3cb4730f21","category":"B022","floor_id":"918d35f85b4c4cef84c6ba5225f954d2","name":" ","restricted":"2","suite":" ","nonpublic":"2","toll":"2","source":"2"}},{"type":"Feature","id":34,"geometry":{"type":"Polygon","coordinates":[[[139.69917905489962,35.688545711543632],[139.6991746813485,35.688555895173231],[139.69915371550633,35.688549918039385],[139.699082101009,35.688529514482035],[139.69908630893059,35.688519325173807],[139.69917905489962,35.688545711543632]]]},"properties":{"FID":34,"id":"be6eb59885f4403b913baddc068350c5","category":"B023","floor_id":"918d35f85b4c4cef84c6ba5225f954d2","name":" ","restricted":"2","suite":" ","nonpublic":"2","toll":"2","source":"2"}},{"type":"Feature","id":35,"geometry":{"type":"Polygon","coordinates":[[[139.6991746813485,35.688555895173231],[139.69917407540441,35.688557306088335],[139.69908146507677,35.688531061548332],[139.699082101009,35.688529514482035],[139.69915371550633,35.688549918039385],[139.6991746813485,35.688555895173231]]]},"properties":{"FID":35,"id":"64652eb278164d6babbc858dbe1124b4","category":"B019","floor_id":"918d35f85b4c4cef84c6ba5225f954d2","name":" ","restricted":"1","suite":" ","nonpublic":"2","toll":"1","source":"2"}},{"type":"Feature","id":36,"geometry":{"type":"Polygon","coordinates":[[[139.69917367141065,35.688558246770683],[139.69917336625545,35.688558961030274],[139.69908082819572,35.688532604673632],[139.69908146507677,35.688531061548332],[139.69917407540441,35.688557306088335],[139.69917367141065,35.688558246770683]]]},"properties":{"FID":36,"id":"d2e57f45b41944ea855107965fab262d","category":"B019","floor_id":"918d35f85b4c4cef84c6ba5225f954d2","name":" ","restricted":"1","suite":" ","nonpublic":"2","toll":"1","source":"2"}},{"type":"Feature","id":37,"geometry":{"type":"Polygon","coordinates":[[[139.69917336625545,35.688558961030274],[139.69916900960294,35.688569158400732],[139.69907659889066,35.688542855629734],[139.69908082819572,35.688532604673632],[139.69917336625545,35.688558961030274]]]},"properties":{"FID":37,"id":"44946c65ae8c4e6ca377555649b2307f","category":"B023","floor_id":"918d35f85b4c4cef84c6ba5225f954d2","name":" ","restricted":"2","suite":" ","nonpublic":"2","toll":"2","source":"2"}},{"type":"Feature","id":38,"geometry":{"type":"Polygon","coordinates":[[[139.69916900960294,35.688569158400732],[139.69916838126377,35.688570629118402],[139.6990759576222,35.688544401361796],[139.69907659889066,35.688542855629734],[139.69916900960294,35.688569158400732]]]},"properties":{"FID":38,"id":"1f4b3a8ea0f7473d84976f429785427b","category":"B019","floor_id":"918d35f85b4c4cef84c6ba5225f954d2","name":" ","restricted":"1","suite":" ","nonpublic":"2","toll":"1","source":"2"}},{"type":"Feature","id":39,"geometry":{"type":"Polygon","coordinates":[[[139.69916838126377,35.688570629118402],[139.69916769415696,35.688572237390254],[139.69907531713233,35.688545947449576],[139.6990759576222,35.688544401361796],[139.69916838126377,35.688570629118402]]]},"properties":{"FID":39,"id":"ff6e05c56b8e47aab26cfef2e4e97e05","category":"B019","floor_id":"918d35f85b4c4cef84c6ba5225f954d2","name":" ","restricted":"1","suite":" ","nonpublic":"2","toll":"1","source":"2"}},{"type":"Feature","id":40,"geometry":{"type":"Polygon","coordinates":[[[139.69863001578653,35.688567562670748],[139.69862392356393,35.688578910336176],[139.69850767891097,35.688537065598126],[139.69850406517273,35.688522229165216],[139.69863001578653,35.688567562670748]]]},"properties":{"FID":40,"id":"48024d6c455f45269c2acbc4b83753ef","category":"B023","floor_id":"918d35f85b4c4cef84c6ba5225f954d2","name":" ","restricted":"2","suite":" ","nonpublic":"2","toll":"2","source":"2"}},{"type":"Feature","id":41,"geometry":{"type":"Polygon","coordinates":[[[139.69862392356393,35.688578910336176],[139.69862311210582,35.688580421796708],[139.69850816486309,35.68853906069431],[139.69850767891097,35.688537065598126],[139.69862392356393,35.688578910336176]]]},"properties":{"FID":41,"id":"2053c8d0f3c143efb2390e33d51be7af","category":"B019","floor_id":"918d35f85b4c4cef84c6ba5225f954d2","name":" ","restricted":"1","suite":" ","nonpublic":"2","toll":"1","source":"2"}},{"type":"Feature","id":42,"geometry":{"type":"Polygon","coordinates":[[[139.69862311210582,35.688580421796708],[139.69862231184439,35.688581912401588],[139.69850863952189,35.688541022921676],[139.69850816486309,35.68853906069431],[139.69862311210582,35.688580421796708]]]},"properties":{"FID":42,"id":"a02146d83eec48b4b5a17d7fc0ce760e","category":"B019","floor_id":"918d35f85b4c4cef84c6ba5225f954d2","name":" ","restricted":"1","suite":" ","nonpublic":"2","toll":"1","source":"2"}},{"type":"Feature","id":43,"geometry":{"type":"Polygon","coordinates":[[[139.69916308941751,35.688583015439811],[139.69916269686868,35.688583864994158],[139.69907047682915,35.688557685416157],[139.69907531713233,35.688545947449576],[139.69916769415696,35.688572237390254],[139.69916308941751,35.688583015439811]]]},"properties":{"FID":43,"id":"e86b38b1202b4f07a16c8808fe372c8f","category":"B023","floor_id":"918d35f85b4c4cef84c6ba5225f954d2","name":" ","restricted":"2","suite":" ","nonpublic":"2","toll":"2","source":"2"}},{"type":"Feature","id":44,"geometry":{"type":"Polygon","coordinates":[[[139.69916619118771,35.688586746061326],[139.6991653310302,35.688588420501297],[139.69906702049346,35.688560554359668],[139.69908831688429,35.688508783191658],[139.69909041130919,35.688509385347558],[139.69908694729313,35.68851777845844],[139.69908630893059,35.688519325173807],[139.699082101009,35.688529514482035],[139.69908146507677,35.688531061548332],[139.69908082819572,35.688532604673632],[139.69907659889066,35.688542855629734],[139.6990759576222,35.688544401361796],[139.69907531713233,35.688545947449576],[139.69907047682915,35.688557685416157],[139.69916269686868,35.688583864994158],[139.69916191496193,35.688585533428245],[139.69916619118771,35.688586746061326]]]},"properties":{"FID":44,"id":"fc724cfcf1654c53bb5ba68fdfb62985","category":"B019","floor_id":"918d35f85b4c4cef84c6ba5225f954d2","name":" ","restricted":"1","suite":" ","nonpublic":"2","toll":"1","source":"2"}},{"type":"Feature","id":45,"geometry":{"type":"Polygon","coordinates":[[[139.69862231184439,35.688581912401588],[139.69861622533384,35.688593249423008],[139.69858771181458,35.688583012786864],[139.69851221847244,35.68855585030132],[139.69851220287003,35.688555786197426],[139.69851582928447,35.688554347165294],[139.69850781166394,35.688554071380899],[139.69851148877672,35.688552707219401],[139.69850863952189,35.688541022921676],[139.69862231184439,35.688581912401588]]]},"properties":{"FID":45,"id":"14d552336e6c4e7798e0096dddc5b06c","category":"B023","floor_id":"918d35f85b4c4cef84c6ba5225f954d2","name":" ","restricted":"2","suite":" ","nonpublic":"2","toll":"2","source":"2"}},{"type":"Feature","id":46,"geometry":{"type":"Polygon","coordinates":[[[139.69916452291059,35.688589993640655],[139.69916161566007,35.688596783124339],[139.69915329217463,35.688594413159684],[139.6991562205165,35.688587565110666],[139.69916452291059,35.688589993640655]]]},"properties":{"FID":46,"id":"7102b0eff33a44719cb2ff634e26ddea","category":"B019","floor_id":"918d35f85b4c4cef84c6ba5225f954d2","name":" ","restricted":"1","suite":" ","nonpublic":"2","toll":"1","source":"2"}},{"type":"Feature","id":47,"geometry":{"type":"Polygon","coordinates":[[[139.69871265298377,35.688596838440617],[139.69871178537952,35.688598573132253],[139.69869343565387,35.688591959991925],[139.69869429144475,35.688590278091375],[139.69871265298377,35.688596838440617]]]},"properties":{"FID":47,"id":"5781f27626444c4ab8713b7111faad64","category":"B019","floor_id":"918d35f85b4c4cef84c6ba5225f954d2","name":" ","restricted":"1","suite":" ","nonpublic":"2","toll":"1","source":"2"}},{"type":"Feature","id":48,"geometry":{"type":"Polygon","coordinates":[[[139.69889711954494,35.68860154293256],[139.69889559716918,35.68860202931463],[139.69888350203041,35.688576813066284],[139.6988752577108,35.688574020428319],[139.69887868085502,35.688567294623638],[139.69888533833671,35.688569569004251],[139.69890057603124,35.68853893024626],[139.69884999168076,35.688521850660209],[139.69885336739497,35.688514419030497],[139.69883912505153,35.68850945099372],[139.69884393073949,35.688500237562948],[139.69884083601292,35.688499211539941],[139.69884404797386,35.688492743604471],[139.69883380448667,35.688489398582171],[139.69885952570741,35.688438210574084],[139.69886160388432,35.688438858359042],[139.69885718133278,35.688447664249964],[139.6988564228412,35.688449182148233],[139.69885143594038,35.688459119510981],[139.69885067372681,35.6884606312587],[139.69884991513538,35.688462150008029],[139.69884487271179,35.688472198007062],[139.69884411068819,35.688473716485454],[139.69884337977564,35.688475172969035],[139.69883757768696,35.688486734742575],[139.69894782687501,35.688522781633068],[139.69894702195052,35.688524423357705],[139.69895116519979,35.688525761108814],[139.69894861006671,35.688530781540614],[139.69894654852033,35.688530108722503],[139.69894824774096,35.688526770090604],[139.6989142168517,35.688515657299781],[139.69890300671628,35.68853777758725],[139.69893683875736,35.68854918884675],[139.69893854153455,35.688545842874994],[139.6989405831774,35.688546556519761],[139.69893802912392,35.688551576101837],[139.69890215423894,35.688539463098472],[139.69888692517407,35.688570087261347],[139.69888445989832,35.688574931044108],[139.69889711954494,35.68860154293256]]]},"properties":{"FID":48,"id":"aabd65fc5e8c4d1cabafa98e06faaf39","category":"B019","floor_id":"918d35f85b4c4cef84c6ba5225f954d2","name":" ","restricted":"1","suite":" ","nonpublic":"2","toll":"1","source":"2"}},{"type":"Feature","id":49,"geometry":{"type":"Polygon","coordinates":[[[139.69891475353089,35.688597842672493],[139.69889640486841,35.688603713225625],[139.69889559716918,35.68860202931463],[139.69889711954494,35.68860154293256],[139.6989139011435,35.688596181397358],[139.69891475353089,35.688597842672493]]]},"properties":{"FID":49,"id":"6971ce6b3f31449694c1a71efbe5adac","category":"B019","floor_id":"918d35f85b4c4cef84c6ba5225f954d2","name":" ","restricted":"1","suite":" ","nonpublic":"2","toll":"1","source":"2"}},{"type":"Feature","id":50,"geometry":{"type":"Polygon","coordinates":[[[139.69870930347366,35.688603386376343],[139.69870841026898,35.688605062665218],[139.69869009748132,35.688598454446556],[139.69869095374713,35.688596773235659],[139.69870930347366,35.688603386376343]]]},"properties":{"FID":50,"id":"4a71e18fa0724b7cacf1926a89f2ec63","category":"B019","floor_id":"918d35f85b4c4cef84c6ba5225f954d2","name":" ","restricted":"1","suite":" ","nonpublic":"2","toll":"1","source":"2"}},{"type":"Feature","id":51,"geometry":{"type":"Polygon","coordinates":[[[139.69870841026898,35.688605062665218],[139.69870752121207,35.688606731169834],[139.69868924216811,35.688600135233955],[139.69869009748132,35.688598454446556],[139.69870841026898,35.688605062665218]]]},"properties":{"FID":51,"id":"e7a6426bc8604ecda01b542a079fe9bb","category":"B019","floor_id":"918d35f85b4c4cef84c6ba5225f954d2","name":" ","restricted":"1","suite":" ","nonpublic":"2","toll":"1","source":"2"}},{"type":"Feature","id":52,"geometry":{"type":"Polygon","coordinates":[[[139.69864626585945,35.68860403425947],[139.69864439071753,35.688607419509765],[139.69862276726175,35.68859962375511],[139.69858545475407,35.688586177674466],[139.69858567527433,35.688585791233614],[139.69858544319789,35.68858516542312],[139.69851301898876,35.688559139398173],[139.69851221847244,35.68855585030132],[139.69858771181458,35.688583012786864],[139.69861622533384,35.688593249423008],[139.69864626585945,35.68860403425947]]]},"properties":{"FID":52,"id":"75f7838415414335b9055239fb3dd7e4","category":"B019","floor_id":"918d35f85b4c4cef84c6ba5225f954d2","name":" ","restricted":"1","suite":" ","nonpublic":"2","toll":"1","source":"2"}},{"type":"Feature","id":53,"geometry":{"type":"Polygon","coordinates":[[[139.6989178259935,35.68860415373728],[139.69889939731428,35.688610041506337],[139.69889856262495,35.688608365311573],[139.69891697316271,35.688602491712757],[139.6989178259935,35.68860415373728]]]},"properties":{"FID":53,"id":"a401262485df48fbb7027b4a641f3a48","category":"B019","floor_id":"918d35f85b4c4cef84c6ba5225f954d2","name":" ","restricted":"1","suite":" ","nonpublic":"2","toll":"1","source":"2"}},{"type":"Feature","id":54,"geometry":{"type":"Polygon","coordinates":[[[139.69891867904113,35.688605815165594],[139.69890021111866,35.688611675760512],[139.69889939731428,35.688610041506337],[139.6989178259935,35.68860415373728],[139.69891867904113,35.688605815165594]]]},"properties":{"FID":54,"id":"78e90775b25941189196b403f86edbd3","category":"B019","floor_id":"918d35f85b4c4cef84c6ba5225f954d2","name":" ","restricted":"1","suite":" ","nonpublic":"2","toll":"1","source":"2"}},{"type":"Feature","id":55,"geometry":{"type":"Polygon","coordinates":[[[139.69925059233492,35.688602906669907],[139.69922567465309,35.688612349951406],[139.69921735116563,35.688609979089811],[139.69922025730853,35.688603188702189],[139.69922858079539,35.688605559563591],[139.69922670489387,35.688609942727886],[139.69925163804768,35.688600527659162],[139.6992364063403,35.688548656561395],[139.69923877688532,35.688549279255639],[139.69925420077359,35.68860153914634],[139.69925059233492,35.688602906669907]]]},"properties":{"FID":55,"id":"22f92b713b284c56a722b979f25e8f30","category":"B019","floor_id":"918d35f85b4c4cef84c6ba5225f954d2","name":" ","restricted":"1","suite":" ","nonpublic":"2","toll":"1","source":"2"}},{"type":"Feature","id":56,"geometry":{"type":"Polygon","coordinates":[[[139.6987051247703,35.688611312857354],[139.69870423144977,35.688612988774082],[139.69868595600047,35.68860638757711],[139.69868684572401,35.688604717822486],[139.6987051247703,35.688611312857354]]]},"properties":{"FID":56,"id":"e29c3ae79ba040e1ba187b9e4a6f93fd","category":"B019","floor_id":"918d35f85b4c4cef84c6ba5225f954d2","name":" ","restricted":"1","suite":" ","nonpublic":"2","toll":"1","source":"2"}},{"type":"Feature","id":57,"geometry":{"type":"Polygon","coordinates":[[[139.69870423144977,35.688612988774082],[139.69870334140197,35.688614658550904],[139.69868506346143,35.6886080626156],[139.69868595600047,35.68860638757711],[139.69870423144977,35.688612988774082]]]},"properties":{"FID":57,"id":"e41dd17691c241aa96ed37695bc70b46","category":"B019","floor_id":"918d35f85b4c4cef84c6ba5225f954d2","name":" ","restricted":"1","suite":" ","nonpublic":"2","toll":"1","source":"2"}},{"type":"Feature","id":58,"geometry":{"type":"Polygon","coordinates":[[[139.69892170658437,35.688612099976467],[139.69890320313647,35.688618011550751],[139.69890241635758,35.688616320487156],[139.69892089756851,35.688610464204558],[139.69892170658437,35.688612099976467]]]},"properties":{"FID":58,"id":"87bc6b54113844a29a6b696c55e723f1","category":"B019","floor_id":"918d35f85b4c4cef84c6ba5225f954d2","name":" ","restricted":"1","suite":" ","nonpublic":"2","toll":"1","source":"2"}},{"type":"Feature","id":59,"geometry":{"type":"Polygon","coordinates":[[[139.69862276726175,35.68859962375511],[139.69861227214017,35.688618708704219],[139.69856976745498,35.68860407123659],[139.69851958321598,35.688586126461701],[139.69851301898876,35.688559139398173],[139.69858544319789,35.68858516542312],[139.69858567527433,35.688585791233614],[139.69858545475407,35.688586177674466],[139.69862276726175,35.68859962375511]]]},"properties":{"FID":59,"id":"599fc70df73c4503b6a75e78d208201f","category":"B021","floor_id":"918d35f85b4c4cef84c6ba5225f954d2","name":" ","restricted":"2","suite":" ","nonpublic":"2","toll":"2","source":"2"}},{"type":"Feature","id":60,"geometry":{"type":"Polygon","coordinates":[[[139.69892253276402,35.688613770452363],[139.69890398670464,35.688619695713328],[139.69890320313647,35.688618011550751],[139.69892170658437,35.688612099976467],[139.69892253276402,35.688613770452363]]]},"properties":{"FID":60,"id":"4175592613434c72bfe515e9a9f051d7","category":"B019","floor_id":"918d35f85b4c4cef84c6ba5225f954d2","name":" ","restricted":"1","suite":" ","nonpublic":"2","toll":"1","source":"2"}},{"type":"Feature","id":61,"geometry":{"type":"Polygon","coordinates":[[[139.69870096715414,35.688619182575465],[139.6987001144112,35.688620866024451],[139.69868180278948,35.688614257445359],[139.69868268810794,35.688612586638591],[139.69870096715414,35.688619182575465]]]},"properties":{"FID":61,"id":"e4c996a654e64e95a84bd124e42c889c","category":"B019","floor_id":"918d35f85b4c4cef84c6ba5225f954d2","name":" ","restricted":"1","suite":" ","nonpublic":"2","toll":"1","source":"2"}},{"type":"Feature","id":62,"geometry":{"type":"Polygon","coordinates":[[[139.6987001144112,35.688620866024451],[139.698699234484,35.688622603139372],[139.69868088475391,35.688615989997132],[139.69868180278948,35.688614257445359],[139.6987001144112,35.688620866024451]]]},"properties":{"FID":62,"id":"1bbfff00b8454c9fa7ed98e074e3a6ed","category":"B019","floor_id":"918d35f85b4c4cef84c6ba5225f954d2","name":" ","restricted":"1","suite":" ","nonpublic":"2","toll":"1","source":"2"}},{"type":"Feature","id":63,"geometry":{"type":"Polygon","coordinates":[[[139.69892560460306,35.688620080829551],[139.69890702493225,35.688626016825033],[139.69890624509173,35.688624324956642],[139.69892475129336,35.68861841858989],[139.69892560460306,35.688620080829551]]]},"properties":{"FID":63,"id":"52e5563f6ac648a28fa948f4349fd10e","category":"B019","floor_id":"918d35f85b4c4cef84c6ba5225f954d2","name":" ","restricted":"1","suite":" ","nonpublic":"2","toll":"1","source":"2"}},{"type":"Feature","id":64,"geometry":{"type":"Polygon","coordinates":[[[139.69892645717249,35.688621742042585],[139.69890778586085,35.68862766753287],[139.69890702493225,35.688626016825033],[139.69892560460306,35.688620080829551],[139.69892645717249,35.688621742042585]]]},"properties":{"FID":64,"id":"27b57d563a464bab85aeb6ab893b39bd","category":"B019","floor_id":"918d35f85b4c4cef84c6ba5225f954d2","name":" ","restricted":"1","suite":" ","nonpublic":"2","toll":"1","source":"2"}},{"type":"Feature","id":65,"geometry":{"type":"Polygon","coordinates":[[[139.69869683443005,35.688627191923885],[139.69869598225009,35.688628866727242],[139.69868724631209,35.688625722473468],[139.69868622259574,35.688625353304886],[139.69867756183714,35.688622235478078],[139.69867841762715,35.688620554479023],[139.69869683443005,35.688627191923885]]]},"properties":{"FID":65,"id":"c3ed0473d32146ea9bb694fbfae1b56b","category":"B019","floor_id":"918d35f85b4c4cef84c6ba5225f954d2","name":" ","restricted":"1","suite":" ","nonpublic":"2","toll":"1","source":"2"}},{"type":"Feature","id":66,"geometry":{"type":"Polygon","coordinates":[[[139.69891243030142,35.688633476396006],[139.69891081723173,35.688633991840618],[139.69891000438668,35.688632317473377],[139.69892867680559,35.688626391082614],[139.69892945851038,35.688628035152696],[139.69891243030142,35.688633476396006]]]},"properties":{"FID":66,"id":"f5ae099654a94ef192cdaaeeccfcd0e8","category":"B019","floor_id":"918d35f85b4c4cef84c6ba5225f954d2","name":" ","restricted":"1","suite":" ","nonpublic":"2","toll":"1","source":"2"}},{"type":"Feature","id":67,"geometry":{"type":"Polygon","coordinates":[[[139.69868724631209,35.688625722473468],[139.69868291393436,35.688634060848344],[139.69868189784432,35.688633694173305],[139.69868622259574,35.688625353304886],[139.69868724631209,35.688625722473468]]]},"properties":{"FID":67,"id":"41387a7906fb47b7a351b72412ec1a2d","category":"B019","floor_id":"918d35f85b4c4cef84c6ba5225f954d2","name":" ","restricted":"1","suite":" ","nonpublic":"2","toll":"1","source":"2"}},{"type":"Feature","id":68,"geometry":{"type":"Polygon","coordinates":[[[139.69869598225009,35.688628866727242],[139.69869151123453,35.68863716334387],[139.69868291393436,35.688634060848344],[139.69868724631209,35.688625722473468],[139.69869598225009,35.688628866727242]]]},"properties":{"FID":68,"id":"e6a2b6ebc9bb4baea0fb71a791d47219","category":"B029","floor_id":"918d35f85b4c4cef84c6ba5225f954d2","name":" ","restricted":"2","suite":" ","nonpublic":"2","toll":"2","source":"2"}},{"type":"Feature","id":69,"geometry":{"type":"Polygon","coordinates":[[[139.69869151123453,35.68863716334387],[139.69869111978531,35.688638012897904],[139.69867277005235,35.688631399754449],[139.69867323328981,35.688630567406811],[139.69868189784432,35.688633694173305],[139.69868291393436,35.688634060848344],[139.69869151123453,35.68863716334387]]]},"properties":{"FID":69,"id":"633b2be6d1b34dd09d5add7fca233fed","category":"B019","floor_id":"918d35f85b4c4cef84c6ba5225f954d2","name":" ","restricted":"1","suite":" ","nonpublic":"2","toll":"1","source":"2"}},{"type":"Feature","id":70,"geometry":{"type":"Polygon","coordinates":[[[139.69868671945196,35.688646326719422],[139.69868654854071,35.688646665347768],[139.69866826567545,35.688640069359401],[139.69866841931113,35.688639788444448],[139.69866474344252,35.688638439488663],[139.69863073185991,35.688626195127],[139.69863127789037,35.688625253765586],[139.69861227214017,35.688618708704219],[139.69862276726175,35.68859962375511],[139.69864439071753,35.688607419509765],[139.69864626585945,35.68860403425947],[139.69861622533384,35.688593249423008],[139.69862231184439,35.688581912401588],[139.69862311210582,35.688580421796708],[139.69862392356393,35.688578910336176],[139.69863001578653,35.688567562670748],[139.69866154323148,35.688578910340638],[139.6987129873165,35.688596177525689],[139.69871265298377,35.688596838440617],[139.69869429144475,35.688590278091375],[139.69869343565387,35.688591959991925],[139.69871178537952,35.688598573132253],[139.69870930347366,35.688603386376343],[139.69869095374713,35.688596773235659],[139.69869009748132,35.688598454446556],[139.69868924216811,35.688600135233955],[139.69870752121207,35.688606731169834],[139.6987051247703,35.688611312857354],[139.69868684572401,35.688604717822486],[139.69868595600047,35.68860638757711],[139.69868506346143,35.6886080626156],[139.69870334140197,35.688614658550904],[139.69870096715414,35.688619182575465],[139.69868268810794,35.688612586638591],[139.69868180278948,35.688614257445359],[139.69868088475391,35.688615989997132],[139.698699234484,35.688622603139372],[139.69869683443005,35.688627191923885],[139.69867841762715,35.688620554479023],[139.69867756183714,35.688622235478078],[139.69868622259574,35.688625353304886],[139.69868189784432,35.688633694173305],[139.69867323328981,35.688630567406811],[139.69867277005235,35.688631399754449],[139.69869111978531,35.688638012897904],[139.69868671945196,35.688646326719422]]]},"properties":{"FID":70,"id":"e495b99d922b4d8cbbabe5b8d659180e","category":"B029","floor_id":"918d35f85b4c4cef84c6ba5225f954d2","name":" ","restricted":"2","suite":" ","nonpublic":"2","toll":"2","source":"2"}},{"type":"Feature","id":71,"geometry":{"type":"Polygon","coordinates":[[[139.69894041156056,35.688642285419746],[139.69893317687075,35.688657407738617],[139.69893109414647,35.688656767243529],[139.69893832883508,35.688641645826152],[139.69894041156056,35.688642285419746]]]},"properties":{"FID":71,"id":"317c065f0a2b46e893554ad60ff73de0","category":"B019","floor_id":"918d35f85b4c4cef84c6ba5225f954d2","name":" ","restricted":"1","suite":" ","nonpublic":"2","toll":"1","source":"2"}},{"type":"Feature","id":72,"geometry":{"type":"Polygon","coordinates":[[[139.69894817490535,35.688644707691246],[139.69894100291171,35.688659877175795],[139.69893892805408,35.688659206983836],[139.69894609205966,35.688644067459698],[139.69894817490535,35.688644707691246]]]},"properties":{"FID":72,"id":"4992bc42903945888e33c6f318464248","category":"B019","floor_id":"918d35f85b4c4cef84c6ba5225f954d2","name":" ","restricted":"1","suite":" ","nonpublic":"2","toll":"1","source":"2"}},{"type":"Feature","id":73,"geometry":{"type":"Polygon","coordinates":[[[139.69895025750941,35.688645347547912],[139.69894307241358,35.688660545637788],[139.69894100291171,35.688659877175795],[139.69894817490535,35.688644707691246],[139.69895025750941,35.688645347547912]]]},"properties":{"FID":73,"id":"504cd919595b414e9463b04d6447885a","category":"B019","floor_id":"918d35f85b4c4cef84c6ba5225f954d2","name":" ","restricted":"1","suite":" ","nonpublic":"2","toll":"1","source":"2"}},{"type":"Feature","id":74,"geometry":{"type":"Polygon","coordinates":[[[139.69892240926521,35.688653606230766],[139.69891798106781,35.688662929691212],[139.69890550802157,35.688659029057042],[139.69891151546747,35.68864638053136],[139.69891778366988,35.688648340755506],[139.69891081723173,35.688633991840618],[139.69891243030142,35.688633476396006],[139.69891990961244,35.688649005590982],[139.69892398851204,35.688650281164911],[139.69892240926521,35.688653606230766]]]},"properties":{"FID":74,"id":"59109a31286e4f0691bb9cce3f7c87b9","category":"B019","floor_id":"918d35f85b4c4cef84c6ba5225f954d2","name":" ","restricted":"1","suite":" ","nonpublic":"2","toll":"1","source":"2"}},{"type":"Feature","id":75,"geometry":{"type":"Polygon","coordinates":[[[139.69895808292131,35.68864781695909],[139.69895083459627,35.688662967140395],[139.69894875291556,35.688662326776253],[139.69895600869225,35.68864714679232],[139.69895808292131,35.68864781695909]]]},"properties":{"FID":75,"id":"03527f14b0cd469d98451bbc9b890cab","category":"B019","floor_id":"918d35f85b4c4cef84c6ba5225f954d2","name":" ","restricted":"1","suite":" ","nonpublic":"2","toll":"1","source":"2"}},{"type":"Feature","id":76,"geometry":{"type":"Polygon","coordinates":[[[139.69896015194655,35.688648485444475],[139.6989529172599,35.688663607764504],[139.69895083459627,35.688662967140395],[139.69895808292131,35.68864781695909],[139.69896015194655,35.688648485444475]]]},"properties":{"FID":76,"id":"e4aa2934b93d4d49b2b41e170a976ce3","category":"B019","floor_id":"918d35f85b4c4cef84c6ba5225f954d2","name":" ","restricted":"1","suite":" ","nonpublic":"2","toll":"1","source":"2"}},{"type":"Feature","id":77,"geometry":{"type":"Polygon","coordinates":[[[139.69868356451107,35.688665042841087],[139.69868325852485,35.688665661739982],[139.69865691763567,35.688656822285985],[139.69865724691994,35.688656146626947],[139.69866588707438,35.688640361587254],[139.6986677144624,35.688641065798556],[139.69866826567545,35.688640069359401],[139.69868654854071,35.688646665347768],[139.69868671945196,35.688646326719422],[139.69868749453354,35.688646649375343],[139.69868766378951,35.688646722176614],[139.6986878152052,35.688646817609929],[139.69868794428135,35.688646932839539],[139.69868804718254,35.688647064441476],[139.69868812085105,35.688647208505145],[139.69868816309787,35.688647360749854],[139.69868817266766,35.68864751665155],[139.69868814927599,35.688647671577776],[139.69868810469401,35.68864780471263],[139.69868762036853,35.688648693823041],[139.69869143760295,35.688650078089658],[139.69869073164963,35.688651355442659],[139.69868356451107,35.688665042841087]]]},"properties":{"FID":77,"id":"30c048651ee44d63a29b9a7c5783aa2c","category":"B026","floor_id":"918d35f85b4c4cef84c6ba5225f954d2","name":" ","restricted":"1","suite":" ","nonpublic":"2","toll":"1","source":"2"}},{"type":"Feature","id":78,"geometry":{"type":"Polygon","coordinates":[[[139.69896791505093,35.688650907339863],[139.69896074330356,35.68866607629905],[139.69895866844561,35.688665406107425],[139.69896583244653,35.688650267483503],[139.69896791505093,35.688650907339863]]]},"properties":{"FID":78,"id":"5e1da235d5b843498411c7edf3b0de8a","category":"B019","floor_id":"918d35f85b4c4cef84c6ba5225f954d2","name":" ","restricted":"1","suite":" ","nonpublic":"2","toll":"1","source":"2"}},{"type":"Feature","id":79,"geometry":{"type":"Polygon","coordinates":[[[139.69896999789691,35.688651547571027],[139.69896281280577,35.688666744760702],[139.69896074330356,35.68866607629905],[139.69896791505093,35.688650907339863],[139.69896999789691,35.688651547571027]]]},"properties":{"FID":79,"id":"811b6accb77646fe829fbf45030bf418","category":"B019","floor_id":"918d35f85b4c4cef84c6ba5225f954d2","name":" ","restricted":"1","suite":" ","nonpublic":"2","toll":"1","source":"2"}},{"type":"Feature","id":80,"geometry":{"type":"Polygon","coordinates":[[[139.69897780961097,35.688654044971706],[139.69897059712292,35.688669108728519],[139.69896849330863,35.68866852589823],[139.69897574908063,35.688653346814498],[139.69897780961097,35.688654044971706]]]},"properties":{"FID":80,"id":"0637f1f7e8294e829e9dfeeb4e229e23","category":"B019","floor_id":"918d35f85b4c4cef84c6ba5225f954d2","name":" ","restricted":"1","suite":" ","nonpublic":"2","toll":"1","source":"2"}},{"type":"Feature","id":81,"geometry":{"type":"Polygon","coordinates":[[[139.69900399977098,35.688661205836532],[139.69899683577478,35.688676345364094],[139.69899475304948,35.688675704870128],[139.69900191704599,35.688660565342708],[139.69900399977098,35.688661205836532]]]},"properties":{"FID":81,"id":"050eb23732be4a3f8f7d06c7e09c76f4","category":"B019","floor_id":"918d35f85b4c4cef84c6ba5225f954d2","name":" ","restricted":"1","suite":" ","nonpublic":"2","toll":"1","source":"2"}},{"type":"Feature","id":82,"geometry":{"type":"Polygon","coordinates":[[[139.69926712010579,35.688676149106342],[139.6992404848796,35.688678803462352],[139.69922567465309,35.688612349951406],[139.69925059233492,35.688602906669907],[139.69926712010579,35.688676149106342]]]},"properties":{"FID":82,"id":"48de8e2ee048417691319c06b642854c","category":"B021","floor_id":"918d35f85b4c4cef84c6ba5225f954d2","name":" ","restricted":"2","suite":" ","nonpublic":"2","toll":"2","source":"2"}},{"type":"Feature","id":83,"geometry":{"type":"Polygon","coordinates":[[[139.69901183368128,35.688663645572106],[139.69900458986118,35.688678797358421],[139.69900251627757,35.688678127401388],[139.69900975095618,35.688663005078396],[139.69901183368128,35.688663645572106]]]},"properties":{"FID":83,"id":"d6c9a119c78f438894ea6531ae537397","category":"B019","floor_id":"918d35f85b4c4cef84c6ba5225f954d2","name":" ","restricted":"1","suite":" ","nonpublic":"2","toll":"1","source":"2"}},{"type":"Feature","id":84,"geometry":{"type":"Polygon","coordinates":[[[139.69901391640641,35.688664286065773],[139.69900665953423,35.688679466051916],[139.69900458986118,35.688678797358421],[139.69901183368128,35.688663645572106],[139.69901391640641,35.688664286065773]]]},"properties":{"FID":84,"id":"5e8295b2290e414fb4bb6cca8dd35db2","category":"B019","floor_id":"918d35f85b4c4cef84c6ba5225f954d2","name":" ","restricted":"1","suite":" ","nonpublic":"2","toll":"1","source":"2"}},{"type":"Feature","id":85,"geometry":{"type":"Polygon","coordinates":[[[139.69902166825116,35.688666736433092],[139.69901449360938,35.688681904541014],[139.69901241072233,35.68868126439228],[139.69901959691023,35.688666067200892],[139.69902166825116,35.688666736433092]]]},"properties":{"FID":85,"id":"59c49c187d554cf5adb3f4b82ab5f2ed","category":"B019","floor_id":"918d35f85b4c4cef84c6ba5225f954d2","name":" ","restricted":"1","suite":" ","nonpublic":"2","toll":"1","source":"2"}},{"type":"Feature","id":86,"geometry":{"type":"Polygon","coordinates":[[[139.69902374016655,35.688667405850843],[139.69901657617504,35.688682544478191],[139.69901449360938,35.688681904541014],[139.69902166825116,35.688666736433092],[139.69902374016655,35.688667405850843]]]},"properties":{"FID":86,"id":"edb39229683d4de0b6c6c212d6d6ae19","category":"B019","floor_id":"918d35f85b4c4cef84c6ba5225f954d2","name":" ","restricted":"1","suite":" ","nonpublic":"2","toll":"1","source":"2"}},{"type":"Feature","id":87,"geometry":{"type":"Polygon","coordinates":[[[139.69898793039982,35.68867363745597],[139.69898315811565,35.68868381958346],[139.69897068506296,35.688679918956041],[139.69897513974013,35.688670405004935],[139.69897664290772,35.688667194656695],[139.69898909486938,35.688671152947627],[139.69898793039982,35.68867363745597]]]},"properties":{"FID":87,"id":"bd6cf76fa12f4b39a0353e5362fc3ee9","category":"B019","floor_id":"918d35f85b4c4cef84c6ba5225f954d2","name":" ","restricted":"1","suite":" ","nonpublic":"2","toll":"1","source":"2"}},{"type":"Feature","id":88,"geometry":{"type":"Polygon","coordinates":[[[139.69903157403391,35.688669844782588],[139.69902433158973,35.688684996900008],[139.69902225667875,35.688684326514554],[139.69902949135417,35.68866920419039],[139.69903157403391,35.688669844782588]]]},"properties":{"FID":88,"id":"08509f839694497e929a459d3df2773e","category":"B019","floor_id":"918d35f85b4c4cef84c6ba5225f954d2","name":" ","restricted":"1","suite":" ","nonpublic":"2","toll":"1","source":"2"}},{"type":"Feature","id":89,"geometry":{"type":"Polygon","coordinates":[[[139.69903365570019,35.688670485175848],[139.69902639993606,35.688685665164407],[139.69902433158973,35.688684996900008],[139.69903157403391,35.688669844782588],[139.69903365570019,35.688670485175848]]]},"properties":{"FID":89,"id":"d7c14f7832af4e50aa6ea75a29214782","category":"B019","floor_id":"918d35f85b4c4cef84c6ba5225f954d2","name":" ","restricted":"1","suite":" ","nonpublic":"2","toll":"1","source":"2"}},{"type":"Feature","id":90,"geometry":{"type":"Polygon","coordinates":[[[139.69904139783961,35.688672965368745],[139.69903425604511,35.688688046334207],[139.69903215222837,35.688687464406428],[139.69903933730822,35.688672267212617],[139.69904139783961,35.688672965368745]]]},"properties":{"FID":90,"id":"14dc9d40b10b41a8bc09fc41ea282dbc","category":"B019","floor_id":"918d35f85b4c4cef84c6ba5225f954d2","name":" ","restricted":"1","suite":" ","nonpublic":"2","toll":"1","source":"2"}},{"type":"Feature","id":91,"geometry":{"type":"Polygon","coordinates":[[[139.69906434779506,35.688679893658012],[139.6990571194342,35.6886952070817],[139.69905503781283,35.688694566590037],[139.69906226617397,35.688679253166441],[139.69906434779506,35.688679893658012]]]},"properties":{"FID":91,"id":"af64e50c7a72422ebca65f709122b8a6","category":"B019","floor_id":"918d35f85b4c4cef84c6ba5225f954d2","name":" ","restricted":"1","suite":" ","nonpublic":"2","toll":"1","source":"2"}},{"type":"Feature","id":92,"geometry":{"type":"Polygon","coordinates":[[[139.69907222499401,35.688682217161194],[139.69906490375689,35.688697571043441],[139.6990628010461,35.68869698821603],[139.69907014226644,35.688681577569902],[139.69907222499401,35.688682217161194]]]},"properties":{"FID":92,"id":"3513dff5fb3f4bfdacd1f5b68cd72119","category":"B019","floor_id":"918d35f85b4c4cef84c6ba5225f954d2","name":" ","restricted":"1","suite":" ","nonpublic":"2","toll":"1","source":"2"}},{"type":"Feature","id":93,"geometry":{"type":"Polygon","coordinates":[[[139.69905189399825,35.688693599930254],[139.69904754607575,35.688702874272415],[139.69903507301694,35.688698973651668],[139.69903943905697,35.688689660666888],[139.69904101086695,35.688686307915916],[139.69905348392413,35.688690208536052],[139.69905189399825,35.688693599930254]]]},"properties":{"FID":93,"id":"0c084686a167496e952e0d892235741d","category":"B019","floor_id":"918d35f85b4c4cef84c6ba5225f954d2","name":" ","restricted":"1","suite":" ","nonpublic":"2","toll":"1","source":"2"}},{"type":"Feature","id":94,"geometry":{"type":"Polygon","coordinates":[[[139.6992356025375,35.688707734961504],[139.69923574915771,35.688708591426206],[139.69911380324316,35.688678541865038],[139.69909186359448,35.688679937864016],[139.69908221086749,35.688702386106741],[139.69906490375689,35.688697571043441],[139.69907222499401,35.688682217161194],[139.69907014226644,35.688681577569902],[139.6990628010461,35.68869698821603],[139.6990571194342,35.6886952070817],[139.69906434779506,35.688679893658012],[139.69906226617397,35.688679253166441],[139.69905503781283,35.688694566590037],[139.69905189399825,35.688693599930254],[139.69905348392413,35.688690208536052],[139.69904101086695,35.688686307915916],[139.69903943905697,35.688689660666888],[139.69903425604511,35.688688046334207],[139.69904139783961,35.688672965368745],[139.69903933730822,35.688672267212617],[139.69903215222837,35.688687464406428],[139.69902639993606,35.688685665164407],[139.69903365570019,35.688670485175848],[139.69903157403391,35.688669844782588],[139.69902949135417,35.68866920419039],[139.69902225667875,35.688684326514554],[139.69901657617504,35.688682544478191],[139.69902374016655,35.688667405850843],[139.69902166825116,35.688666736433092],[139.69901959691023,35.688666067200892],[139.69901241072233,35.68868126439228],[139.69900665953423,35.688679466051916],[139.69901391640641,35.688664286065773],[139.69901183368128,35.688663645572106],[139.69900975095618,35.688663005078396],[139.69900251627757,35.688678127401388],[139.69899683577478,35.688676345364094],[139.69900399977098,35.688661205836532],[139.69900191704599,35.688660565342708],[139.69899475304948,35.688675704870128],[139.69898793039982,35.68867363745597],[139.69898909486938,35.688671152947627],[139.69897664290772,35.688667194656695],[139.69897513974013,35.688670405004935],[139.69897059712292,35.688669108728519],[139.69897780961097,35.688654044971706],[139.69897574908063,35.688653346814498],[139.69896849330863,35.68866852589823],[139.69896281280577,35.688666744760702],[139.69896999789691,35.688651547571027],[139.69896791505093,35.688650907339863],[139.69896583244653,35.688650267483503],[139.69895866844561,35.688665406107425],[139.6989529172599,35.688663607764504],[139.69896015194655,35.688648485444475],[139.69895808292131,35.68864781695909],[139.69895600869225,35.68864714679232],[139.69894875291556,35.688662326776253],[139.69894307241358,35.688660545637788],[139.69895025750941,35.688645347547912],[139.69894817490535,35.688644707691246],[139.69894609205966,35.688644067459698],[139.69893892805408,35.688659206983836],[139.69893317687075,35.688657407738617],[139.69894041156056,35.688642285419746],[139.69893832883508,35.688641645826152],[139.69893109414647,35.688656767243529],[139.69892240926521,35.688653606230766],[139.69892398851204,35.688650281164911],[139.69891990961244,35.688649005590982],[139.69891243030142,35.688633476396006],[139.69892945851038,35.688628035152696],[139.69892867680559,35.688626391082614],[139.69891000438668,35.688632317473377],[139.69890778586085,35.68862766753287],[139.69892645717249,35.688621742042585],[139.69892560460306,35.688620080829551],[139.69892475129336,35.68861841858989],[139.69890624509173,35.688624324956642],[139.69890400282048,35.688619730351967],[139.69890398670464,35.688619695713328],[139.69892253276402,35.688613770452363],[139.69892170658437,35.688612099976467],[139.69892089756851,35.688610464204558],[139.69890241635758,35.688616320487156],[139.6989002408703,35.688611735506797],[139.69890021111866,35.688611675760512],[139.69891867904113,35.688605815165594],[139.6989178259935,35.68860415373728],[139.69891697316271,35.688602491712757],[139.69889856262495,35.688608365311573],[139.69889640486841,35.688603713225625],[139.69891475353089,35.688597842672493],[139.6989139011435,35.688596181397358],[139.69889711954494,35.68860154293256],[139.69888445989832,35.688574931044108],[139.69888692517407,35.688570087261347],[139.69890215423894,35.688539463098472],[139.69893802912392,35.688551576101837],[139.6989405831774,35.688546556519761],[139.69893854153455,35.688545842874994],[139.69894654852033,35.688530108722503],[139.69894861006671,35.688530781540614],[139.69895116519979,35.688525761108814],[139.69894702195052,35.688524423357705],[139.69894782687501,35.688522781633068],[139.69894829137547,35.688521834237541],[139.6989535949572,35.688511289515638],[139.69895438426698,35.688509720188712],[139.69895511492155,35.68850826748163],[139.69896010099779,35.688498354028937],[139.69896099112586,35.688496584251745],[139.69896174066031,35.688495094006669],[139.6989666353646,35.688485362218678],[139.6989674574717,35.688483727682112],[139.69894856006096,35.688477547631955],[139.6989529927734,35.688468366227021],[139.69900977179009,35.68848515489951],[139.69901049666356,35.688484450836981],[139.69908016195708,35.688505123947877],[139.69908013654518,35.688506442623769],[139.69908831688429,35.688508783191658],[139.69906702049346,35.688560554359668],[139.6991653310302,35.688588420501297],[139.69916619118771,35.688586746061326],[139.69916191496193,35.688585533428245],[139.69916269686868,35.688583864994158],[139.69916308941751,35.688583015439811],[139.69916769415696,35.688572237390254],[139.69916838126377,35.688570629118402],[139.69916900960294,35.688569158400732],[139.69917336625545,35.688558961030274],[139.69917367141065,35.688558246770683],[139.69917407540441,35.688557306088335],[139.6991746813485,35.688555895173231],[139.69917905489962,35.688545711543632],[139.69917935495323,35.688545012881285],[139.69917981187416,35.688543990335582],[139.69915874552359,35.688538044173306],[139.69916220754592,35.688529947978374],[139.69917765800091,35.688534373022279],[139.69917846833644,35.688533437401937],[139.6992364063403,35.688548656561395],[139.69925163804768,35.688600527659162],[139.69922670489387,35.688609942727886],[139.69922858079539,35.688605559563591],[139.69922025730853,35.688603188702189],[139.69921735116563,35.688609979089811],[139.69922567465309,35.688612349951406],[139.6992404848796,35.688678803462352],[139.69924088178345,35.688680584369067],[139.69926536327324,35.688678176133571],[139.69927121817608,35.688701823767886],[139.6992356025375,35.688707734961504]],[[139.69915329217463,35.688594413159684],[139.69916161566007,35.688596783124339],[139.69916452291059,35.688589993640655],[139.6991562205165,35.688587565110666],[139.69915329217463,35.688594413159684]]]},"properties":{"FID":94,"id":"909bef57c9974cbda3b96e0c4cef8d2d","category":"B029","floor_id":"918d35f85b4c4cef84c6ba5225f954d2","name":" ","restricted":"2","suite":" ","nonpublic":"2","toll":"2","source":"2"}},{"type":"Feature","id":95,"geometry":{"type":"Polygon","coordinates":[[[139.69927121817608,35.688701823767886],[139.69928485844397,35.688756916013368],[139.69924542199979,35.688747762215961],[139.69923574915771,35.688708591426206],[139.6992356025375,35.688707734961504],[139.69927121817608,35.688701823767886]]]},"properties":{"FID":95,"id":"1ccd2af472044833a17d3c7b976647bc","category":"B021","floor_id":"918d35f85b4c4cef84c6ba5225f954d2","name":" ","restricted":"2","suite":" ","nonpublic":"2","toll":"2","source":"2"}},{"type":"Feature","id":96,"geometry":{"type":"Polygon","coordinates":[[[139.69926712010579,35.688676149106342],[139.6992871876009,35.688757456645583],[139.69928485844397,35.688756916013368],[139.69927121817608,35.688701823767886],[139.69926536327324,35.688678176133571],[139.69924088178345,35.688680584369067],[139.6992404848796,35.688678803462352],[139.69926712010579,35.688676149106342]]]},"properties":{"FID":96,"id":"6c1b663ca7d2437cbbb0e17e0b00f5d6","category":"B019","floor_id":"918d35f85b4c4cef84c6ba5225f954d2","name":" ","restricted":"1","suite":" ","nonpublic":"2","toll":"1","source":"2"}},{"type":"Feature","id":97,"geometry":{"type":"Polygon","coordinates":[[[139.69929220317712,35.688758620835777],[139.69928069981776,35.688787956631209],[139.69927985507957,35.68878773641692],[139.69925179230239,35.6887804207445],[139.69923021008685,35.68877479448134],[139.6992296725424,35.688748731673144],[139.69922244630877,35.688746947023297],[139.69917460485419,35.688735195739966],[139.69907832580893,35.688711421139089],[139.69908221086749,35.688702386106741],[139.69909186359448,35.688679937864016],[139.69911380324316,35.688678541865038],[139.69923574915771,35.688708591426206],[139.69924542199979,35.688747762215961],[139.69928485844397,35.688756916013368],[139.6992871876009,35.688757456645583],[139.69929220317712,35.688758620835777]]]},"properties":{"FID":97,"id":"707c895c3715483f98fc746ecbb761a2","category":"B026","floor_id":"918d35f85b4c4cef84c6ba5225f954d2","name":" ","restricted":"1","suite":" ","nonpublic":"2","toll":"1","source":"2"}},{"type":"Feature","id":98,"geometry":{"type":"Polygon","coordinates":[[[139.69877584856346,35.68875616603794],[139.69876590208662,35.688823625237703],[139.69875248048072,35.6888161309083],[139.69875387235547,35.688813004710731],[139.69874784119935,35.688817382231562],[139.69874921087839,35.688814314598304],[139.69873587878348,35.688806777682359],[139.69874391423502,35.688753001887967],[139.69877584856346,35.68875616603794]]]},"properties":{"FID":98,"id":"3a4d04114bb245afa6ac5c9a37da0a92","category":"B021","floor_id":"918d35f85b4c4cef84c6ba5225f954d2","name":" ","restricted":"2","suite":" ","nonpublic":"2","toll":"3","source":"2"}},{"type":"Feature","id":99,"geometry":{"type":"Polygon","coordinates":[[[139.69877853389636,35.688753416573562],[139.69876797056227,35.688824780228742],[139.69876590208662,35.688823625237703],[139.69877584856346,35.68875616603794],[139.69877628024329,35.688753238287575],[139.69877853389636,35.688753416573562]]]},"properties":{"FID":99,"id":"7bb4b421d5e74e26ba168e239c06c8e9","category":"B019","floor_id":"918d35f85b4c4cef84c6ba5225f954d2","name":" ","restricted":"1","suite":" ","nonpublic":"2","toll":"1","source":"2"}},{"type":"Feature","id":100,"geometry":{"type":"Polygon","coordinates":[[[139.69927985507957,35.68878773641692],[139.69920723759174,35.688911330033392],[139.6991843072463,35.688893302324665],[139.69922776793393,35.68882056422575],[139.69925179230239,35.6887804207445],[139.69927985507957,35.68878773641692]]]},"properties":{"FID":100,"id":"fa2ca23629634944b291be797f563c47","category":"B021","floor_id":"918d35f85b4c4cef84c6ba5225f954d2","name":" ","restricted":"2","suite":" ","nonpublic":"2","toll":"3","source":"2"}},{"type":"Feature","id":101,"geometry":{"type":"Polygon","coordinates":[[[139.69920723759174,35.688911330033392],[139.69909400992958,35.688961793214744],[139.69908280516827,35.68893946730897],[139.6991843072463,35.688893302324665],[139.69920723759174,35.688911330033392]]]},"properties":{"FID":101,"id":"1c5ba2a2dbff463cbbf2b5fee220aeae","category":"B021","floor_id":"918d35f85b4c4cef84c6ba5225f954d2","name":" ","restricted":"2","suite":" ","nonpublic":"2","toll":"3","source":"2"}},{"type":"Feature","id":102,"geometry":{"type":"Polygon","coordinates":[[[139.69906715531386,35.688949546099856],[139.69905423539419,35.689036892457274],[139.69874121628854,35.689005525871593],[139.69876797056227,35.688824780228742],[139.69877853389636,35.688753416573562],[139.69877628024329,35.688753238287575],[139.69877584856346,35.68875616603794],[139.69874391423502,35.688753001887967],[139.69874435012727,35.688750084756478],[139.69873716695216,35.688749418472767],[139.69874779674004,35.688677434589785],[139.69873017155078,35.688674911780382],[139.69872782474295,35.688663102111946],[139.69872147218393,35.688660839781463],[139.69869328497612,35.688650724635252],[139.69869414187252,35.688649042735932],[139.69869231448254,35.688648339426436],[139.69869143760295,35.688650078089658],[139.69868762036853,35.688648693823041],[139.69868810469401,35.68864780471263],[139.69868814927599,35.688647671577776],[139.69868817266766,35.68864751665155],[139.69868816309787,35.688647360749854],[139.69868812085105,35.688647208505145],[139.69868804718254,35.688647064441476],[139.69868794428135,35.688646932839539],[139.6986878152052,35.688646817609929],[139.69868766378951,35.688646722176614],[139.69868749453354,35.688646649375343],[139.69868671945196,35.688646326719422],[139.69869111978531,35.688638012897904],[139.69869151123453,35.68863716334387],[139.69869598225009,35.688628866727242],[139.69869683443005,35.688627191923885],[139.698699234484,35.688622603139372],[139.6987001144112,35.688620866024451],[139.69870096715414,35.688619182575465],[139.69870334140197,35.688614658550904],[139.69870423144977,35.688612988774082],[139.6987051247703,35.688611312857354],[139.69870752121207,35.688606731169834],[139.69870841026898,35.688605062665218],[139.69870930347366,35.688603386376343],[139.69871178537952,35.688598573132253],[139.69871265298377,35.688596838440617],[139.6987129873165,35.688596177525689],[139.69873196479762,35.688602547301649],[139.69873992117397,35.688587981946846],[139.69865512958927,35.688559092857595],[139.69865407653151,35.688560473479633],[139.6985438717513,35.688521082861953],[139.69854193348132,35.688521928880867],[139.69836451929058,35.688456287947801],[139.69836602297536,35.688453693688182],[139.69835791374368,35.688450745229218],[139.69835650293629,35.688453299031245],[139.69833684397,35.688446046198649],[139.69841826752398,35.688280791072295],[139.69844745263964,35.688291340960355],[139.69844621166155,35.688293432550985],[139.69844781379115,35.688294013586614],[139.6984208180518,35.688341259571388],[139.69841965913042,35.688340819364406],[139.69841597431852,35.688347416868496],[139.69842399066448,35.688350405781129],[139.69842677699572,35.688345539082604],[139.6984793100662,35.688365139359362],[139.69847645885514,35.688370113530425],[139.69848463876602,35.688373079186626],[139.6984873214781,35.688368183417289],[139.69853979573909,35.688387835990717],[139.69853703630358,35.688392769704286],[139.69854512334004,35.688395776715382],[139.69854880814503,35.688389178306004],[139.69854479801654,35.688387687663173],[139.69855408063015,35.688371427220822],[139.69861287616791,35.68839263376146],[139.69860320296101,35.688409739951595],[139.69860100107425,35.688409007377693],[139.69859757681016,35.688415732272048],[139.69860582110226,35.6884185258304],[139.69860831779019,35.688413463826706],[139.69866115807943,35.688432578134261],[139.69865861756247,35.688437556938702],[139.69866686185895,35.688440350492847],[139.6986693585437,35.688435288487945],[139.69871868567998,35.688453086519885],[139.69871619563943,35.688458085137952],[139.69872436815513,35.688460859679125],[139.69872777021615,35.68845419244407],[139.69875262316495,35.688402826017843],[139.69875515531768,35.688403731019882],[139.69879134449303,35.688329954678025],[139.6987904449241,35.688329647790383],[139.69879558031607,35.688319581038002],[139.69874689540802,35.688303016227366],[139.69877175020412,35.688254579150382],[139.6988009341608,35.688264520924022],[139.69878767859075,35.68829043722581],[139.69878682280654,35.688292118225789],[139.69882121490267,35.688303845146727],[139.69884084708525,35.688310539267619],[139.69882512767089,35.688341452446089],[139.69881247338438,35.688367222895984],[139.69880894889479,35.688374428114592],[139.69886950239635,35.688392977452985],[139.69890570763695,35.688380024638093],[139.69892829666793,35.688386675829911],[139.69892907528185,35.688386867789603],[139.69893373659812,35.68838827191972],[139.69896309731629,35.688396952437486],[139.69895866513102,35.688406495702388],[139.69896026837063,35.688407006175154],[139.69896574028851,35.688408743503658],[139.6989462306698,35.688450757114566],[139.69894536706775,35.688450512780641],[139.69894494385267,35.68845185895492],[139.69886513212035,35.688426851462665],[139.69885952570741,35.688438210574084],[139.69883380448667,35.688489398582171],[139.69884404797386,35.688492743604471],[139.69884083601292,35.688499211539941],[139.69884393073949,35.688500237562948],[139.69883912505153,35.68850945099372],[139.69885336739497,35.688514419030497],[139.69884999168076,35.688521850660209],[139.69890057603124,35.68853893024626],[139.69888533833671,35.688569569004251],[139.69887868085502,35.688567294623638],[139.6988752577108,35.688574020428319],[139.69888350203041,35.688576813066284],[139.69889559716918,35.68860202931463],[139.69889640486841,35.688603713225625],[139.69889856262495,35.688608365311573],[139.69889939731428,35.688610041506337],[139.69890021111866,35.688611675760512],[139.6989002408703,35.688611735506797],[139.69890241635758,35.688616320487156],[139.69890320313647,35.688618011550751],[139.69890398670464,35.688619695713328],[139.69890400282048,35.688619730351967],[139.69890624509173,35.688624324956642],[139.69890702493225,35.688626016825033],[139.69890778586085,35.68862766753287],[139.69891000438668,35.688632317473377],[139.69891081723173,35.688633991840618],[139.69891778366988,35.688648340755506],[139.69891151546747,35.68864638053136],[139.69890550802157,35.688659029057042],[139.69891798106781,35.688662929691212],[139.69892240926521,35.688653606230766],[139.69893109414647,35.688656767243529],[139.69893317687075,35.688657407738617],[139.69893892805408,35.688659206983836],[139.69894100291171,35.688659877175795],[139.69894307241358,35.688660545637788],[139.69894875291556,35.688662326776253],[139.69895083459627,35.688662967140395],[139.6989529172599,35.688663607764504],[139.69895866844561,35.688665406107425],[139.69896074330356,35.68866607629905],[139.69896281280577,35.688666744760702],[139.69896849330863,35.68866852589823],[139.69897059712292,35.688669108728519],[139.69897513974013,35.688670405004935],[139.69897068506296,35.688679918956041],[139.69898315811565,35.68868381958346],[139.69898793039982,35.68867363745597],[139.69899475304948,35.688675704870128],[139.69899683577478,35.688676345364094],[139.69900251627757,35.688678127401388],[139.69900458986118,35.688678797358421],[139.69900665953423,35.688679466051916],[139.69901241072233,35.68868126439228],[139.69901449360938,35.688681904541014],[139.69901657617504,35.688682544478191],[139.69902225667875,35.688684326514554],[139.69902433158973,35.688684996900008],[139.69902639993606,35.688685665164407],[139.69903215222837,35.688687464406428],[139.69903425604511,35.688688046334207],[139.69903943905697,35.688689660666888],[139.69903507301694,35.688698973651668],[139.69904754607575,35.688702874272415],[139.69905189399825,35.688693599930254],[139.69905503781283,35.688694566590037],[139.6990571194342,35.6886952070817],[139.6990628010461,35.68869698821603],[139.69906490375689,35.688697571043441],[139.69908221086749,35.688702386106741],[139.69907832580893,35.688711421139089],[139.69917460485419,35.688735195739966],[139.69922244630877,35.688746947023297],[139.6992296725424,35.688748731673144],[139.69923021008685,35.68877479448134],[139.69925179230239,35.6887804207445],[139.69922776793393,35.68882056422575],[139.6991843072463,35.688893302324665],[139.69908280516827,35.68893946730897],[139.69909400992958,35.688961793214744],[139.69909317324738,35.68896196444345],[139.69907668006684,35.688960352429298],[139.69907812720515,35.688950614741664],[139.69906715531386,35.688949546099856]]]},"properties":{"FID":102,"id":"5487253f58914d5aba4ec85ee824f167","category":"B029","floor_id":"918d35f85b4c4cef84c6ba5225f954d2","name":" ","restricted":"2","suite":" ","nonpublic":"2","toll":"3","source":"2"}}]}