{"type":"FeatureCollection","crs":{"type":"name","properties":{"name":"EPSG:6668"}},"features":[{"type":"Feature","id":0,"geometry":{"type":"Polygon","coordinates":[[[139.69933687954097,35.687635128201848],[139.69932995617333,35.687653802291848],[139.69932520832458,35.687652630634105],[139.69931457840073,35.687650007532078],[139.69930975986995,35.687648818669004],[139.69931668324188,35.687630144580183],[139.69933687954097,35.687635128201848]]]},"properties":{"FID":0,"id":"bba384f356724b97842180380b75fcbd","category":"B022","floor_id":"8e00d6d1991a4a55a20320af3cd8639f","name":" ","restricted":"2","suite":" ","nonpublic":"2","toll":"2","source":"2"}},{"type":"Feature","id":1,"geometry":{"type":"Polygon","coordinates":[[[139.69934766002899,35.687646734324801],[139.69934281115215,35.687659813414982],[139.69932424384783,35.687655231815903],[139.69932441587471,35.687654769604549],[139.69932520832458,35.687652630634105],[139.69932995617333,35.687653802291848],[139.69933687954097,35.687635128201848],[139.69931668324188,35.687630144580183],[139.69930975986995,35.687648818669004],[139.69931457840073,35.687650007532078],[139.69931378595058,35.687652146502451],[139.6993136139221,35.687652609615157],[139.69930560586312,35.687650633009262],[139.69931044023295,35.687637593065794],[139.69931460802454,35.68762635110749],[139.69935181330334,35.687635531510431],[139.69934766002899,35.687646734324801]]]},"properties":{"FID":1,"id":"59e4f781f5c24b0a913edf35b0884ee6","category":"B019","floor_id":"8e00d6d1991a4a55a20320af3cd8639f","name":" ","restricted":"1","suite":" ","nonpublic":"2","toll":"1","source":"2"}},{"type":"Feature","id":2,"geometry":{"type":"Polygon","coordinates":[[[139.69927362306049,35.687656767277026],[139.69926372331332,35.687677998841082],[139.69926304834075,35.687677789434773],[139.69926190675528,35.687677435264511],[139.69927175882188,35.687656306403689],[139.69928128243197,35.687630427303198],[139.69928305826593,35.687630863728835],[139.69927362306049,35.687656767277026]]]},"properties":{"FID":2,"id":"67d121cd8bcf452b8e00c35aa4c50bcb","category":"B019","floor_id":"8e00d6d1991a4a55a20320af3cd8639f","name":" ","restricted":"1","suite":" ","nonpublic":"2","toll":"1","source":"2"}},{"type":"Feature","id":3,"geometry":{"type":"Polygon","coordinates":[[[139.69936756166862,35.687680019931065],[139.69936333676876,35.687696480556596],[139.69936214054562,35.687696276404125],[139.69936143363097,35.687696155748277],[139.69936569411436,35.687679559055518],[139.69937531238722,35.687653620333428],[139.69937717151043,35.687654083293253],[139.69936756166862,35.687680019931065]]]},"properties":{"FID":3,"id":"5ffe60c379bb4474a1bf2bf96612f2df","category":"B019","floor_id":"8e00d6d1991a4a55a20320af3cd8639f","name":" ","restricted":"1","suite":" ","nonpublic":"2","toll":"1","source":"2"}},{"type":"Feature","id":4,"geometry":{"type":"Polygon","coordinates":[[[139.69925169677907,35.687703803390029],[139.6992451840099,35.687721387274422],[139.69924449378883,35.687721216955502],[139.6992433241864,35.687720928208321],[139.69924988353364,35.687703240718342],[139.69925242947528,35.687697758717029],[139.69925357098046,35.687698112862385],[139.69925424603372,35.687698322293734],[139.69925169677907,35.687703803390029]]]},"properties":{"FID":4,"id":"8abdddde337e493ca077dd5e7753424e","category":"B019","floor_id":"8e00d6d1991a4a55a20320af3cd8639f","name":" ","restricted":"1","suite":" ","nonpublic":"2","toll":"1","source":"2"}},{"type":"Feature","id":5,"geometry":{"type":"Polygon","coordinates":[[[139.69935491486117,35.687729236887463],[139.69935031554741,35.687741649042842],[139.69934914685169,35.68774136057116],[139.69934845572286,35.68774118997834],[139.69935305740123,35.68772877642752],[139.6993559709525,35.68771743822731],[139.69935667785788,35.687717558919786],[139.6993578729859,35.687717763034485],[139.69935491486117,35.687729236887463]]]},"properties":{"FID":5,"id":"11aca51c10ed471baa50dcd86f0d25e9","category":"B019","floor_id":"8e00d6d1991a4a55a20320af3cd8639f","name":" ","restricted":"1","suite":" ","nonpublic":"2","toll":"1","source":"2"}},{"type":"Feature","id":6,"geometry":{"type":"Polygon","coordinates":[[[139.69923746816031,35.68774220032865],[139.6992287556366,35.687765702861711],[139.69922806403096,35.687765532251419],[139.69922689470729,35.687765243794153],[139.69923560833487,35.687741742163816],[139.69923677678983,35.687742030010703],[139.69923746816031,35.68774220032865]]]},"properties":{"FID":6,"id":"e83ece8debbc489790270423fa85e8c1","category":"B019","floor_id":"8e00d6d1991a4a55a20320af3cd8639f","name":" ","restricted":"1","suite":" ","nonpublic":"2","toll":"1","source":"2"}},{"type":"Feature","id":7,"geometry":{"type":"Polygon","coordinates":[[[139.69934259972314,35.687762462103784],[139.6993338872295,35.687785963743046],[139.69933271756088,35.687785675031229],[139.69933202740401,35.687785504678324],[139.69934073989813,35.687762003039168],[139.69934143011977,35.687762173357555],[139.69934259972314,35.687762462103784]]]},"properties":{"FID":7,"id":"df70a2517beb45d48792c4c30329d628","category":"B019","floor_id":"8e00d6d1991a4a55a20320af3cd8639f","name":" ","restricted":"1","suite":" ","nonpublic":"2","toll":"1","source":"2"}},{"type":"Feature","id":8,"geometry":{"type":"Polygon","coordinates":[[[139.69922103977842,35.687786515914738],[139.69920856476799,35.687820163681408],[139.69920787454615,35.687819993362282],[139.69920670494241,35.68781970461476],[139.69921917884867,35.687786056847038],[139.6992203483214,35.687786345341095],[139.69922103977842,35.687786515914738]]]},"properties":{"FID":8,"id":"435a154483144c4596c10a9ba84ab40f","category":"B019","floor_id":"8e00d6d1991a4a55a20320af3cd8639f","name":" ","restricted":"1","suite":" ","nonpublic":"2","toll":"1","source":"2"}},{"type":"Feature","id":9,"geometry":{"type":"Polygon","coordinates":[[[139.69932617139668,35.687806776802773],[139.69931369642566,35.687840425481696],[139.69931252786461,35.687840136902238],[139.69931183659901,35.687839966416668],[139.69932431046587,35.687806317736715],[139.69932500151893,35.687806488210008],[139.69932617139668,35.687806776802773]]]},"properties":{"FID":9,"id":"c38be433434c4e14baaef09f64fe02d4","category":"B019","floor_id":"8e00d6d1991a4a55a20320af3cd8639f","name":" ","restricted":"1","suite":" ","nonpublic":"2","toll":"1","source":"2"}},{"type":"Feature","id":10,"geometry":{"type":"Polygon","coordinates":[[[139.69920084889779,35.687840977634295],[139.69919213635401,35.687864479262892],[139.69919144484885,35.687864308677355],[139.69919027542264,35.687864020194745],[139.69919898907176,35.687840518567519],[139.69920015745288,35.687840806962747],[139.69920084889779,35.687840977634295]]]},"properties":{"FID":10,"id":"57e4acf98e944289bec594b057d5e7a9","category":"B019","floor_id":"8e00d6d1991a4a55a20320af3cd8639f","name":" ","restricted":"1","suite":" ","nonpublic":"2","toll":"1","source":"2"}},{"type":"Feature","id":11,"geometry":{"type":"Polygon","coordinates":[[[139.6993059805823,35.687861238539931],[139.69929726806711,35.687884740176131],[139.69929609835992,35.687884451625415],[139.69929540713463,35.687884281109604],[139.69930412075519,35.687860779474789],[139.69930481097762,35.687860949793368],[139.6993059805823,35.687861238539931]]]},"properties":{"FID":11,"id":"d05ce392219b4a4997d0f8d7d2b0d6f3","category":"B019","floor_id":"8e00d6d1991a4a55a20320af3cd8639f","name":" ","restricted":"1","suite":" ","nonpublic":"2","toll":"1","source":"2"}},{"type":"Feature","id":12,"geometry":{"type":"Polygon","coordinates":[[[139.69918442047674,35.687885292313162],[139.69917570681841,35.687908793939151],[139.69917501659589,35.68790862361984],[139.69917384699096,35.687908334872006],[139.69918255954491,35.687884833244915],[139.69918372918474,35.687885121780212],[139.69918442047674,35.687885292313162]]]},"properties":{"FID":12,"id":"f26286ce7023492ba685587dcf176ac6","category":"B019","floor_id":"8e00d6d1991a4a55a20320af3cd8639f","name":" ","restricted":"1","suite":" ","nonpublic":"2","toll":"1","source":"2"}},{"type":"Feature","id":13,"geometry":{"type":"Polygon","coordinates":[[[139.69928955221516,35.687905553233151],[139.69928083858542,35.687929054866714],[139.69927967022596,35.687928766637569],[139.69927897875689,35.687928595801168],[139.69928769128225,35.687905094166481],[139.69928838290852,35.687905264781222],[139.69928955221516,35.687905553233151]]]},"properties":{"FID":13,"id":"ba39062702e44f559ec13b9189c64ae1","category":"B019","floor_id":"8e00d6d1991a4a55a20320af3cd8639f","name":" ","restricted":"1","suite":" ","nonpublic":"2","toll":"1","source":"2"}},{"type":"Feature","id":14,"geometry":{"type":"Polygon","coordinates":[[[139.6992491295691,35.68793921495093],[139.69924430470041,35.68793970677109],[139.6992733636684,35.687861330217963],[139.69927704933258,35.687862235644623],[139.69927761706543,35.687862374242108],[139.6992491295691,35.68793921495093]]]},"properties":{"FID":14,"id":"a80896ab9259484d90f9cf3dadbc3f91","category":"B019","floor_id":"8e00d6d1991a4a55a20320af3cd8639f","name":" ","restricted":"1","suite":" ","nonpublic":"2","toll":"1","source":"2"}},{"type":"Feature","id":15,"geometry":{"type":"Polygon","coordinates":[[[139.69924430470041,35.68793970677109],[139.69922991747421,35.687941173323402],[139.69926067730589,35.687858200054038],[139.6992733636684,35.687861330217963],[139.69924430470041,35.68793970677109]]]},"properties":{"FID":15,"id":"4feaf7d68a9845cea183ea43d0186485","category":"B023","floor_id":"8e00d6d1991a4a55a20320af3cd8639f","name":" ","restricted":"2","suite":" ","nonpublic":"2","toll":"2","source":"2"}},{"type":"Feature","id":16,"geometry":{"type":"Polygon","coordinates":[[[139.69922991747421,35.687941173323402],[139.69922774757362,35.687941394510624],[139.69925876443386,35.687857728398711],[139.69926067730589,35.687858200054038],[139.69922991747421,35.687941173323402]]]},"properties":{"FID":16,"id":"c1669902d8bf4452ab6e4b40fc04e4de","category":"B019","floor_id":"8e00d6d1991a4a55a20320af3cd8639f","name":" ","restricted":"1","suite":" ","nonpublic":"2","toll":"1","source":"2"}},{"type":"Feature","id":17,"geometry":{"type":"Polygon","coordinates":[[[139.69922774757362,35.687941394510624],[139.69922557792682,35.687941615671924],[139.69925685052277,35.687857256564641],[139.69925876443386,35.687857728398711],[139.69922774757362,35.687941394510624]]]},"properties":{"FID":17,"id":"771393e7f1a4422c80be8f9aac4726ad","category":"B019","floor_id":"8e00d6d1991a4a55a20320af3cd8639f","name":" ","restricted":"1","suite":" ","nonpublic":"2","toll":"1","source":"2"}},{"type":"Feature","id":18,"geometry":{"type":"Polygon","coordinates":[[[139.69921124748976,35.687943113397566],[139.69920906947939,35.687943335342879],[139.699242323243,35.68785367150236],[139.69924423705393,35.687854143606174],[139.69921124748976,35.687943113397566]]]},"properties":{"FID":18,"id":"7b66fd0cfdfb4ce7adcaf6dddfdcc756","category":"B019","floor_id":"8e00d6d1991a4a55a20320af3cd8639f","name":" ","restricted":"1","suite":" ","nonpublic":"2","toll":"1","source":"2"}},{"type":"Feature","id":19,"geometry":{"type":"Polygon","coordinates":[[[139.69920906947939,35.687943335342879],[139.69920691115144,35.687943555282466],[139.69924041027272,35.687853199214899],[139.699242323243,35.68785367150236],[139.69920906947939,35.687943335342879]]]},"properties":{"FID":19,"id":"01c23c004c0543debb320296bd7f3147","category":"B019","floor_id":"8e00d6d1991a4a55a20320af3cd8639f","name":" ","restricted":"1","suite":" ","nonpublic":"2","toll":"1","source":"2"}},{"type":"Feature","id":20,"geometry":{"type":"Polygon","coordinates":[[[139.69920691115144,35.687943555282466],[139.69919252287198,35.687945021486932],[139.69922772501616,35.687850069950088],[139.69924041027272,35.687853199214899],[139.69920691115144,35.687943555282466]]]},"properties":{"FID":20,"id":"bfa10fc8f8a6469594ee21ca07b88138","category":"B023","floor_id":"8e00d6d1991a4a55a20320af3cd8639f","name":" ","restricted":"2","suite":" ","nonpublic":"2","toll":"2","source":"2"}},{"type":"Feature","id":21,"geometry":{"type":"Polygon","coordinates":[[[139.69919252287198,35.687945021486932],[139.69918770054801,35.687945512894359],[139.69922347278975,35.687849019618611],[139.69922403968977,35.687849159727435],[139.69922772501616,35.687850069950088],[139.69919252287198,35.687945021486932]]]},"properties":{"FID":21,"id":"8679f2f5f7be4ac7a7a5c49eef652e12","category":"B019","floor_id":"8e00d6d1991a4a55a20320af3cd8639f","name":" ","restricted":"1","suite":" ","nonpublic":"2","toll":"1","source":"2"}},{"type":"Feature","id":22,"geometry":{"type":"Polygon","coordinates":[[[139.69921893486406,35.687939084870798],[139.69921791634437,35.68794558531814],[139.69921647841718,35.687942580351319],[139.69921124748976,35.687943113397566],[139.69924423705393,35.687854143606174],[139.69925685052277,35.687857256564641],[139.69922557792682,35.687941615671924],[139.69922035170077,35.687942148403152],[139.69921893486406,35.687939084870798]]]},"properties":{"FID":22,"id":"cd42928834c94461abd2b7fbdc62b6b2","category":"B023","floor_id":"8e00d6d1991a4a55a20320af3cd8639f","name":" ","restricted":"2","suite":" ","nonpublic":"2","toll":"2","source":"2"}},{"type":"Feature","id":23,"geometry":{"type":"Polygon","coordinates":[[[139.69916799093258,35.68792960698822],[139.6991555169808,35.687963255651105],[139.69915482539329,35.687963085045233],[139.69915365604734,35.687962796582397],[139.6991661311047,35.687929147920933],[139.69916729984155,35.687929436404012],[139.69916799093258,35.68792960698822]]]},"properties":{"FID":23,"id":"44b1e23846a0439a9ca185246ba6a061","category":"B019","floor_id":"8e00d6d1991a4a55a20320af3cd8639f","name":" ","restricted":"1","suite":" ","nonpublic":"2","toll":"1","source":"2"}},{"type":"Feature","id":24,"geometry":{"type":"Polygon","coordinates":[[[139.69929028029716,35.687854714069616],[139.69924659889736,35.68797254028901],[139.69917450538816,35.687954734489651],[139.69921813801713,35.68783691278832],[139.69922409078549,35.687838382343223],[139.69922974893916,35.687823118536208],[139.69923336367248,35.68782401041215],[139.69922403968977,35.687849159727435],[139.69922347278975,35.687849019618611],[139.69918770054801,35.687945512894359],[139.69919252287198,35.687945021486932],[139.69920691115144,35.687943555282466],[139.69920906947939,35.687943335342879],[139.69921124748976,35.687943113397566],[139.69921647841718,35.687942580351319],[139.69921791634437,35.68794558531814],[139.69921893486406,35.687939084870798],[139.69922035170077,35.687942148403152],[139.69922557792682,35.687941615671924],[139.69922774757362,35.687941394510624],[139.69922991747421,35.687941173323402],[139.69924430470041,35.68793970677109],[139.6992491295691,35.68793921495093],[139.69927761706543,35.687862374242108],[139.69927704933258,35.687862235644623],[139.69928637203847,35.687837089736441],[139.69928998566817,35.687837981609498],[139.69928449844755,35.687852783206807],[139.69928432752488,35.687853245419333],[139.69929028029716,35.687854714069616]]]},"properties":{"FID":24,"id":"e4d4134a5c2b40d1843a95cc9d42ac92","category":"B019","floor_id":"8e00d6d1991a4a55a20320af3cd8639f","name":" ","restricted":"1","suite":" ","nonpublic":"2","toll":"1","source":"2"}},{"type":"Feature","id":25,"geometry":{"type":"Polygon","coordinates":[[[139.69927312272338,35.68794986882385],[139.699260648814,35.687983516596233],[139.69925947903474,35.687983228027704],[139.6992587878795,35.687983057529166],[139.69927126289443,35.687949409758211],[139.69927195311755,35.687949580076975],[139.69927312272338,35.68794986882385]]]},"properties":{"FID":25,"id":"97b3e1140d73499c9bfa9f4ee63f3536","category":"B019","floor_id":"8e00d6d1991a4a55a20320af3cd8639f","name":" ","restricted":"1","suite":" ","nonpublic":"2","toll":"1","source":"2"}},{"type":"Feature","id":26,"geometry":{"type":"Polygon","coordinates":[[[139.69914779997956,35.687984068697432],[139.69913908740455,35.688007570321538],[139.69913839718123,35.688007400002014],[139.69913722757499,35.688007111253825],[139.69914594015052,35.687983609629818],[139.69914710974362,35.687983898324262],[139.69914779997956,35.687984068697432]]]},"properties":{"FID":26,"id":"f4c90feb33e54cdebdd622687e7fbcf6","category":"B019","floor_id":"8e00d6d1991a4a55a20320af3cd8639f","name":" ","restricted":"1","suite":" ","nonpublic":"2","toll":"1","source":"2"}},{"type":"Feature","id":27,"geometry":{"type":"Polygon","coordinates":[[[139.69925293294295,35.688004329650518],[139.69924421929167,35.688027831281026],[139.69924305093087,35.688027543051525],[139.69924235946107,35.688027372214918],[139.69925107200802,35.68800387058333],[139.69925176357154,35.688004041182602],[139.69925293294295,35.688004329650518]]]},"properties":{"FID":27,"id":"ebf55f19fc6a4ab6a0ca0f6cece04439","category":"B019","floor_id":"8e00d6d1991a4a55a20320af3cd8639f","name":" ","restricted":"1","suite":" ","nonpublic":"2","toll":"1","source":"2"}},{"type":"Feature","id":28,"geometry":{"type":"Polygon","coordinates":[[[139.69913137149959,35.688028383367872],[139.69912265891489,35.688051884990635],[139.69912196762496,35.688051714565539],[139.69912079797956,35.688051425921444],[139.69912951166961,35.688027924300044],[139.699130680091,35.688028212705284],[139.69913137149959,35.688028383367872]]]},"properties":{"FID":28,"id":"26fde25c57c84dd9b3ee4e24f3179756","category":"B019","floor_id":"8e00d6d1991a4a55a20320af3cd8639f","name":" ","restricted":"1","suite":" ","nonpublic":"2","toll":"1","source":"2"}},{"type":"Feature","id":29,"geometry":{"type":"Polygon","coordinates":[[[139.69923650341056,35.688048645235433],[139.69922779085445,35.688072146865764],[139.69922662124694,35.688071858118448],[139.69922593102288,35.688071687799422],[139.69923464357953,35.688048186169212],[139.69923533380339,35.688048356488181],[139.69923650341056,35.688048645235433]]]},"properties":{"FID":29,"id":"a291b7cacfa64f1eb3db91efd0ccbfd7","category":"B019","floor_id":"8e00d6d1991a4a55a20320af3cd8639f","name":" ","restricted":"1","suite":" ","nonpublic":"2","toll":"1","source":"2"}},{"type":"Feature","id":30,"geometry":{"type":"Polygon","coordinates":[[[139.69911494299987,35.68807269893712],[139.69910246789999,35.688106346691008],[139.69910177767588,35.688106176371271],[139.69910060806839,35.688105887622704],[139.69911308206409,35.688072239867786],[139.69911425150713,35.688072528161406],[139.69911494299987,35.68807269893712]]]},"properties":{"FID":30,"id":"f304ef2eec754f57bb9f2dea86048381","category":"B019","floor_id":"8e00d6d1991a4a55a20320af3cd8639f","name":" ","restricted":"1","suite":" ","nonpublic":"2","toll":"1","source":"2"}},{"type":"Feature","id":31,"geometry":{"type":"Polygon","coordinates":[[[139.69922007496626,35.688092959917604],[139.69920759990728,35.688126607682356],[139.69920643037617,35.688126319571438],[139.6992057400731,35.688126149517075],[139.69921821402943,35.688092500849912],[139.6992189053199,35.688092671274433],[139.69922007496626,35.688092959917604]]]},"properties":{"FID":31,"id":"ab3dced77a22467c961ad733a03b7dd8","category":"B019","floor_id":"8e00d6d1991a4a55a20320af3cd8639f","name":" ","restricted":"1","suite":" ","nonpublic":"2","toll":"1","source":"2"}},{"type":"Feature","id":32,"geometry":{"type":"Polygon","coordinates":[[[139.69909475197593,35.688127159734584],[139.69908603936818,35.688150662255616],[139.69908534787484,35.68815049147976],[139.69908417843078,35.688150203185856],[139.6990928921424,35.688126701567541],[139.69909406053068,35.688126989398135],[139.69909475197593,35.688127159734584]]]},"properties":{"FID":32,"id":"d4e6bec8b5e64938a13e44c6675e13a9","category":"B019","floor_id":"8e00d6d1991a4a55a20320af3cd8639f","name":" ","restricted":"1","suite":" ","nonpublic":"2","toll":"1","source":"2"}},{"type":"Feature","id":33,"geometry":{"type":"Polygon","coordinates":[[[139.69916951084105,35.688154187724429],[139.69916651391119,35.688154536607854],[139.69919305807258,35.688078152757704],[139.69919674239341,35.68807906273971],[139.69916951084105,35.688154187724429]]]},"properties":{"FID":33,"id":"5ad5ac56d47e42f5bcc3e0756f8cad34","category":"B019","floor_id":"8e00d6d1991a4a55a20320af3cd8639f","name":" ","restricted":"1","suite":" ","nonpublic":"2","toll":"1","source":"2"}},{"type":"Feature","id":34,"geometry":{"type":"Polygon","coordinates":[[[139.69916651391119,35.688154536607854],[139.69915221039997,35.688156201730081],[139.69918044346508,35.688075040692731],[139.69919305807258,35.688078152757704],[139.69916651391119,35.688154536607854]]]},"properties":{"FID":34,"id":"6ea97fa10e324389b4a2d4e6891fffb6","category":"B023","floor_id":"8e00d6d1991a4a55a20320af3cd8639f","name":" ","restricted":"2","suite":" ","nonpublic":"2","toll":"2","source":"2"}},{"type":"Feature","id":35,"geometry":{"type":"Polygon","coordinates":[[[139.69915221039997,35.688156201730081],[139.69915002812041,35.688156455776792],[139.69917852934819,35.688074568435269],[139.69918044346508,35.688075040692731],[139.69915221039997,35.688156201730081]]]},"properties":{"FID":35,"id":"83902b53606d45f387506ac402feb925","category":"B019","floor_id":"8e00d6d1991a4a55a20320af3cd8639f","name":" ","restricted":"1","suite":" ","nonpublic":"2","toll":"1","source":"2"}},{"type":"Feature","id":36,"geometry":{"type":"Polygon","coordinates":[[[139.69915002812041,35.688156455776792],[139.69914784971101,35.688156709372926],[139.69917654599126,35.688074079094662],[139.69917852934819,35.688074568435269],[139.69915002812041,35.688156455776792]]]},"properties":{"FID":36,"id":"0c1b715980894aec99d252e7a8cb352a","category":"B019","floor_id":"8e00d6d1991a4a55a20320af3cd8639f","name":" ","restricted":"1","suite":" ","nonpublic":"2","toll":"1","source":"2"}},{"type":"Feature","id":37,"geometry":{"type":"Polygon","coordinates":[[[139.6991335397212,35.688158361247652],[139.69913135887219,35.68815861678457],[139.69916201770891,35.688070493860003],[139.69916393138661,35.688070966126588],[139.6991335397212,35.688158361247652]]]},"properties":{"FID":37,"id":"41e80c0a5c4d4e3b86602ae2478e588c","category":"B019","floor_id":"8e00d6d1991a4a55a20320af3cd8639f","name":" ","restricted":"1","suite":" ","nonpublic":"2","toll":"1","source":"2"}},{"type":"Feature","id":38,"geometry":{"type":"Polygon","coordinates":[[[139.69913135887219,35.68815861678457],[139.69912925600329,35.688158863184277],[139.69916010459602,35.688070021732756],[139.69916201770891,35.688070493860003],[139.69913135887219,35.68815861678457]]]},"properties":{"FID":38,"id":"9371efc01e1e4a01b9f0663c62c0985d","category":"B019","floor_id":"8e00d6d1991a4a55a20320af3cd8639f","name":" ","restricted":"1","suite":" ","nonpublic":"2","toll":"1","source":"2"}},{"type":"Feature","id":39,"geometry":{"type":"Polygon","coordinates":[[[139.69912925600329,35.688158863184277],[139.69911494517814,35.688160539266484],[139.6991474193083,35.688066892459531],[139.69916010459602,35.688070021732756],[139.69912925600329,35.688158863184277]]]},"properties":{"FID":39,"id":"25b41f0f87614336adb6b29fd613b6f9","category":"B023","floor_id":"8e00d6d1991a4a55a20320af3cd8639f","name":" ","restricted":"2","suite":" ","nonpublic":"2","toll":"2","source":"2"}},{"type":"Feature","id":40,"geometry":{"type":"Polygon","coordinates":[[[139.69914124368063,35.688154280608451],[139.69914036651616,35.688160816365908],[139.6991388789958,35.688157735627897],[139.6991335397212,35.688158361247652],[139.69916393138661,35.688070966126588],[139.69917654599126,35.688074079094662],[139.69914784971101,35.688156709372926],[139.69914275229169,35.688157302780901],[139.69914124368063,35.688154280608451]]]},"properties":{"FID":40,"id":"1fe8bf0233c440c8a1bebb39e1416b7e","category":"B023","floor_id":"8e00d6d1991a4a55a20320af3cd8639f","name":" ","restricted":"2","suite":" ","nonpublic":"2","toll":"2","source":"2"}},{"type":"Feature","id":41,"geometry":{"type":"Polygon","coordinates":[[[139.69911494517814,35.688160539266484],[139.69910766690765,35.688161392843817],[139.69914366320091,35.688065965269978],[139.6991474193083,35.688066892459531],[139.69911494517814,35.688160539266484]]]},"properties":{"FID":41,"id":"a9e8959197124ed4b7907912b192b00d","category":"B019","floor_id":"8e00d6d1991a4a55a20320af3cd8639f","name":" ","restricted":"1","suite":" ","nonpublic":"2","toll":"1","source":"2"}},{"type":"Feature","id":42,"geometry":{"type":"Polygon","coordinates":[[[139.69919988400707,35.688147421634056],[139.69919117142936,35.688170923261325],[139.699190001782,35.688170634617862],[139.69918931049091,35.688170464193149],[139.69919802417397,35.688146962567266],[139.6991987143239,35.68814713291853],[139.69919988400707,35.688147421634056]]]},"properties":{"FID":42,"id":"962c46151bd34de4b7570dbee7462d2c","category":"B019","floor_id":"8e00d6d1991a4a55a20320af3cd8639f","name":" ","restricted":"1","suite":" ","nonpublic":"2","toll":"1","source":"2"}},{"type":"Feature","id":43,"geometry":{"type":"Polygon","coordinates":[[[139.6991776253771,35.68815858734046],[139.69916787914045,35.688185084869332],[139.69909566590775,35.688167266310195],[139.69913780379204,35.688053602758636],[139.69914361521091,35.688055037006528],[139.69914875951739,35.688041160740951],[139.69915251562367,35.688042087930334],[139.69914366320091,35.688065965269978],[139.69910766690765,35.688161392843817],[139.69911494517814,35.688160539266484],[139.69912925600329,35.688158863184277],[139.69913135887219,35.68815861678457],[139.6991335397212,35.688158361247652],[139.6991388789958,35.688157735627897],[139.69914036651616,35.688160816365908],[139.69914124368063,35.688154280608451],[139.69914275229169,35.688157302780901],[139.69914784971101,35.688156709372926],[139.69915002812041,35.688156455776792],[139.69915221039997,35.688156201730081],[139.69916651391119,35.688154536607854],[139.69916951084105,35.688154187724429],[139.69919674239341,35.68807906273971],[139.69920552412049,35.688055167290003],[139.69920928022964,35.688056093576257],[139.69920414921916,35.688069972653544],[139.6992099473554,35.688071403187713],[139.6991776253771,35.68815858734046]]]},"properties":{"FID":43,"id":"e05cd649148c43b9a65a076add78575d","category":"B019","floor_id":"8e00d6d1991a4a55a20320af3cd8639f","name":" ","restricted":"1","suite":" ","nonpublic":"2","toll":"1","source":"2"}},{"type":"Feature","id":44,"geometry":{"type":"Polygon","coordinates":[[[139.69907829803415,35.688171468960078],[139.69906958541821,35.688194970578365],[139.69906889438536,35.688194800109279],[139.69906772447985,35.688194511508335],[139.69907643709632,35.688171009890198],[139.69907763218322,35.688171304768709],[139.69907829803415,35.688171468960078]]]},"properties":{"FID":44,"id":"783b53cf284647c182f247199f5e6e23","category":"B019","floor_id":"8e00d6d1991a4a55a20320af3cd8639f","name":" ","restricted":"1","suite":" ","nonpublic":"2","toll":"1","source":"2"}},{"type":"Feature","id":45,"geometry":{"type":"Polygon","coordinates":[[[139.69918343012066,35.688191729972502],[139.69917471753328,35.68821523159837],[139.69917354812461,35.688214943121189],[139.69917285659389,35.688214772529982],[139.69918156918177,35.688191270904241],[139.69918228589066,35.688191447623062],[139.69918343012066,35.688191729972502]]]},"properties":{"FID":45,"id":"1e26d119afe74e0fb5861024d22e06cd","category":"B019","floor_id":"8e00d6d1991a4a55a20320af3cd8639f","name":" ","restricted":"1","suite":" ","nonpublic":"2","toll":"1","source":"2"}},{"type":"Feature","id":46,"geometry":{"type":"Polygon","coordinates":[[[139.69906186837216,35.688215783618297],[139.69904939433087,35.688249432268378],[139.69904869949013,35.688249271384244],[139.69904752450861,35.688248999327847],[139.69906000853825,35.688215324549375],[139.69906117818448,35.688215613256993],[139.69906186837216,35.688215783618297]]]},"properties":{"FID":46,"id":"8f286694819143a8a3a4e22b18f1c9b5","category":"B019","floor_id":"8e00d6d1991a4a55a20320af3cd8639f","name":" ","restricted":"1","suite":" ","nonpublic":"2","toll":"1","source":"2"}},{"type":"Feature","id":47,"geometry":{"type":"Polygon","coordinates":[[[139.69916700051107,35.68823604554639],[139.69915452651222,35.688269693305976],[139.69915335141215,35.688269421790004],[139.69915265668743,35.688269261268466],[139.69916514067609,35.688235586479088],[139.6991658317686,35.688235757063026],[139.69916700051107,35.68823604554639]]]},"properties":{"FID":47,"id":"c13a496a0035418787b361265f4d54b4","category":"B019","floor_id":"8e00d6d1991a4a55a20320af3cd8639f","name":" ","restricted":"1","suite":" ","nonpublic":"2","toll":"1","source":"2"}},{"type":"Feature","id":48,"geometry":{"type":"Polygon","coordinates":[[[139.69904212456834,35.6882703521674],[139.69903391555087,35.688293974226667],[139.69903322110574,35.688293813434122],[139.69903204572768,35.688293541285894],[139.69904025474565,35.688269919226762],[139.69904143004518,35.6882701913568],[139.69904212456834,35.6882703521674]]]},"properties":{"FID":48,"id":"addaaf98f9354abc96f9e1f8089c26b3","category":"B019","floor_id":"8e00d6d1991a4a55a20320af3cd8639f","name":" ","restricted":"1","suite":" ","nonpublic":"2","toll":"1","source":"2"}},{"type":"Feature","id":49,"geometry":{"type":"Polygon","coordinates":[[[139.69914725677529,35.688290613211343],[139.69913904778667,35.688314235277744],[139.69913787259662,35.688313963740967],[139.69913717796092,35.68831380324],[139.69914538695005,35.688290181173699],[139.69914608155389,35.688290341667319],[139.69914725677529,35.688290613211343]]]},"properties":{"FID":49,"id":"534b18917a5141629b268cca53262806","category":"B019","floor_id":"8e00d6d1991a4a55a20320af3cd8639f","name":" ","restricted":"1","suite":" ","nonpublic":"2","toll":"1","source":"2"}},{"type":"Feature","id":50,"geometry":{"type":"Polygon","coordinates":[[[139.69902662037728,35.688314888687991],[139.69901841135061,35.688338510745986],[139.69901771405964,35.688338360090782],[139.69901653264216,35.688338104836212],[139.69902475055363,35.688314455747147],[139.69902595106879,35.688314733715636],[139.69902662037728,35.688314888687991]]]},"properties":{"FID":50,"id":"60003242165d4ab9981149d104d3103f","category":"B019","floor_id":"8e00d6d1991a4a55a20320af3cd8639f","name":" ","restricted":"1","suite":" ","nonpublic":"2","toll":"1","source":"2"}},{"type":"Feature","id":51,"geometry":{"type":"Polygon","coordinates":[[[139.69913175263866,35.688335149745448],[139.69912354474573,35.688358771811849],[139.69912236270446,35.688358516572997],[139.6991216649314,35.688358365902438],[139.69912988281393,35.688334716806239],[139.69913060289764,35.688334883502257],[139.69913175263866,35.688335149745448]]]},"properties":{"FID":51,"id":"aa0efaee0d6846d5a504402af0401ead","category":"B019","floor_id":"8e00d6d1991a4a55a20320af3cd8639f","name":" ","restricted":"1","suite":" ","nonpublic":"2","toll":"1","source":"2"}},{"type":"Feature","id":52,"geometry":{"type":"Polygon","coordinates":[[[139.69901159108673,35.688359531196411],[139.69900056272263,35.688393513157742],[139.69899986564502,35.688393362883168],[139.69899868401146,35.688393108149015],[139.6990097123778,35.688359125286503],[139.6990108929204,35.688359380352061],[139.69901159108673,35.688359531196411]]]},"properties":{"FID":52,"id":"104573c5e52d4c97a632f9e7a83471ad","category":"B019","floor_id":"8e00d6d1991a4a55a20320af3cd8639f","name":" ","restricted":"1","suite":" ","nonpublic":"2","toll":"1","source":"2"}},{"type":"Feature","id":53,"geometry":{"type":"Polygon","coordinates":[[[139.6991167234028,35.688379792266957],[139.69910569507894,35.688413775139253],[139.69910451432156,35.68841352002844],[139.69910381636825,35.688413369230794],[139.69911484469282,35.688379386358669],[139.69911554164577,35.688379536940175],[139.6991167234028,35.688379792266957]]]},"properties":{"FID":53,"id":"392e65ebdebe49c0a129a6e5bbe76f29","category":"B019","floor_id":"8e00d6d1991a4a55a20320af3cd8639f","name":" ","restricted":"1","suite":" ","nonpublic":"2","toll":"1","source":"2"}},{"type":"Feature","id":54,"geometry":{"type":"Polygon","coordinates":[[[139.69899374244929,35.688414533606917],[139.6989865484145,35.68843837492647],[139.69898584814916,35.68843823428697],[139.69898466192441,35.688437996048599],[139.69899185485485,35.688414154727901],[139.69899304126335,35.688414392864487],[139.69899374244929,35.688414533606917]]]},"properties":{"FID":54,"id":"33d20078c956416bbeb3647458fb681a","category":"B019","floor_id":"8e00d6d1991a4a55a20320af3cd8639f","name":" ","restricted":"1","suite":" ","nonpublic":"2","toll":"1","source":"2"}},{"type":"Feature","id":55,"geometry":{"type":"Polygon","coordinates":[[[139.69909887483141,35.688434795594361],[139.69909168082606,35.688458636920203],[139.69909049449163,35.688458398660977],[139.69908979433498,35.688458258043966],[139.699096987236,35.688434416717016],[139.69909768100845,35.688434555970737],[139.69909887483141,35.688434795594361]]]},"properties":{"FID":55,"id":"151470ec5dbb490686ce85cfbe718a3f","category":"B019","floor_id":"8e00d6d1991a4a55a20320af3cd8639f","name":" ","restricted":"1","suite":" ","nonpublic":"2","toll":"1","source":"2"}},{"type":"Feature","id":56,"geometry":{"type":"Polygon","coordinates":[[[139.69898015225661,35.688459484182289],[139.69897295931852,35.688483325502077],[139.69897225902511,35.688483184856906],[139.69897107282748,35.688482946623978],[139.69897826576604,35.688459105304297],[139.69897947752767,35.688459348671451],[139.69898015225661,35.688459484182289]]]},"properties":{"FID":56,"id":"847c2c3092e346efa211b42876730ff9","category":"B019","floor_id":"8e00d6d1991a4a55a20320af3cd8639f","name":" ","restricted":"1","suite":" ","nonpublic":"2","toll":"1","source":"2"}},{"type":"Feature","id":57,"geometry":{"type":"Polygon","coordinates":[[[139.69908528579904,35.688479746182814],[139.69907809178554,35.688503587507626],[139.69907690548257,35.688503349254702],[139.69907620529352,35.688503208631175],[139.69908339820267,35.688479367305241],[139.69908412471986,35.688479513131469],[139.69908528579904,35.688479746182814]]]},"properties":{"FID":57,"id":"f895770896f34321873dafa650055b8f","category":"B019","floor_id":"8e00d6d1991a4a55a20320af3cd8639f","name":" ","restricted":"1","suite":" ","nonpublic":"2","toll":"1","source":"2"}},{"type":"Feature","id":58,"geometry":{"type":"Polygon","coordinates":[[[139.69896659188768,35.688504430282201],[139.69895775926423,35.688538837431913],[139.69895705351453,35.688538716910955],[139.69895585721301,35.688538512618422],[139.69896468983723,35.688504105468837],[139.69896588554317,35.68850430965967],[139.69896659188768,35.688504430282201]]]},"properties":{"FID":58,"id":"236d17af4afa40e897eaf039a87eddf3","category":"B019","floor_id":"8e00d6d1991a4a55a20320af3cd8639f","name":" ","restricted":"1","suite":" ","nonpublic":"2","toll":"1","source":"2"}},{"type":"Feature","id":59,"geometry":{"type":"Polygon","coordinates":[[[139.69907172215588,35.688524701304516],[139.69906215505162,35.688558977845432],[139.69906096325641,35.688558756599242],[139.69906025967404,35.688558625999924],[139.69906982677907,35.688524349459158],[139.6990705304637,35.688524480086585],[139.69907172215588,35.688524701304516]]]},"properties":{"FID":59,"id":"167ac00f71034a40abd2f2bb45f7650b","category":"B019","floor_id":"8e00d6d1991a4a55a20320af3cd8639f","name":" ","restricted":"1","suite":" ","nonpublic":"2","toll":"1","source":"2"}},{"type":"Feature","id":60,"geometry":{"type":"Polygon","coordinates":[[[139.69895229642037,35.688560119889267],[139.6989461273659,35.68858415163762],[139.69894542045549,35.688584030934869],[139.69894422531362,35.688583826823937],[139.69895039436867,35.68855979507569],[139.69895158951121,35.688559999182608],[139.69895229642037,35.688560119889267]]]},"properties":{"FID":60,"id":"ca5ee6a31a8047009bdb8abf8b2a0f1e","category":"B019","floor_id":"8e00d6d1991a4a55a20320af3cd8639f","name":" ","restricted":"1","suite":" ","nonpublic":"2","toll":"1","source":"2"}},{"type":"Feature","id":61,"geometry":{"type":"Polygon","coordinates":[[[139.69905623716036,35.688580179577997],[139.69904955452137,35.688604119720409],[139.69904836380056,35.688603898682778],[139.69904765914276,35.688603767874703],[139.6990543417823,35.688579827732404],[139.69905504542655,35.688579958352321],[139.69905623716036,35.688580179577997]]]},"properties":{"FID":61,"id":"c548a288d806434ab27291299866d044","category":"B019","floor_id":"8e00d6d1991a4a55a20320af3cd8639f","name":" ","restricted":"1","suite":" ","nonpublic":"2","toll":"1","source":"2"}},{"type":"Feature","id":62,"geometry":{"type":"Polygon","coordinates":[[[139.69894063800487,35.688605430459198],[139.69893446894338,35.688629462206748],[139.69893376312092,35.688629341338789],[139.69893256689159,35.688629136491507],[139.69893873595365,35.688605104744049],[139.69893995749172,35.688605313925308],[139.69894063800487,35.688605430459198]]]},"properties":{"FID":62,"id":"7a8d3cf7c7c5416189ad6ce1e378aa76","category":"B019","floor_id":"8e00d6d1991a4a55a20320af3cd8639f","name":" ","restricted":"1","suite":" ","nonpublic":"2","toll":"1","source":"2"}},{"type":"Feature","id":63,"geometry":{"type":"Polygon","coordinates":[[[139.69904361121883,35.688625316917005],[139.69903692857227,35.688649257058493],[139.69903573782341,35.688649035887494],[139.69903503429751,35.688648905213832],[139.69904171584128,35.688624964169833],[139.6990424459062,35.688625100041634],[139.69904361121883,35.688625316917005]]]},"properties":{"FID":63,"id":"a78d5e92aea448b382928a3e7855e872","category":"B019","floor_id":"8e00d6d1991a4a55a20320af3cd8639f","name":" ","restricted":"1","suite":" ","nonpublic":"2","toll":"1","source":"2"}},{"type":"Feature","id":64,"geometry":{"type":"Polygon","coordinates":[[[139.69892900608704,35.688650744662702],[139.69892017343113,35.688685151808741],[139.69891946646302,35.688685031079721],[139.69891827137656,35.68868482699466],[139.69892710403329,35.688650419848734],[139.69892829917165,35.688650623942671],[139.69892900608704,35.688650744662702]]]},"properties":{"FID":64,"id":"0d09fb14146b48bf9b1a10581501b161","category":"B019","floor_id":"8e00d6d1991a4a55a20320af3cd8639f","name":" ","restricted":"1","suite":" ","nonpublic":"2","toll":"1","source":"2"}},{"type":"Feature","id":65,"geometry":{"type":"Polygon","coordinates":[[[139.69903101177246,35.68867045879071],[139.69902144463467,35.688704734426111],[139.69902025283739,35.68870451317953],[139.69901954925379,35.688704382579978],[139.69902911639386,35.688670106043368],[139.69902982022089,35.688670237032056],[139.69903101177246,35.68867045879071]]]},"properties":{"FID":65,"id":"2d8697b94d7a4aa5ae3d7bd73597e42c","category":"B019","floor_id":"8e00d6d1991a4a55a20320af3cd8639f","name":" ","restricted":"1","suite":" ","nonpublic":"2","toll":"1","source":"2"}},{"type":"Feature","id":66,"geometry":{"type":"Polygon","coordinates":[[[139.69891471056718,35.688706434263828],[139.69890854149,35.688730466009645],[139.698907834567,35.688730345351132],[139.69890663832956,35.688730141194128],[139.69891280740728,35.688706109448432],[139.69891400364438,35.688706313605387],[139.69891471056718,35.688706434263828]]]},"properties":{"FID":66,"id":"94f795f11c3244659a307848f190c1ff","category":"B019","floor_id":"8e00d6d1991a4a55a20320af3cd8639f","name":" ","restricted":"1","suite":" ","nonpublic":"2","toll":"1","source":"2"}},{"type":"Feature","id":67,"geometry":{"type":"Polygon","coordinates":[[[139.69901552672175,35.688725936156146],[139.69900884405831,35.688749876295638],[139.69900765330078,35.688749655123033],[139.69900694978131,35.688749524450529],[139.69901363134042,35.688725584309914],[139.69901433492413,35.688725714909502],[139.69901552672175,35.688725936156146]]]},"properties":{"FID":67,"id":"7f382bc8c525405faa3a06d248d1e576","category":"B019","floor_id":"8e00d6d1991a4a55a20320af3cd8639f","name":" ","restricted":"1","suite":" ","nonpublic":"2","toll":"1","source":"2"}},{"type":"Feature","id":68,"geometry":{"type":"Polygon","coordinates":[[[139.69889911367841,35.688767090884028],[139.69889707747848,35.688775779495188],[139.69889636827278,35.688775668852145],[139.69889516874724,35.68877548171438],[139.69889719078057,35.688766858763834],[139.69889723084955,35.688766683942809],[139.6989011500543,35.688751419113217],[139.69890237044334,35.688751628097698],[139.69890305210885,35.688751744828934],[139.69889912014543,35.688767064540841],[139.69889911367841,35.688767090884028]]]},"properties":{"FID":68,"id":"ac4fd020e6ce4a349fa0ee4f871c0bc7","category":"B019","floor_id":"8e00d6d1991a4a55a20320af3cd8639f","name":" ","restricted":"1","suite":" ","nonpublic":"2","toll":"1","source":"2"}},{"type":"Feature","id":69,"geometry":{"type":"Polygon","coordinates":[[[139.69899890342313,35.68878548734223],[139.69899471883988,35.688794955169037],[139.69899357035965,35.688794616875619],[139.69899289116736,35.688794416814446],[139.6989969592959,35.688785212959147],[139.6990010053517,35.68877072164323],[139.69900173532361,35.68877085715048],[139.69900290073403,35.68877107348969],[139.69899890342313,35.68878548734223]]]},"properties":{"FID":69,"id":"6502d50866e14ea88147ef58a0d68781","category":"B019","floor_id":"8e00d6d1991a4a55a20320af3cd8639f","name":" ","restricted":"1","suite":" ","nonpublic":"2","toll":"1","source":"2"}},{"type":"Feature","id":70,"geometry":{"type":"Polygon","coordinates":[[[139.69901743152118,35.688592147043224],[139.69895495895793,35.688809267814555],[139.6989214004706,35.688804647786746],[139.69898179052961,35.688584172513956],[139.69902398028734,35.688433859366349],[139.69906076608694,35.688441042855935],[139.69904268268272,35.688502964828139],[139.69901743152118,35.688592147043224]]]},"properties":{"FID":70,"id":"c0bd3d946aaa41bd9c39c7f6f96304f9","category":"B026","floor_id":"8e00d6d1991a4a55a20320af3cd8639f","name":" ","restricted":"1","suite":" ","nonpublic":"2","toll":"2","source":"2"}},{"type":"Feature","id":71,"geometry":{"type":"Polygon","coordinates":[[[139.6988843477771,35.68881815219855],[139.69887815738852,35.688835120784091],[139.69887697986263,35.688834956321003],[139.6988865829347,35.688785896469028],[139.69894372690479,35.688577304856118],[139.69897995868592,35.688445776833461],[139.69899293245615,35.688400766981097],[139.69900850069726,35.688356271098627],[139.69902351281189,35.688312648020855],[139.6990544097138,35.688222840237174],[139.69908641845865,35.688136083018691],[139.69913473908153,35.68800532917551],[139.69923102520792,35.687745816669917],[139.6992310397429,35.687745777618417],[139.69927471171772,35.687628812496506],[139.69928128243197,35.687630427303198],[139.69927175882188,35.687656306403689],[139.69926190675528,35.687677435264511],[139.69926304834075,35.687677789434773],[139.69925357098046,35.687698112862385],[139.69925242947528,35.687697758717029],[139.69924988353364,35.687703240718342],[139.6992433241864,35.687720928208321],[139.69924449378883,35.687721216955502],[139.69923677678983,35.687742030010703],[139.69923560833487,35.687741742163816],[139.69922689470729,35.687765243794153],[139.69922806403096,35.687765532251419],[139.6992203483214,35.687786345341095],[139.69921917884867,35.687786056847038],[139.69920670494241,35.68781970461476],[139.69920787454615,35.687819993362282],[139.69920015745288,35.687840806962747],[139.69919898907176,35.687840518567519],[139.69919027542264,35.687864020194745],[139.69919144484885,35.687864308677355],[139.69918372918474,35.687885121780212],[139.69918255954491,35.687884833244915],[139.69917384699096,35.687908334872006],[139.69917501659589,35.68790862361984],[139.69916729984155,35.687929436404012],[139.6991661311047,35.687929147920933],[139.69915365604734,35.687962796582397],[139.69915482539329,35.687963085045233],[139.69914710974362,35.687983898324262],[139.69914594015052,35.687983609629818],[139.69913722757499,35.688007111253825],[139.69913839718123,35.688007400002014],[139.699130680091,35.688028212705284],[139.69912951166961,35.688027924300044],[139.69912079797956,35.688051425921444],[139.69912196762496,35.688051714565539],[139.69911425150713,35.688072528161406],[139.69911308206409,35.688072239867786],[139.69910060806839,35.688105887622704],[139.69910177767588,35.688106176371271],[139.69909406053068,35.688126989398135],[139.6990928921424,35.688126701567541],[139.69908417843078,35.688150203185856],[139.69908534787484,35.68815049147976],[139.69907763218322,35.688171304768709],[139.69907643709632,35.688171009890198],[139.69906772447985,35.688194511508335],[139.69906889438536,35.688194800109279],[139.69906117818448,35.688215613256993],[139.69906000853825,35.688215324549375],[139.69904752450861,35.688248999327847],[139.69904869949013,35.688249271384244],[139.69904143004518,35.6882701913568],[139.69904025474565,35.688269919226762],[139.69903204572768,35.688293541285894],[139.69903322110574,35.688293813434122],[139.69902595106879,35.688314733715636],[139.69902475055363,35.688314455747147],[139.69901653264216,35.688338104836212],[139.69901771405964,35.688338360090782],[139.6990108929204,35.688359380352061],[139.6990097123778,35.688359125286503],[139.69899868401146,35.688393108149015],[139.69899986564502,35.688393362883168],[139.69899304126335,35.688414392864487],[139.69899185485485,35.688414154727901],[139.69898466192441,35.688437996048599],[139.69898584814916,35.68843823428697],[139.69897947752767,35.688459348671451],[139.69897826576604,35.688459105304297],[139.69897107282748,35.688482946623978],[139.69897225902511,35.688483184856906],[139.69896588554317,35.68850430965967],[139.69896468983723,35.688504105468837],[139.69895585721301,35.688538512618422],[139.69895705351453,35.688538716910955],[139.69895158951121,35.688559999182608],[139.69895039436867,35.68855979507569],[139.69894422531362,35.688583826823937],[139.69894542045549,35.688584030934869],[139.69893995749172,35.688605313925308],[139.69893873595365,35.688605104744049],[139.69893256689159,35.688629136491507],[139.69893376312092,35.688629341338789],[139.69892829917165,35.688650623942671],[139.69892710403329,35.688650419848734],[139.69891827137656,35.68868482699466],[139.69891946646302,35.688685031079721],[139.69891400364438,35.688706313605387],[139.69891280740728,35.688706109448432],[139.69890663832956,35.688730141194128],[139.698907834567,35.688730345351132],[139.69890237044334,35.688751628097698],[139.6989011500543,35.688751419113217],[139.69889723084955,35.688766683942809],[139.69889719078057,35.688766858763834],[139.69889516874724,35.68877548171438],[139.69889636827278,35.688775668852145],[139.69889136160162,35.688797026802682],[139.69889016095431,35.688796839489932],[139.69888656560283,35.688812028064255],[139.6988843477771,35.68881815219855]]]},"properties":{"FID":71,"id":"98945d4009924a87943f31876e4413bd","category":"B029","floor_id":"8e00d6d1991a4a55a20320af3cd8639f","name":" ","restricted":"1","suite":" ","nonpublic":"2","toll":"2","source":"2"}},{"type":"Feature","id":72,"geometry":{"type":"Polygon","coordinates":[[[139.69887982801708,35.688835321616821],[139.69887756442159,35.68884880497842],[139.69887584623282,35.688848563414531],[139.69887815738852,35.688835120784091],[139.6988843477771,35.68881815219855],[139.69888656560283,35.688812028064255],[139.69889016095431,35.688796839489932],[139.69889136160162,35.688797026802682],[139.69889206968602,35.688797137270825],[139.69888849834123,35.688812505244648],[139.69888623302708,35.688818616706776],[139.69887982801708,35.688835321616821]]]},"properties":{"FID":72,"id":"f059e99c14b14a8f89235e9b4519ef41","category":"B019","floor_id":"8e00d6d1991a4a55a20320af3cd8639f","name":" ","restricted":"1","suite":" ","nonpublic":"2","toll":"1","source":"2"}},{"type":"Feature","id":73,"geometry":{"type":"Polygon","coordinates":[[[139.69897421442329,35.688842434479973],[139.69897054184105,35.688860194162366],[139.698964529324,35.688859398268171],[139.69896768399073,35.688842128838004],[139.698960013397,35.688841119755949],[139.69895874476106,35.688848505967506],[139.69895606479588,35.688848223551481],[139.69895495533035,35.688848075822833],[139.69894180825764,35.688846409404427],[139.69893980940614,35.688846165181033],[139.69893773871752,35.688845910009348],[139.69892458902279,35.688844243117799],[139.69892348328503,35.688844095861363],[139.69892259911975,35.688843985538746],[139.69892037811752,35.688843708410886],[139.69891818267698,35.688856424064127],[139.69890058355057,35.688854444828408],[139.69890108819249,35.688851507157182],[139.69890419433722,35.688833531901849],[139.69889661662441,35.688832481456458],[139.69889402855691,35.68885052218873],[139.69887756442159,35.68884880497842],[139.69887982801708,35.688835321616821],[139.69888623302708,35.688818616706776],[139.69888849834123,35.688812505244648],[139.69889206968602,35.688797137270825],[139.69889136160162,35.688797026802682],[139.69889636827278,35.688775668852145],[139.69889707747848,35.688775779495188],[139.69889911367841,35.688767090884028],[139.69889912014543,35.688767064540841],[139.69890305210885,35.688751744828934],[139.69890237044334,35.688751628097698],[139.698907834567,35.688730345351132],[139.69890854149,35.688730466009645],[139.69891471056718,35.688706434263828],[139.69891400364438,35.688706313605387],[139.69891946646302,35.688685031079721],[139.69892017343113,35.688685151808741],[139.69892900608704,35.688650744662702],[139.69892829917165,35.688650623942671],[139.69893376312092,35.688629341338789],[139.69893446894338,35.688629462206748],[139.69894063800487,35.688605430459198],[139.69893995749172,35.688605313925308],[139.69894542045549,35.688584030934869],[139.6989461273659,35.68858415163762],[139.69895229642037,35.688560119889267],[139.69895158951121,35.688559999182608],[139.69895705351453,35.688538716910955],[139.69895775926423,35.688538837431913],[139.69896659188768,35.688504430282201],[139.69896588554317,35.68850430965967],[139.69897225902511,35.688483184856906],[139.69897295931852,35.688483325502077],[139.69898015225661,35.688459484182289],[139.69897947752767,35.688459348671451],[139.69898584814916,35.68843823428697],[139.6989865484145,35.68843837492647],[139.69899374244929,35.688414533606917],[139.69899304126335,35.688414392864487],[139.69899986564502,35.688393362883168],[139.69900056272263,35.688393513157742],[139.69901159108673,35.688359531196411],[139.6990108929204,35.688359380352061],[139.69901771405964,35.688338360090782],[139.69901841135061,35.688338510745986],[139.69902662037728,35.688314888687991],[139.69902595106879,35.688314733715636],[139.69903322110574,35.688293813434122],[139.69903391555087,35.688293974226667],[139.69904212456834,35.6882703521674],[139.69904143004518,35.6882701913568],[139.69904869949013,35.688249271384244],[139.69904939433087,35.688249432268378],[139.69906186837216,35.688215783618297],[139.69906117818448,35.688215613256993],[139.69906889438536,35.688194800109279],[139.69906958541821,35.688194970578365],[139.69907829803415,35.688171468960078],[139.69907763218322,35.688171304768709],[139.69908534787484,35.68815049147976],[139.69908603936818,35.688150662255616],[139.69909475197593,35.688127159734584],[139.69909406053068,35.688126989398135],[139.69910177767588,35.688106176371271],[139.69910246789999,35.688106346691008],[139.69911494299987,35.68807269893712],[139.69911425150713,35.688072528161406],[139.69912196762496,35.688051714565539],[139.69912265891489,35.688051884990635],[139.69913137149959,35.688028383367872],[139.699130680091,35.688028212705284],[139.69913839718123,35.688007400002014],[139.69913908740455,35.688007570321538],[139.69914779997956,35.687984068697432],[139.69914710974362,35.687983898324262],[139.69915482539329,35.687963085045233],[139.6991555169808,35.687963255651105],[139.69916799093258,35.68792960698822],[139.69916729984155,35.687929436404012],[139.69917501659589,35.68790862361984],[139.69917570681841,35.687908793939151],[139.69918442047674,35.687885292313162],[139.69918372918474,35.687885121780212],[139.69919144484885,35.687864308677355],[139.69919213635401,35.687864479262892],[139.69920084889779,35.687840977634295],[139.69920015745288,35.687840806962747],[139.69920787454615,35.687819993362282],[139.69920856476799,35.687820163681408],[139.69922103977842,35.687786515914738],[139.6992203483214,35.687786345341095],[139.69922806403096,35.687765532251419],[139.6992287556366,35.687765702861711],[139.69923746816031,35.68774220032865],[139.69923677678983,35.687742030010703],[139.69924449378883,35.687721216955502],[139.6992451840099,35.687721387274422],[139.69925169677907,35.687703803390029],[139.69925424603372,35.687698322293734],[139.69925357098046,35.687698112862385],[139.69926304834075,35.687677789434773],[139.69926372331332,35.687677998841082],[139.69927362306049,35.687656767277026],[139.69928305826593,35.687630863728835],[139.69931044023295,35.687637593065794],[139.69930560586312,35.687650633009262],[139.6993136139221,35.687652609615157],[139.69931378595058,35.687652146502451],[139.69931457840073,35.687650007532078],[139.69932520832458,35.687652630634105],[139.69932441587471,35.687654769604549],[139.69932424384783,35.687655231815903],[139.69934281115215,35.687659813414982],[139.69934766002899,35.687646734324801],[139.69937531238722,35.687653620333428],[139.69936569411436,35.687679559055518],[139.69936143363097,35.687696155748277],[139.69936214054562,35.687696276404125],[139.69935667785788,35.687717558919786],[139.6993559709525,35.68771743822731],[139.69935305740123,35.68772877642752],[139.69934845572286,35.68774118997834],[139.69934914685169,35.68774136057116],[139.69934143011977,35.687762173357555],[139.69934073989813,35.687762003039168],[139.69933202740401,35.687785504678324],[139.69933271756088,35.687785675031229],[139.69932500151893,35.687806488210008],[139.69932431046587,35.687806317736715],[139.69931183659901,35.687839966416668],[139.69931252786461,35.687840136902238],[139.69930481097762,35.687860949793368],[139.69930412075519,35.687860779474789],[139.69929540713463,35.687884281109604],[139.69929609835992,35.687884451625415],[139.69928838290852,35.687905264781222],[139.69928769128225,35.687905094166481],[139.69927897875689,35.687928595801168],[139.69927967022596,35.687928766637569],[139.69927195311755,35.687949580076975],[139.69927126289443,35.687949409758211],[139.6992587878795,35.687983057529166],[139.69925947903474,35.687983228027704],[139.69925176357154,35.688004041182602],[139.69925107200802,35.68800387058333],[139.69924235946107,35.688027372214918],[139.69924305093087,35.688027543051525],[139.69923533380339,35.688048356488181],[139.69923464357953,35.688048186169212],[139.69922593102288,35.688071687799422],[139.69922662124694,35.688071858118448],[139.6992189053199,35.688092671274433],[139.69921821402943,35.688092500849912],[139.6992057400731,35.688126149517075],[139.69920643037617,35.688126319571438],[139.6991987143239,35.68814713291853],[139.69919802417397,35.688146962567266],[139.69918931049091,35.688170464193149],[139.699190001782,35.688170634617862],[139.69918228589066,35.688191447623062],[139.69918156918177,35.688191270904241],[139.69917285659389,35.688214772529982],[139.69917354812461,35.688214943121189],[139.6991658317686,35.688235757063026],[139.69916514067609,35.688235586479088],[139.69915265668743,35.688269261268466],[139.69915335141215,35.688269421790004],[139.69914608155389,35.688290341667319],[139.69914538695005,35.688290181173699],[139.69913717796092,35.68831380324],[139.69913787259662,35.688313963740967],[139.69913060289764,35.688334883502257],[139.69912988281393,35.688334716806239],[139.6991216649314,35.688358365902438],[139.69912236270446,35.688358516572997],[139.69911554164577,35.688379536940175],[139.69911484469282,35.688379386358669],[139.69910381636825,35.688413369230794],[139.69910451432156,35.68841352002844],[139.69909768100845,35.688434555970737],[139.699096987236,35.688434416717016],[139.69908979433498,35.688458258043966],[139.69909049449163,35.688458398660977],[139.69908412471986,35.688479513131469],[139.69908339820267,35.688479367305241],[139.69907620529352,35.688503208631175],[139.69907690548257,35.688503349254702],[139.6990705304637,35.688524480086585],[139.69906982677907,35.688524349459158],[139.69906025967404,35.688558625999924],[139.69906096325641,35.688558756599242],[139.69905504542655,35.688579958352321],[139.6990543417823,35.688579827732404],[139.69904765914276,35.688603767874703],[139.69904836380056,35.688603898682778],[139.6990424459062,35.688625100041634],[139.69904171584128,35.688624964169833],[139.69903503429751,35.688648905213832],[139.69903573782341,35.688649035887494],[139.69902982022089,35.688670237032056],[139.69902911639386,35.688670106043368],[139.69901954925379,35.688704382579978],[139.69902025283739,35.68870451317953],[139.69901433492413,35.688725714909502],[139.69901363134042,35.688725584309914],[139.69900694978131,35.688749524450529],[139.69900765330078,35.688749655123033],[139.69900173532361,35.68877085715048],[139.6990010053517,35.68877072164323],[139.6989969592959,35.688785212959147],[139.69899289116736,35.688794416814446],[139.69899357035965,35.688794616875619],[139.69898453332544,35.68881506226446],[139.6989838498921,35.688814872328358],[139.69897692212552,35.688831447098821],[139.69897421442329,35.688842434479973]],[[139.6989214004706,35.688804647786746],[139.69895495895793,35.688809267814555],[139.69901743152118,35.688592147043224],[139.69904268268272,35.688502964828139],[139.69906076608694,35.688441042855935],[139.69902398028734,35.688433859366349],[139.69898179052961,35.688584172513956],[139.6989214004706,35.688804647786746]],[[139.69909566590775,35.688167266310195],[139.69916787914045,35.688185084869332],[139.6991776253771,35.68815858734046],[139.6992099473554,35.688071403187713],[139.69920414921916,35.688069972653544],[139.69920928022964,35.688056093576257],[139.69920552412049,35.688055167290003],[139.69919674239341,35.68807906273971],[139.69919305807258,35.688078152757704],[139.69918044346508,35.688075040692731],[139.69917852934819,35.688074568435269],[139.69917654599126,35.688074079094662],[139.69916393138661,35.688070966126588],[139.69916201770891,35.688070493860003],[139.69916010459602,35.688070021732756],[139.6991474193083,35.688066892459531],[139.69914366320091,35.688065965269978],[139.69915251562367,35.688042087930334],[139.69914875951739,35.688041160740951],[139.69914361521091,35.688055037006528],[139.69913780379204,35.688053602758636],[139.69909566590775,35.688167266310195]],[[139.69917450538816,35.687954734489651],[139.69924659889736,35.68797254028901],[139.69929028029716,35.687854714069616],[139.69928432752488,35.687853245419333],[139.69928449844755,35.687852783206807],[139.69928998566817,35.687837981609498],[139.69928637203847,35.687837089736441],[139.69927704933258,35.687862235644623],[139.6992733636684,35.687861330217963],[139.69926067730589,35.687858200054038],[139.69925876443386,35.687857728398711],[139.69925685052277,35.687857256564641],[139.69924423705393,35.687854143606174],[139.699242323243,35.68785367150236],[139.69924041027272,35.687853199214899],[139.69922772501616,35.687850069950088],[139.69922403968977,35.687849159727435],[139.69923336367248,35.68782401041215],[139.69922974893916,35.687823118536208],[139.69922409078549,35.687838382343223],[139.69921813801713,35.68783691278832],[139.69917450538816,35.687954734489651]]]},"properties":{"FID":73,"id":"9bce8f9cca5a4304ab3a33512952ebe8","category":"B029","floor_id":"8e00d6d1991a4a55a20320af3cd8639f","name":" ","restricted":"2","suite":" ","nonpublic":"2","toll":"2","source":"2"}},{"type":"Feature","id":74,"geometry":{"type":"Polygon","coordinates":[[[139.69897612760769,35.688842713335738],[139.69897235960849,35.688860434785411],[139.69897054184105,35.688860194162366],[139.69897421442329,35.688842434479973],[139.69897692212552,35.688831447098821],[139.6989838498921,35.688814872328358],[139.69898453332544,35.68881506226446],[139.69898568976402,35.688815383655616],[139.69897885074471,35.688831745801913],[139.69897612760769,35.688842713335738]]]},"properties":{"FID":74,"id":"c425f899db1341c285085cde194eec9b","category":"B019","floor_id":"8e00d6d1991a4a55a20320af3cd8639f","name":" ","restricted":"1","suite":" ","nonpublic":"2","toll":"1","source":"2"}},{"type":"Feature","id":75,"geometry":{"type":"Polygon","coordinates":[[[139.69898266187823,35.688849296121418],[139.69898052996126,35.6888615163179],[139.69897235960849,35.688860434785411],[139.69897612760769,35.688842713335738],[139.69897885074471,35.688831745801913],[139.69898568976402,35.688815383655616],[139.69898453332544,35.68881506226446],[139.69899357035965,35.688794616875619],[139.69899471883988,35.688794955169037],[139.69899890342313,35.68878548734223],[139.69900290073403,35.68877107348969],[139.69900173532361,35.68877085715048],[139.69900765330078,35.688749655123033],[139.69900884405831,35.688749876295638],[139.69901552672175,35.688725936156146],[139.69901433492413,35.688725714909502],[139.69902025283739,35.68870451317953],[139.69902144463467,35.688704734426111],[139.69903101177246,35.68867045879071],[139.69902982022089,35.688670237032056],[139.69903573782341,35.688649035887494],[139.69903692857227,35.688649257058493],[139.69904361121883,35.688625316917005],[139.6990424459062,35.688625100041634],[139.69904836380056,35.688603898682778],[139.69904955452137,35.688604119720409],[139.69905623716036,35.688580179577997],[139.69905504542655,35.688579958352321],[139.69906096325641,35.688558756599242],[139.69906215505162,35.688558977845432],[139.69907172215588,35.688524701304516],[139.6990705304637,35.688524480086585],[139.69907690548257,35.688503349254702],[139.69907809178554,35.688503587507626],[139.69908528579904,35.688479746182814],[139.69908412471986,35.688479513131469],[139.69909049449163,35.688458398660977],[139.69909168082606,35.688458636920203],[139.69909887483141,35.688434795594361],[139.69909768100845,35.688434555970737],[139.69910451432156,35.68841352002844],[139.69910569507894,35.688413775139253],[139.6991167234028,35.688379792266957],[139.69911554164577,35.688379536940175],[139.69912236270446,35.688358516572997],[139.69912354474573,35.688358771811849],[139.69913175263866,35.688335149745448],[139.69913060289764,35.688334883502257],[139.69913787259662,35.688313963740967],[139.69913904778667,35.688314235277744],[139.69914725677529,35.688290613211343],[139.69914608155389,35.688290341667319],[139.69915335141215,35.688269421790004],[139.69915452651222,35.688269693305976],[139.69916700051107,35.68823604554639],[139.6991658317686,35.688235757063026],[139.69917354812461,35.688214943121189],[139.69917471753328,35.68821523159837],[139.69918343012066,35.688191729972502],[139.69918228589066,35.688191447623062],[139.699190001782,35.688170634617862],[139.69919117142936,35.688170923261325],[139.69919988400707,35.688147421634056],[139.6991987143239,35.68814713291853],[139.69920643037617,35.688126319571438],[139.69920759990728,35.688126607682356],[139.69922007496626,35.688092959917604],[139.6992189053199,35.688092671274433],[139.69922662124694,35.688071858118448],[139.69922779085445,35.688072146865764],[139.69923650341056,35.688048645235433],[139.69923533380339,35.688048356488181],[139.69924305093087,35.688027543051525],[139.69924421929167,35.688027831281026],[139.69925293294295,35.688004329650518],[139.69925176357154,35.688004041182602],[139.69925947903474,35.687983228027704],[139.699260648814,35.687983516596233],[139.69927312272338,35.68794986882385],[139.69927195311755,35.687949580076975],[139.69927967022596,35.687928766637569],[139.69928083858542,35.687929054866714],[139.69928955221516,35.687905553233151],[139.69928838290852,35.687905264781222],[139.69929609835992,35.687884451625415],[139.69929726806711,35.687884740176131],[139.6993059805823,35.687861238539931],[139.69930481097762,35.687860949793368],[139.69931252786461,35.687840136902238],[139.69931369642566,35.687840425481696],[139.69932617139668,35.687806776802773],[139.69932500151893,35.687806488210008],[139.69933271756088,35.687785675031229],[139.6993338872295,35.687785963743046],[139.69934259972314,35.687762462103784],[139.69934143011977,35.687762173357555],[139.69934914685169,35.68774136057116],[139.69935031554741,35.687741649042842],[139.69935491486117,35.687729236887463],[139.6993578729859,35.687717763034485],[139.69935667785788,35.687717558919786],[139.69936214054562,35.687696276404125],[139.69936333676876,35.687696480556596],[139.69936756166862,35.687680019931065],[139.69937717151043,35.687654083293253],[139.69938164929889,35.687655198354321],[139.69938490951193,35.687656002398406],[139.69919675935469,35.688163308404214],[139.69916482139968,35.688250083758057],[139.69913499243745,35.688338262181958],[139.69912031270337,35.68838202986327],[139.6991059717592,35.688424051966606],[139.69909378636419,35.688466101709821],[139.6990809424438,35.688510133731022],[139.69905564914399,35.688599431282427],[139.69899325583205,35.68881613032076],[139.69898494514402,35.688849606938007],[139.69898266187823,35.688849296121418]]]},"properties":{"FID":75,"id":"4ad79e7ff2ef4c85877ee729362832ab","category":"B029","floor_id":"8e00d6d1991a4a55a20320af3cd8639f","name":" ","restricted":"1","suite":" ","nonpublic":"2","toll":"2","source":"2"}},{"type":"Feature","id":76,"geometry":{"type":"Polygon","coordinates":[[[139.69894534698807,35.688924822154135],[139.69894151315358,35.688925890139352],[139.69895495533035,35.688848075822833],[139.69895606479588,35.688848223551481],[139.69895874476106,35.688848505967506],[139.69894534698807,35.688924822154135]]]},"properties":{"FID":76,"id":"c0b057ced22042fb9372e04db131e4b7","category":"B019","floor_id":"8e00d6d1991a4a55a20320af3cd8639f","name":" ","restricted":"1","suite":" ","nonpublic":"2","toll":"1","source":"2"}},{"type":"Feature","id":77,"geometry":{"type":"Polygon","coordinates":[[[139.69894151315358,35.688925890139352],[139.69892743733286,35.688929813008038],[139.69894180825764,35.688846409404427],[139.69895495533035,35.688848075822833],[139.69894151315358,35.688925890139352]]]},"properties":{"FID":77,"id":"d2bb50a596a649cbb5b00bf67dec2457","category":"B023","floor_id":"8e00d6d1991a4a55a20320af3cd8639f","name":" ","restricted":"2","suite":" ","nonpublic":"2","toll":"2","source":"2"}},{"type":"Feature","id":78,"geometry":{"type":"Polygon","coordinates":[[[139.69892743733286,35.688929813008038],[139.69892528068257,35.688930414397305],[139.69893980940614,35.688846165181033],[139.69894180825764,35.688846409404427],[139.69892743733286,35.688929813008038]]]},"properties":{"FID":78,"id":"7df47df7821c4f5ba22260bf389cf300","category":"B019","floor_id":"8e00d6d1991a4a55a20320af3cd8639f","name":" ","restricted":"1","suite":" ","nonpublic":"2","toll":"1","source":"2"}},{"type":"Feature","id":79,"geometry":{"type":"Polygon","coordinates":[[[139.69892528068257,35.688930414397305],[139.69892312294147,35.688931016062796],[139.69893773871752,35.688845910009348],[139.69893980940614,35.688846165181033],[139.69892528068257,35.688930414397305]]]},"properties":{"FID":79,"id":"49c82321215b446fbacbe45c14a7a2dc","category":"B019","floor_id":"8e00d6d1991a4a55a20320af3cd8639f","name":" ","restricted":"1","suite":" ","nonpublic":"2","toll":"1","source":"2"}},{"type":"Feature","id":80,"geometry":{"type":"Polygon","coordinates":[[[139.69890894624774,35.688935012428765],[139.69890680936763,35.688935610909041],[139.69892259911975,35.688843985538746],[139.69892348328503,35.688844095861363],[139.69892458902279,35.688844243117799],[139.69890894624774,35.688935012428765]]]},"properties":{"FID":80,"id":"33448feaf1f94112baa26e7e8d6ead9a","category":"B019","floor_id":"8e00d6d1991a4a55a20320af3cd8639f","name":" ","restricted":"1","suite":" ","nonpublic":"2","toll":"1","source":"2"}},{"type":"Feature","id":81,"geometry":{"type":"Polygon","coordinates":[[[139.69890680936763,35.688935610909041],[139.69890439315367,35.688936287622852],[139.69891818267698,35.688856424064127],[139.69892037811752,35.688843708410886],[139.69892259911975,35.688843985538746],[139.69890680936763,35.688935610909041]]]},"properties":{"FID":81,"id":"68962b6bcebb4f65b3318edcd7f63d15","category":"B019","floor_id":"8e00d6d1991a4a55a20320af3cd8639f","name":" ","restricted":"1","suite":" ","nonpublic":"2","toll":"1","source":"2"}},{"type":"Feature","id":82,"geometry":{"type":"Polygon","coordinates":[[[139.69891493553007,35.688929952615283],[139.69891560516621,35.688936491900016],[139.69891344972157,35.688933751131671],[139.69890894624774,35.688935012428765],[139.69892458902279,35.688844243117799],[139.69893773871752,35.688845910009348],[139.69892312294147,35.688931016062796],[139.69891709097465,35.68893269338362],[139.69891493553007,35.688929952615283]]]},"properties":{"FID":82,"id":"60d03432842e4519af4294ce7ee778b8","category":"B023","floor_id":"8e00d6d1991a4a55a20320af3cd8639f","name":" ","restricted":"2","suite":" ","nonpublic":"2","toll":"2","source":"2"}},{"type":"Feature","id":83,"geometry":{"type":"Polygon","coordinates":[[[139.69890439315367,35.688936287622852],[139.69888562118453,35.688941545123335],[139.69890058355057,35.688854444828408],[139.69891818267698,35.688856424064127],[139.69890439315367,35.688936287622852]]]},"properties":{"FID":83,"id":"8000dbc9c52e441fa6531e4a3c3cf10d","category":"B021","floor_id":"8e00d6d1991a4a55a20320af3cd8639f","name":" ","restricted":"2","suite":" ","nonpublic":"2","toll":"2","source":"2"}},{"type":"Feature","id":84,"geometry":{"type":"Polygon","coordinates":[[[139.69892702087782,35.689027337489925],[139.69892135265604,35.689030734734089],[139.69887571943124,35.689025090775942],[139.69887148336704,35.689020449398129],[139.69887156252148,35.689020027645434],[139.69886497656401,35.689019222576995],[139.6988690780334,35.688995434599228],[139.69887218419098,35.688977459345203],[139.69887681123799,35.6889505829595],[139.69887846824273,35.688940895985404],[139.69889402855691,35.68885052218873],[139.69889661662441,35.688832481456458],[139.69890419433722,35.688833531901849],[139.69890108819249,35.688851507157182],[139.69890058355057,35.688854444828408],[139.69888562118453,35.688941545123335],[139.69890439315367,35.688936287622852],[139.69890680936763,35.688935610909041],[139.69890894624774,35.688935012428765],[139.69891344972157,35.688933751131671],[139.69891560516621,35.688936491900016],[139.69891493553007,35.688929952615283],[139.69891709097465,35.68893269338362],[139.69892312294147,35.688931016062796],[139.69892528068257,35.688930414397305],[139.69892743733286,35.688929813008038],[139.69894151315358,35.688925890139352],[139.69894534698807,35.688924822154135],[139.69895874476106,35.688848505967506],[139.698960013397,35.688841119755949],[139.69896768399073,35.688842128838004],[139.698964529324,35.688859398268171],[139.69896396364274,35.68885934301651],[139.69894598688592,35.688959069980719],[139.6989411267229,35.68898595151704],[139.69893787810989,35.689003891460352],[139.69893363639812,35.689027645031842],[139.69892712112147,35.689026858073085],[139.69892702087782,35.689027337489925]]]},"properties":{"FID":84,"id":"4a196600984e484bbf8b9dcf7b382b9b","category":"B019","floor_id":"8e00d6d1991a4a55a20320af3cd8639f","name":" ","restricted":"1","suite":" ","nonpublic":"2","toll":"1","source":"2"}}]}