{"type":"FeatureCollection","crs":{"type":"name","properties":{"name":"EPSG:6668"}},"features":[{"type":"Feature","id":0,"geometry":{"type":"Point","coordinates":[139.69932328880526,35.687643231748382]},"properties":{"FID":0,"id":"c427f1e89b4643878f1bd14c98ba7e07","category":"F012","floor_id":"63df68d1c60e42f3b2fab3161e030808","name":" ","source":"2"}},{"type":"Feature","id":1,"geometry":{"type":"Point","coordinates":[139.69922760801541,35.687956945714852]},"properties":{"FID":1,"id":"a4727e71c7cb4cc5a2e33afc1004aae7","category":"F014","floor_id":"63df68d1c60e42f3b2fab3161e030808","name":" ","source":"2"}},{"type":"Feature","id":2,"geometry":{"type":"Point","coordinates":[139.69923906223707,35.687973742969902]},"properties":{"FID":2,"id":"71908d201f004206a6c9d5f15e9fe8bc","category":"F014","floor_id":"63df68d1c60e42f3b2fab3161e030808","name":" ","source":"2"}},{"type":"Feature","id":3,"geometry":{"type":"Point","coordinates":[139.69926669136271,35.687969831247386]},"properties":{"FID":3,"id":"7882575c607f43898c0db346cce744da","category":"F002","floor_id":"63df68d1c60e42f3b2fab3161e030808","name":" ","source":"2"}},{"type":"Feature","id":4,"geometry":{"type":"Point","coordinates":[139.69922216267364,35.687997196447448]},"properties":{"FID":4,"id":"4a0b1e23102d4c29a88b1afd94ffe51c","category":"F003","floor_id":"63df68d1c60e42f3b2fab3161e030808","name":" ","source":"2"}},{"type":"Feature","id":5,"geometry":{"type":"Point","coordinates":[139.69923131526875,35.68801860552486]},"properties":{"FID":5,"id":"d9998e02156f4973b7d9ba98a93f0df3","category":"F014","floor_id":"63df68d1c60e42f3b2fab3161e030808","name":" ","source":"2"}},{"type":"Feature","id":6,"geometry":{"type":"Point","coordinates":[139.6992056761294,35.688022920230679]},"properties":{"FID":6,"id":"40f673cd8c254256a7bf96598c09f5d6","category":"F014","floor_id":"63df68d1c60e42f3b2fab3161e030808","name":" ","source":"2"}},{"type":"Feature","id":7,"geometry":{"type":"Point","coordinates":[139.69922290212898,35.688051986645277]},"properties":{"FID":7,"id":"71c9f4f274754352aef18dbf88ae696b","category":"F001","floor_id":"63df68d1c60e42f3b2fab3161e030808","name":" ","source":"2"}},{"type":"Feature","id":8,"geometry":{"type":"Point","coordinates":[139.69920441187679,35.688118260358884]},"properties":{"FID":8,"id":"cac586d5e329450081e1dd9e79705eb7","category":"F011","floor_id":"63df68d1c60e42f3b2fab3161e030808","name":" ","source":"2"}},{"type":"Feature","id":9,"geometry":{"type":"Point","coordinates":[139.69922453330534,35.688121477902996]},"properties":{"FID":9,"id":"7320d88a53734187ae2a6c248c30a63e","category":"F013","floor_id":"63df68d1c60e42f3b2fab3161e030808","name":" ","source":"2"}},{"type":"Feature","id":10,"geometry":{"type":"Point","coordinates":[139.69914314810401,35.688096964481488]},"properties":{"FID":10,"id":"b840f36e42104be8b0eb0c5aca880b91","category":"F013","floor_id":"63df68d1c60e42f3b2fab3161e030808","name":" ","source":"2"}},{"type":"Feature","id":11,"geometry":{"type":"Point","coordinates":[139.69915949595907,35.688101208649037]},"properties":{"FID":11,"id":"105fb95fcf414181bfadfd5104480f0a","category":"F013","floor_id":"63df68d1c60e42f3b2fab3161e030808","name":" ","source":"2"}},{"type":"Feature","id":12,"geometry":{"type":"Point","coordinates":[139.69917600696698,35.68810517981165]},"properties":{"FID":12,"id":"9f9764c4bb34466890e07779b21cbb4b","category":"F013","floor_id":"63df68d1c60e42f3b2fab3161e030808","name":" ","source":"2"}},{"type":"Feature","id":13,"geometry":{"type":"Point","coordinates":[139.69906397349285,35.688317044005977]},"properties":{"FID":13,"id":"77637a60c21b4094884285838b500de7","category":"F013","floor_id":"63df68d1c60e42f3b2fab3161e030808","name":" ","source":"2"}},{"type":"Feature","id":14,"geometry":{"type":"Point","coordinates":[139.69908050084257,35.688320870418799]},"properties":{"FID":14,"id":"f80ea321dbc54567afa27cbc613b6f9e","category":"F013","floor_id":"63df68d1c60e42f3b2fab3161e030808","name":" ","source":"2"}},{"type":"Feature","id":15,"geometry":{"type":"Point","coordinates":[139.69909709936357,35.688324602589816]},"properties":{"FID":15,"id":"c42e67e2ad974811a5850043e2b67e22","category":"F013","floor_id":"63df68d1c60e42f3b2fab3161e030808","name":" ","source":"2"}},{"type":"Feature","id":16,"geometry":{"type":"Point","coordinates":[139.69848696465678,35.688384397291152]},"properties":{"FID":16,"id":"0e03fa40090548db9fd47ad8505cd230","category":"F013","floor_id":"63df68d1c60e42f3b2fab3161e030808","name":" ","source":"2"}},{"type":"Feature","id":17,"geometry":{"type":"Point","coordinates":[139.6987198815695,35.688407255459282]},"properties":{"FID":17,"id":"fc4c08b6dbf64eadafa0af82d4ab53e8","category":"F013","floor_id":"63df68d1c60e42f3b2fab3161e030808","name":" ","source":"2"}},{"type":"Feature","id":18,"geometry":{"type":"Point","coordinates":[139.69870519549809,35.688419390263874]},"properties":{"FID":18,"id":"35f0328b691449028d999e4d80e2740a","category":"F013","floor_id":"63df68d1c60e42f3b2fab3161e030808","name":" ","source":"2"}},{"type":"Feature","id":19,"geometry":{"type":"Point","coordinates":[139.69847392370704,35.688407240676028]},"properties":{"FID":19,"id":"46aad179901a469f9abfaebc02316f84","category":"F011","floor_id":"63df68d1c60e42f3b2fab3161e030808","name":" ","source":"2"}},{"type":"Feature","id":20,"geometry":{"type":"Point","coordinates":[139.69869106380906,35.688431523286077]},"properties":{"FID":20,"id":"809cb190242d4976a30a0811c65c98a7","category":"F013","floor_id":"63df68d1c60e42f3b2fab3161e030808","name":" ","source":"2"}},{"type":"Feature","id":21,"geometry":{"type":"Point","coordinates":[139.69891617460934,35.688470600250675]},"properties":{"FID":21,"id":"fc8cd1fe2d0f474c94ebf016a2d98128","category":"F013","floor_id":"63df68d1c60e42f3b2fab3161e030808","name":" ","source":"2"}},{"type":"Feature","id":22,"geometry":{"type":"Point","coordinates":[139.69890362861329,35.688482712589362]},"properties":{"FID":22,"id":"bc1137c1463e4f19801a364b0684945c","category":"F013","floor_id":"63df68d1c60e42f3b2fab3161e030808","name":" ","source":"2"}},{"type":"Feature","id":23,"geometry":{"type":"Point","coordinates":[139.69869109427592,35.688466633329611]},"properties":{"FID":23,"id":"24cb5e8d6212455eae22de5bb36c3036","category":"F011","floor_id":"63df68d1c60e42f3b2fab3161e030808","name":" ","source":"2"}},{"type":"Feature","id":24,"geometry":{"type":"Point","coordinates":[139.69889119263672,35.688494665126179]},"properties":{"FID":24,"id":"381093ab0ca544fbb07e7a38c1183577","category":"F013","floor_id":"63df68d1c60e42f3b2fab3161e030808","name":" ","source":"2"}},{"type":"Feature","id":25,"geometry":{"type":"Point","coordinates":[139.69840155950084,35.6884951758367]},"properties":{"FID":25,"id":"4afa3981aef242298c40bb157c93fc8a","category":"F011","floor_id":"220cccd00be94faeb8f84cb191130c76","name":" ","source":"2"}},{"type":"Feature","id":26,"geometry":{"type":"Point","coordinates":[139.69840018115497,35.688529304652661]},"properties":{"FID":26,"id":"cc70b196ccc344428eb7b76ae26533b0","category":"F011","floor_id":"220cccd00be94faeb8f84cb191130c76","name":" ","source":"2"}},{"type":"Feature","id":27,"geometry":{"type":"Point","coordinates":[139.69887704993261,35.688542841341459]},"properties":{"FID":27,"id":"ab22656acaa2417ebf419cdfbc6ce91f","category":"F011","floor_id":"63df68d1c60e42f3b2fab3161e030808","name":" ","source":"2"}},{"type":"Feature","id":28,"geometry":{"type":"Point","coordinates":[139.69912526303716,35.688614670322295]},"properties":{"FID":28,"id":"9ed0420a624a42c8a268d5af601c85e0","category":"F011","floor_id":"63df68d1c60e42f3b2fab3161e030808","name":" ","source":"2"}},{"type":"Feature","id":29,"geometry":{"type":"Point","coordinates":[139.69885140218244,35.688806132883329]},"properties":{"FID":29,"id":"d05c3cc8a315417abbe235c7755b7566","category":"F013","floor_id":"220cccd00be94faeb8f84cb191130c76","name":" ","source":"2"}},{"type":"Feature","id":30,"geometry":{"type":"Point","coordinates":[139.69887073584729,35.688808466691981]},"properties":{"FID":30,"id":"34b161747d9844618860043e932a2477","category":"F013","floor_id":"220cccd00be94faeb8f84cb191130c76","name":" ","source":"2"}},{"type":"Feature","id":31,"geometry":{"type":"Point","coordinates":[139.6988917525679,35.688797003489796]},"properties":{"FID":31,"id":"f57749b92d784433b056c47742b70db0","category":"F011","floor_id":"220cccd00be94faeb8f84cb191130c76","name":" ","source":"2"}}]}