{"type":"FeatureCollection","crs":{"type":"name","properties":{"name":"EPSG:6668"}},"features":[{"type":"Feature","id":0,"geometry":{"type":"Point","coordinates":[139.69882940237966,35.688932489720301]},"properties":{"FID":0,"id":"8d26efc76b1a482189f2486d1f77185f","category":"F013","floor_id":"b9b1fdfdd6d040088a5fcba1d54cc786","name":"","source":"2"}},{"type":"Feature","id":1,"geometry":{"type":"Point","coordinates":[139.69884778344601,35.688939755112422]},"properties":{"FID":1,"id":"e2fbd0cddb37492ebf389ce44b584b29","category":"F013","floor_id":"b9b1fdfdd6d040088a5fcba1d54cc786","name":"","source":"2"}},{"type":"Feature","id":2,"geometry":{"type":"Point","coordinates":[139.69886526905364,35.688948306820954]},"properties":{"FID":2,"id":"e72844c98f7e4af78b943c5575627711","category":"F011","floor_id":"b9b1fdfdd6d040088a5fcba1d54cc786","name":"","source":"2"}},{"type":"Feature","id":3,"geometry":{"type":"Point","coordinates":[139.69889488020021,35.688936949240897]},"properties":{"FID":3,"id":"80e7310ac1d940259656ab34f0b3fbff","category":"F011","floor_id":"b9b1fdfdd6d040088a5fcba1d54cc786","name":"","source":"2"}},{"type":"Feature","id":4,"geometry":{"type":"Point","coordinates":[139.69891330853122,35.688939039681479]},"properties":{"FID":4,"id":"e16262c8a40e4053aebc01029b8af77c","category":"F013","floor_id":"b9b1fdfdd6d040088a5fcba1d54cc786","name":"","source":"2"}},{"type":"Feature","id":5,"geometry":{"type":"Point","coordinates":[139.69893143418921,35.688941420473455]},"properties":{"FID":5,"id":"b3e25cedd53749338c9b1b73564b1228","category":"F013","floor_id":"b9b1fdfdd6d040088a5fcba1d54cc786","name":"","source":"2"}}]}