{"type":"FeatureCollection","crs":{"type":"name","properties":{"name":"EPSG:6668"}},"features":[{"type":"Feature","id":0,"geometry":{"type":"Polygon","coordinates":[[[139.69883668866083,35.688936051324561],[139.69883131678563,35.688966951493114],[139.69881815483032,35.688965337757097],[139.69881620325216,35.688965100485781],[139.69882150840357,35.688934252355935],[139.69882837929131,35.688894323939053],[139.69884222644504,35.688903884780203],[139.69883668866083,35.688936051324561]]]},"properties":{"FID":0,"id":"8e7bb29428ce4ea0819df0b3ae7e2799","category":"B023","floor_id":"b9b1fdfdd6d040088a5fcba1d54cc786","name":" ","restricted":"2","suite":" ","nonpublic":"2","toll":"2","source":"2"}},{"type":"Feature","id":1,"geometry":{"type":"Polygon","coordinates":[[[139.69884407258974,35.688905155011504],[139.69883331401451,35.688967193436923],[139.69883131678563,35.688966951493114],[139.69883668866083,35.688936051324561],[139.69884222644504,35.688903884780203],[139.69884407258974,35.688905155011504]]]},"properties":{"FID":1,"id":"122bb94cb36c452ca06c4832e646a923","category":"B019","floor_id":"b9b1fdfdd6d040088a5fcba1d54cc786","name":" ","restricted":"1","suite":" ","nonpublic":"2","toll":"1","source":"2"}},{"type":"Feature","id":2,"geometry":{"type":"Polygon","coordinates":[[[139.69884068420671,35.688936533514372],[139.69883531232998,35.6889674354858],[139.69883331401451,35.688967193436923],[139.69884407258974,35.688905155011504],[139.69884585579683,35.688906394799481],[139.69884068420671,35.688936533514372]]]},"properties":{"FID":2,"id":"cbd64d2d50664df18e23514cc7c3a95b","category":"B019","floor_id":"b9b1fdfdd6d040088a5fcba1d54cc786","name":" ","restricted":"1","suite":" ","nonpublic":"2","toll":"1","source":"2"}},{"type":"Feature","id":3,"geometry":{"type":"Polygon","coordinates":[[[139.69885605022074,35.688938251564778],[139.69885068793553,35.688969344566146],[139.69883531232998,35.6889674354858],[139.69884068420671,35.688936533514372],[139.69884585579683,35.688906394799481],[139.69885157589468,35.688910340155374],[139.69884980100122,35.688913244189131],[139.69885629847738,35.688909490030746],[139.69885452358412,35.688912394064602],[139.69885987262805,35.688916088504335],[139.69885605022074,35.688938251564778]]]},"properties":{"FID":3,"id":"f55203f26f144339a4fc82771ab8fd9a","category":"B023","floor_id":"b9b1fdfdd6d040088a5fcba1d54cc786","name":" ","restricted":"2","suite":" ","nonpublic":"2","toll":"2","source":"2"}},{"type":"Feature","id":4,"geometry":{"type":"Polygon","coordinates":[[[139.69885745978181,35.688938410879061],[139.69885156532681,35.688972589648309],[139.69885015576514,35.688972430333976],[139.69885068793553,35.688969344566146],[139.69885605022074,35.688938251564778],[139.69885987262805,35.688916088504335],[139.69886116460808,35.688916980839828],[139.69885745978181,35.688938410879061]]]},"properties":{"FID":4,"id":"a58b8033999b499bbbce78bf71684584","category":"B019","floor_id":"b9b1fdfdd6d040088a5fcba1d54cc786","name":" ","restricted":"1","suite":" ","nonpublic":"2","toll":"1","source":"2"}},{"type":"Feature","id":5,"geometry":{"type":"Polygon","coordinates":[[[139.69887674955288,35.688940594811072],[139.69887079938587,35.688975008195555],[139.69885156532681,35.688972589648309],[139.69885745978181,35.688938410879061],[139.69886116460808,35.688916980839828],[139.69887870239526,35.688929093709802],[139.69887674955288,35.688940594811072]]]},"properties":{"FID":5,"id":"47608eabe94f4e7c8993f7a9907e52c1","category":"B021","floor_id":"b9b1fdfdd6d040088a5fcba1d54cc786","name":" ","restricted":"2","suite":" ","nonpublic":"2","toll":"2","source":"2"}},{"type":"Feature","id":6,"geometry":{"type":"Polygon","coordinates":[[[139.69890254906565,35.688943568398372],[139.69889669307213,35.688977074947637],[139.69887953828774,35.688974901647924],[139.69888527870825,35.688941567901097],[139.6988930161622,35.688896809105785],[139.69891024412198,35.688899154025677],[139.69890254906565,35.688943568398372]]]},"properties":{"FID":6,"id":"1935c455fd24408cb8c08a99e715c61c","category":"B021","floor_id":"b9b1fdfdd6d040088a5fcba1d54cc786","name":" ","restricted":"2","suite":" ","nonpublic":"2","toll":"2","source":"2"}},{"type":"Feature","id":7,"geometry":{"type":"Polygon","coordinates":[[[139.69891989121382,35.688945585197963],[139.69891421426428,35.688978555476133],[139.69889906204719,35.688976576285462],[139.6989047594405,35.68894386200904],[139.69891244236456,35.688899453231137],[139.69892753327667,35.688901503943093],[139.69891989121382,35.688945585197963]]]},"properties":{"FID":7,"id":"d2ef65641fae463e8c7ad3c6e068f793","category":"B023","floor_id":"b9b1fdfdd6d040088a5fcba1d54cc786","name":" ","restricted":"2","suite":" ","nonpublic":"2","toll":"2","source":"2"}},{"type":"Feature","id":8,"geometry":{"type":"Polygon","coordinates":[[[139.69892952495829,35.688901778362172],[139.6989162114846,35.688978797470526],[139.69891421426428,35.688978555476133],[139.69891989121382,35.688945585197963],[139.69892753327667,35.688901503943093],[139.69892952495829,35.688901778362172]]]},"properties":{"FID":8,"id":"8c72386e9bea4327b88b5679a7e3df33","category":"B019","floor_id":"b9b1fdfdd6d040088a5fcba1d54cc786","name":" ","restricted":"1","suite":" ","nonpublic":"2","toll":"1","source":"2"}},{"type":"Feature","id":9,"geometry":{"type":"Polygon","coordinates":[[[139.69892388565282,35.6889460691865],[139.6989182087049,35.688979039464883],[139.6989162114846,35.688978797470526],[139.69892952495829,35.688901778362172],[139.69893150634095,35.688902045191668],[139.69892388565282,35.6889460691865]]]},"properties":{"FID":9,"id":"22e03e2f4d82409ea16401059ec7ae87","category":"B019","floor_id":"b9b1fdfdd6d040088a5fcba1d54cc786","name":" ","restricted":"1","suite":" ","nonpublic":"2","toll":"1","source":"2"}},{"type":"Feature","id":10,"geometry":{"type":"Polygon","coordinates":[[[139.69889906204719,35.688976576285462],[139.69889848290845,35.688979901682742],[139.69889623035513,35.688979722498829],[139.69889669307213,35.688977074947637],[139.69890254906565,35.688943568398372],[139.69891024412198,35.688899154025677],[139.69891244236456,35.688899453231137],[139.6989047594405,35.68894386200904],[139.69889906204719,35.688976576285462]]]},"properties":{"FID":10,"id":"bb414b2797a049298ffbbd6ca98595c6","category":"B019","floor_id":"b9b1fdfdd6d040088a5fcba1d54cc786","name":" ","restricted":"1","suite":" ","nonpublic":"2","toll":"1","source":"2"}},{"type":"Feature","id":11,"geometry":{"type":"Polygon","coordinates":[[[139.69893709089089,35.688947567583952],[139.69893142025705,35.688980728960402],[139.6989182087049,35.688979039464883],[139.69892388565282,35.6889460691865],[139.69893150634095,35.688902045191668],[139.69894467657346,35.688903841242144],[139.69893709089089,35.688947567583952]]]},"properties":{"FID":11,"id":"5c6a65a951094a31bdbbaa625ccea5ac","category":"B023","floor_id":"b9b1fdfdd6d040088a5fcba1d54cc786","name":" ","restricted":"2","suite":" ","nonpublic":"2","toll":"2","source":"2"}},{"type":"Feature","id":12,"geometry":{"type":"Polygon","coordinates":[[[139.69894806200864,35.688904301458052],[139.69893418795735,35.688981037159181],[139.69893142025705,35.688980728960402],[139.69893709089089,35.688947567583952],[139.69894467657346,35.688903841242144],[139.69894806200864,35.688904301458052]]]},"properties":{"FID":12,"id":"4f2f3c6de85f48979187dec4b43a82cc","category":"B019","floor_id":"b9b1fdfdd6d040088a5fcba1d54cc786","name":" ","restricted":"1","suite":" ","nonpublic":"2","toll":"1","source":"2"}},{"type":"Feature","id":13,"geometry":{"type":"Polygon","coordinates":[[[139.69893237633318,35.688991057022342],[139.69892518794254,35.689030592092841],[139.69887108203082,35.68902389849233],[139.69887146629077,35.689021407535222],[139.69886317768086,35.689020619493704],[139.69886273751658,35.689022845385601],[139.69880743410081,35.689016045860001],[139.6988149119486,35.688972609089781],[139.69881620325216,35.688965100485781],[139.69881815483032,35.688965337757097],[139.69883131678563,35.688966951493114],[139.69883331401451,35.688967193436923],[139.69883531232998,35.6889674354858],[139.69885068793553,35.688969344566146],[139.69885015576514,35.688972430333976],[139.69885156532681,35.688972589648309],[139.69887079938587,35.688975008195555],[139.69887042235865,35.688977188769186],[139.69887899369684,35.688978046531453],[139.69887953828774,35.688974901647924],[139.69889669307213,35.688977074947637],[139.69889623035513,35.688979722498829],[139.69889848290845,35.688979901682742],[139.69889906204719,35.688976576285462],[139.69891421426428,35.688978555476133],[139.6989162114846,35.688978797470526],[139.6989182087049,35.688979039464883],[139.69893142025705,35.688980728960402],[139.69893418795735,35.688981037159181],[139.69893237633318,35.688991057022342]]]},"properties":{"FID":13,"id":"01e48c1804304f10921dd8df14e86144","category":"B029","floor_id":"b9b1fdfdd6d040088a5fcba1d54cc786","name":" ","restricted":"2","suite":" ","nonpublic":"2","toll":"2","source":"2"}}]}