{"type":"FeatureCollection","crs":{"type":"name","properties":{"name":"EPSG:6668"}},"features":[{"type":"Feature","id":0,"geometry":{"type":"Polygon","coordinates":[[[139.69922703135376,35.688138369018439],[139.69921032913913,35.688134237963602],[139.69920926537947,35.688133974857706],[139.6991896640798,35.688129126751804],[139.69921656941901,35.688056725523971],[139.69922060346505,35.688045871134442],[139.69921847968109,35.688045345973904],[139.69921570981879,35.688052798724584],[139.69920751769575,35.688050777531828],[139.69923585737072,35.687974521253899],[139.69923641127255,35.68797281158465],[139.6992506901621,35.687969275576648],[139.69929426896573,35.6878520116964],[139.69929384484251,35.687851906746701],[139.69929278245914,35.687851644008674],[139.6992923583378,35.687851539053931],[139.69929220850557,35.68785194270091],[139.6992837155984,35.687849842066065],[139.69928257798998,35.687852902753392],[139.69924959922869,35.687844745584847],[139.6992261736101,35.68783895162521],[139.69922731011562,35.68783589093718],[139.69921690658481,35.687833317654082],[139.69921577007892,35.687836378342013],[139.69918825976785,35.68782963153317],[139.69924078848314,35.687697816261938],[139.69926521097426,35.687703406865815],[139.69929059304712,35.687709689467752],[139.69930417276126,35.687673146736792],[139.69930028083283,35.687672183346073],[139.69930807102227,35.687651222032777],[139.69930657456484,35.687650848791286],[139.69931484396963,35.68762862913232],[139.69932489296286,35.687631114579446],[139.6993250216054,35.687630768571836],[139.69933720905104,35.687597974094054],[139.69935617612012,35.687602665201787],[139.69936148403551,35.687603978129751],[139.69936296444271,35.687599994785607],[139.69936553930879,35.687593066115014],[139.69938401395714,35.687543354479025],[139.69938658771471,35.687536425806684],[139.69938738236851,35.687534288640926],[139.69938995722885,35.687527360871108],[139.69939366858182,35.687517373312772],[139.69939665186749,35.687509346325669],[139.69939678060976,35.687509000342743],[139.6994099440123,35.687512256313617],[139.69941329132914,35.687503249040383],[139.69942722584383,35.6874688691587],[139.6994304230129,35.687460267258032],[139.69943044560944,35.687460209091867],[139.69943692682847,35.68744422296934],[139.69944392941827,35.687427041629476],[139.69944749092923,35.687417457716506],[139.69946127884467,35.687382852324795],[139.69946447540954,35.687374250547485],[139.6994645006767,35.687374193042317],[139.69946812489064,35.687367082878588],[139.69947305719211,35.687357396307689],[139.69947709060861,35.687346542041901],[139.69947784174974,35.687344521048516],[139.69948556629052,35.687323735929525],[139.69948578039799,35.687323158365992],[139.69951403230499,35.687246928552895],[139.69951450367608,35.687245657165796],[139.69952094077749,35.687228336381295],[139.69952937917299,35.687205836617423],[139.69952944405904,35.687205662852818],[139.69952790073864,35.687203578972479],[139.69955782873427,35.687124423344358],[139.69956848789116,35.687096231230633],[139.69956023671122,35.687094315664616],[139.69953880520401,35.687089392901896],[139.69950711903414,35.687082123286508],[139.6995087578625,35.687077296468303],[139.69945889597201,35.687065909907417],[139.69945768033844,35.687069391449924],[139.69942302114342,35.687061385692374],[139.69942416720124,35.687057886946782],[139.6994113425022,35.687054966663815],[139.69941012576194,35.68705844820461],[139.6993706832146,35.687049386113202],[139.69937319584952,35.687042000377879],[139.6993700814449,35.687041230747717],[139.69936931496218,35.687043402470394],[139.69936715518497,35.687049521899745],[139.69934678613177,35.687044862583832],[139.69934807355656,35.687041398248333],[139.6993448884717,35.687040610511488],[139.69934998442577,35.68702585714788],[139.69935321168586,35.687026530457558],[139.69935493077861,35.687021280988098],[139.69937527873614,35.687025998868243],[139.699373826705,35.687030262173487],[139.69937274390989,35.687033441365301],[139.69937242205287,35.687034308125241],[139.69937562822787,35.687035037295779],[139.69937816305392,35.6870275947987],[139.69939681244972,35.687031892549498],[139.69941503665547,35.687036084364117],[139.69945235654572,35.687044622187173],[139.69946303639691,35.687047074973812],[139.69950141873116,35.687055874459034],[139.69951209858687,35.687058326339873],[139.69951242044095,35.687057460480922],[139.6995130641491,35.687055728763006],[139.6995146654628,35.68705609568709],[139.69951481685652,35.687055594184741],[139.69951483555249,35.687055536937443],[139.69951319311787,35.687039369037841],[139.69951699340879,35.687038291617867],[139.699509028009,35.687037267821047],[139.69951215444527,35.68703637010055],[139.69951292117534,35.687036149942749],[139.69951279761617,35.687034984828742],[139.69951116902436,35.687019643579298],[139.69960650073824,35.687041478242378],[139.6996556695029,35.6870527332987],[139.69962251361216,35.687140439908703],[139.69959194180802,35.687221310706498],[139.69958709180975,35.687234359834044],[139.69957663229516,35.687262505565066],[139.69954830839248,35.68733872285469],[139.69954115423891,35.687357974068469],[139.69953753210893,35.68736086073698],[139.69953730619696,35.687361438066716],[139.6995292014642,35.687382150126915],[139.69952831026717,35.687384427625922],[139.69950795713831,35.687436700853802],[139.69950793438807,35.687436758076018],[139.69949421515878,35.687470560708739],[139.69949032022444,35.68748000003314],[139.69947327482282,35.687522751092708],[139.69945976546273,35.687556605953404],[139.69945601298841,35.687566080588411],[139.69943343472534,35.687622632665587],[139.69942474376344,35.687644401011362],[139.69940830392963,35.687685726766581],[139.69938746156231,35.687738067771363],[139.69937328212018,35.68777352000469],[139.69933897463179,35.687859600521818],[139.69932182030743,35.687902640775597],[139.69928744202525,35.687988704071309],[139.69926914372434,35.688034613906318],[139.69927011960459,35.688035106239717],[139.69926536214632,35.688038344071067],[139.69926227443989,35.688046027515874],[139.69926168839149,35.688045882462944],[139.69922703135376,35.688138369018439]]]},"properties":{"FID":0,"id":"5cacd61ad7704d8fbc748167c154dbea","category":"1","name":"地下2階","ordinal":"-2.0","short_name":" ","source":"2"}},{"type":"Feature","id":1,"geometry":{"type":"Polygon","coordinates":[[[139.6985207704808,35.688545447662911],[139.69852344721852,35.6885570841429],[139.69851984410803,35.688558462809532],[139.69852781070469,35.688558857516824],[139.69852413815903,35.688560215773414],[139.69852489419546,35.688563490651269],[139.69853122398951,35.688590844647862],[139.69850818247136,35.688582561395378],[139.69843503354548,35.688555460425725],[139.69840574905726,35.688544616403227],[139.69840371365285,35.688543862736076],[139.69840324874497,35.688544690853689],[139.69838979488296,35.688539714929625],[139.69837051868058,35.688532581571252],[139.69833076104621,35.688517872251659],[139.69835925643579,35.688466982209974],[139.69839300966731,35.688479480082442],[139.69841516249105,35.688487682642794],[139.69842854099403,35.688492641272205],[139.69846412419435,35.68850584964278],[139.69851609776887,35.688525134151995],[139.69851987847846,35.688541569894241],[139.69852032425675,35.688543507809499],[139.6985207704808,35.688545447662911]]]},"properties":{"FID":1,"id":"fe9c7dc46cce4b6f91b3462933690343","category":"1","name":"地下2階","ordinal":"-2.0","short_name":" ","source":"2"}}]}