{"type":"FeatureCollection","crs":{"type":"name","properties":{"name":"EPSG:6668"}},"features":[{"type":"Feature","id":0,"geometry":{"type":"Point","coordinates":[139.69936516313251,35.686860115086162]},"properties":{"FID":0,"id":"aa3e19165580468bbe0195aa8e9365fa","category":"F011","floor_id":"f570ed519db442faa0c85f1a934547e5","name":" ","source":"2"}},{"type":"Feature","id":1,"geometry":{"type":"Point","coordinates":[139.69934215674488,35.686869939997763]},"properties":{"FID":1,"id":"7d011913f57f4c80916390915e2d2022","category":"F013","floor_id":"f570ed519db442faa0c85f1a934547e5","name":" ","source":"2"}},{"type":"Feature","id":2,"geometry":{"type":"Point","coordinates":[139.69936994848334,35.686900572171027]},"properties":{"FID":2,"id":"5cf99a8770634633a411fa3cb3aa9338","category":"F013","floor_id":"f570ed519db442faa0c85f1a934547e5","name":" ","source":"2"}},{"type":"Feature","id":3,"geometry":{"type":"Point","coordinates":[139.69949825707181,35.687022556348339]},"properties":{"FID":3,"id":"fde10274392f408dbb1f323e5249885f","category":"F013","floor_id":"f570ed519db442faa0c85f1a934547e5","name":" ","source":"2"}},{"type":"Feature","id":4,"geometry":{"type":"Point","coordinates":[139.69936258203188,35.687034758207766]},"properties":{"FID":4,"id":"6585619a877c4acabf24353e30fa9f49","category":"F012","floor_id":"f570ed519db442faa0c85f1a934547e5","name":" ","source":"2"}},{"type":"Feature","id":5,"geometry":{"type":"Point","coordinates":[139.69948561134274,35.687037622374646]},"properties":{"FID":5,"id":"572ab96d29df476f822ffd8c4789b84b","category":"F011","floor_id":"f570ed519db442faa0c85f1a934547e5","name":" ","source":"2"}},{"type":"Feature","id":6,"geometry":{"type":"Point","coordinates":[139.69881758962819,35.688284345106929]},"properties":{"FID":6,"id":"f19dc2df6fb84f588ac46a9a08cd308e","category":"F011","floor_id":"918d35f85b4c4cef84c6ba5225f954d2","name":" ","source":"2"}},{"type":"Feature","id":7,"geometry":{"type":"Point","coordinates":[139.69890886957009,35.68847212752037]},"properties":{"FID":7,"id":"6b8ccab2cacd43e0b2f07211f8b75245","category":"F013","floor_id":"918d35f85b4c4cef84c6ba5225f954d2","name":" ","source":"2"}},{"type":"Feature","id":8,"geometry":{"type":"Point","coordinates":[139.69890238006633,35.688485202680759]},"properties":{"FID":8,"id":"05d84af4c2fb4c36989c7b30e70466c7","category":"F013","floor_id":"918d35f85b4c4cef84c6ba5225f954d2","name":" ","source":"2"}},{"type":"Feature","id":9,"geometry":{"type":"Point","coordinates":[139.6988955371921,35.688498975779339]},"properties":{"FID":9,"id":"1a193965500f4387bf3d565ef6c319ab","category":"F013","floor_id":"918d35f85b4c4cef84c6ba5225f954d2","name":" ","source":"2"}},{"type":"Feature","id":10,"geometry":{"type":"Point","coordinates":[139.69892561820558,35.688532359385043]},"properties":{"FID":10,"id":"a70328b3d0a44c5eb6e540e98d5efaf6","category":"F012","floor_id":"918d35f85b4c4cef84c6ba5225f954d2","name":" ","source":"2"}},{"type":"Feature","id":11,"geometry":{"type":"Point","coordinates":[139.69913056438764,35.688537617256571]},"properties":{"FID":11,"id":"d247d0d890d44ba7bc4a0783320e09e7","category":"F013","floor_id":"918d35f85b4c4cef84c6ba5225f954d2","name":" ","source":"2"}},{"type":"Feature","id":12,"geometry":{"type":"Point","coordinates":[139.69912493958117,35.688550890387809]},"properties":{"FID":12,"id":"71be17d1a47943749a774919549c4d34","category":"F013","floor_id":"918d35f85b4c4cef84c6ba5225f954d2","name":" ","source":"2"}},{"type":"Feature","id":13,"geometry":{"type":"Point","coordinates":[139.69856643277211,35.688551355832878]},"properties":{"FID":13,"id":"57621b317e0a4cc1890107396bdc5262","category":"F013","floor_id":"918d35f85b4c4cef84c6ba5225f954d2","name":" ","source":"2"}},{"type":"Feature","id":14,"geometry":{"type":"Point","coordinates":[139.69911901439716,35.688564922869659]},"properties":{"FID":14,"id":"0fea442e1fc0414bae5f24419f92349a","category":"F013","floor_id":"918d35f85b4c4cef84c6ba5225f954d2","name":" ","source":"2"}},{"type":"Feature","id":15,"geometry":{"type":"Point","coordinates":[139.69856485886677,35.688567915410424]},"properties":{"FID":15,"id":"daf46707d731473f8f37ffe6126deab6","category":"F013","floor_id":"918d35f85b4c4cef84c6ba5225f954d2","name":" ","source":"2"}},{"type":"Feature","id":16,"geometry":{"type":"Point","coordinates":[139.69869514673775,35.688609571169359]},"properties":{"FID":16,"id":"60fc403acbb84aa0bb4312dd30271826","category":"F106","floor_id":"918d35f85b4c4cef84c6ba5225f954d2","name":" ","source":"2"}},{"type":"Feature","id":17,"geometry":{"type":"Point","coordinates":[139.69891247796357,35.688615105142652]},"properties":{"FID":17,"id":"b783ecadab084b47aba796b7fee76a5e","category":"F106","floor_id":"918d35f85b4c4cef84c6ba5225f954d2","name":" ","source":"2"}},{"type":"Feature","id":18,"geometry":{"type":"Point","coordinates":[139.69856619619924,35.688590282042291]},"properties":{"FID":18,"id":"4628f7f9b0c34bf19c11df65a759c1cc","category":"F011","floor_id":"918d35f85b4c4cef84c6ba5225f954d2","name":" ","source":"2"}},{"type":"Feature","id":19,"geometry":{"type":"Point","coordinates":[139.69895446273594,35.688655393008013]},"properties":{"FID":19,"id":"b743a60a411a4011952252c04532d7c4","category":"F106","floor_id":"918d35f85b4c4cef84c6ba5225f954d2","name":" ","source":"2"}},{"type":"Feature","id":20,"geometry":{"type":"Point","coordinates":[139.69901808624144,35.688674322172439]},"properties":{"FID":20,"id":"46e718e3f5b749b5ba6c22543f4665bf","category":"F106","floor_id":"918d35f85b4c4cef84c6ba5225f954d2","name":" ","source":"2"}},{"type":"Feature","id":21,"geometry":{"type":"Point","coordinates":[139.69924618746751,35.688642544729838]},"properties":{"FID":21,"id":"529f90fb77f94f3ba9c7a28aaade1dea","category":"F011","floor_id":"918d35f85b4c4cef84c6ba5225f954d2","name":" ","source":"2"}},{"type":"Feature","id":22,"geometry":{"type":"Point","coordinates":[139.69906361342004,35.688688406909911]},"properties":{"FID":22,"id":"d0427a9c4a704ce799bf6864718ab3a3","category":"F106","floor_id":"918d35f85b4c4cef84c6ba5225f954d2","name":" ","source":"2"}},{"type":"Feature","id":23,"geometry":{"type":"Point","coordinates":[139.69926025296834,35.688728608046084]},"properties":{"FID":23,"id":"1c602a35140749d88437b5d04641a694","category":"F011","floor_id":"918d35f85b4c4cef84c6ba5225f954d2","name":" ","source":"2"}},{"type":"Feature","id":24,"geometry":{"type":"Point","coordinates":[139.6987559573295,35.688785109969174]},"properties":{"FID":24,"id":"20c0c98b72384680a84cc02400206cfe","category":"F011","floor_id":"918d35f85b4c4cef84c6ba5225f954d2","name":" ","source":"2"}},{"type":"Feature","id":25,"geometry":{"type":"Point","coordinates":[139.69923076403848,35.688843646900445]},"properties":{"FID":25,"id":"b8981cdcfbe84ed4805cb4058e10133f","category":"F011","floor_id":"918d35f85b4c4cef84c6ba5225f954d2","name":" ","source":"2"}},{"type":"Feature","id":26,"geometry":{"type":"Point","coordinates":[139.69914255160157,35.688926506081273]},"properties":{"FID":26,"id":"b4ce4cd2f1fa4aa7b2a6e4e4684d2f80","category":"F011","floor_id":"918d35f85b4c4cef84c6ba5225f954d2","name":" ","source":"2"}},{"type":"Feature","id":27,"geometry":{"type":"Point","coordinates":[139.69921953174222,35.688890405647662]},"properties":{"FID":27,"id":"df1ee3b033bd42939d8f8365c08259d5","category":"F108","floor_id":"918d35f85b4c4cef84c6ba5225f954d2","name":" ","source":"2"}},{"type":"Feature","id":28,"geometry":{"type":"Point","coordinates":[139.6993680321319,35.686985927088699]},"properties":{"FID":28,"id":"4f85bb75a32b4a7498fbf1bbfe1e6b69","category":"F108","floor_id":"f570ed519db442faa0c85f1a934547e5","name":" ","source":"2"}}]}