{"type":"FeatureCollection","crs":{"type":"name","properties":{"name":"EPSG:6668"}},"features":[{"type":"Feature","id":0,"geometry":{"type":"Point","coordinates":[139.69932331972637,35.687641973395884]},"properties":{"FID":0,"id":"fe504e0d-7e85-460f-a6f1-387b4517343f","category":"F012","floor_id":"8e00d6d1-991a-4a55-a203-20af3cd8639f","name":"","source":"2"}},{"type":"Feature","id":1,"geometry":{"type":"Point","coordinates":[139.6992520021229,35.68790009702338]},"properties":{"FID":1,"id":"72c36c31-442c-41e6-b7c8-272dea09d048","category":"F013","floor_id":"8e00d6d1-991a-4a55-a203-20af3cd8639f","name":"","source":"2"}},{"type":"Feature","id":2,"geometry":{"type":"Point","coordinates":[139.6992168365386,35.687897957643408]},"properties":{"FID":2,"id":"ffbfafaf-fd5b-47bf-86dd-7378e0a17d9d","category":"F013","floor_id":"8e00d6d1-991a-4a55-a203-20af3cd8639f","name":"","source":"2"}},{"type":"Feature","id":3,"geometry":{"type":"Point","coordinates":[139.69923441304692,35.687899037449576]},"properties":{"FID":3,"id":"03152af6-b08d-430b-ae05-490ceea139db","category":"F013","floor_id":"8e00d6d1-991a-4a55-a203-20af3cd8639f","name":"","source":"2"}},{"type":"Feature","id":4,"geometry":{"type":"Point","coordinates":[139.69917298378493,35.688115992646907]},"properties":{"FID":4,"id":"6e82b672-6767-40ef-b3a8-2f04fcc8f42c","category":"F013","floor_id":"8e00d6d1-991a-4a55-a203-20af3cd8639f","name":"","source":"2"}},{"type":"Feature","id":5,"geometry":{"type":"Point","coordinates":[139.69913788011189,35.688114052794319]},"properties":{"FID":5,"id":"1883ba18-1d9d-41f1-a4c6-7af34df4c413","category":"F013","floor_id":"8e00d6d1-991a-4a55-a203-20af3cd8639f","name":"","source":"2"}},{"type":"Feature","id":6,"geometry":{"type":"Point","coordinates":[139.69915539246475,35.688115052581651]},"properties":{"FID":6,"id":"78c50d4f-07a3-453e-9050-7904f39dfae5","category":"F013","floor_id":"8e00d6d1-991a-4a55-a203-20af3cd8639f","name":"","source":"2"}},{"type":"Feature","id":7,"geometry":{"type":"Point","coordinates":[139.69894135289888,35.688887535831682]},"properties":{"FID":7,"id":"4f4237f9-5548-4b17-b690-52fe135eaba9","category":"F013","floor_id":"8e00d6d1-991a-4a55-a203-20af3cd8639f","name":"","source":"2"}},{"type":"Feature","id":8,"geometry":{"type":"Point","coordinates":[139.69892351871223,35.688889084037442]},"properties":{"FID":8,"id":"b2982546-4638-4f50-877e-0022f4393ba2","category":"F013","floor_id":"8e00d6d1-991a-4a55-a203-20af3cd8639f","name":"","source":"2"}},{"type":"Feature","id":9,"geometry":{"type":"Point","coordinates":[139.69890206856337,35.688897158750798]},"properties":{"FID":9,"id":"1ab5cda0-0556-4574-9474-0a011b7d1ea0","category":"F011","floor_id":"8e00d6d1-991a-4a55-a203-20af3cd8639f","name":"","source":"2"}}]}