{"type":"FeatureCollection","crs":{"type":"name","properties":{"name":"EPSG:6668"}},"features":[{"type":"Feature","id":0,"geometry":{"type":"Point","coordinates":[139.69936273553151,35.687034792310271]},"properties":{"FID":0,"id":"9a225ef4ffaa4daa842b1621398e6be3","category":"F012","floor_id":"5cacd61ad7704d8fbc748167c154dbea","name":" ","source":"2"}},{"type":"Feature","id":1,"geometry":{"type":"Point","coordinates":[139.69955807149574,35.687037812751377]},"properties":{"FID":1,"id":"2ff7e6e990d34a8b9ded25d95e078dbe","category":"F013","floor_id":"5cacd61ad7704d8fbc748167c154dbea","name":" ","source":"2"}},{"type":"Feature","id":2,"geometry":{"type":"Point","coordinates":[139.6995476126549,35.687053607204199]},"properties":{"FID":2,"id":"6840afc531034db8aff424776563d589","category":"F011","floor_id":"5cacd61ad7704d8fbc748167c154dbea","name":" ","source":"2"}},{"type":"Feature","id":3,"geometry":{"type":"Point","coordinates":[139.69957489954618,35.687172858521919]},"properties":{"FID":3,"id":"4ccbad5d0cbf45509ed2601a600c871b","category":"F014","floor_id":"5cacd61ad7704d8fbc748167c154dbea","name":" ","source":"2"}},{"type":"Feature","id":4,"geometry":{"type":"Point","coordinates":[139.69953119133476,35.687292821794742]},"properties":{"FID":4,"id":"801cd06cbb4f4af0bfc48a4cf234a9fa","category":"F014","floor_id":"5cacd61ad7704d8fbc748167c154dbea","name":" ","source":"2"}},{"type":"Feature","id":5,"geometry":{"type":"Point","coordinates":[139.69950307068035,35.68736436355902]},"properties":{"FID":5,"id":"240cd4a1ea1b48b9bc4825fd2e696cbb","category":"F014","floor_id":"5cacd61ad7704d8fbc748167c154dbea","name":" ","source":"2"}},{"type":"Feature","id":6,"geometry":{"type":"Point","coordinates":[139.69940050177777,35.687623337246968]},"properties":{"FID":6,"id":"c31584e2c4ed43aa93f03e70cec230d9","category":"F106","floor_id":"5cacd61ad7704d8fbc748167c154dbea","name":" ","source":"2"}},{"type":"Feature","id":7,"geometry":{"type":"Point","coordinates":[139.69932352755819,35.687642692276086]},"properties":{"FID":7,"id":"f0868babce8e48ee85f42a75bed7e938","category":"F012","floor_id":"5cacd61ad7704d8fbc748167c154dbea","name":" ","source":"2"}},{"type":"Feature","id":8,"geometry":{"type":"Point","coordinates":[139.699212918276,35.6880953495697]},"properties":{"FID":8,"id":"2b94f9e4ebb94bc8b63fefc1ffa644a0","category":"F011","floor_id":"5cacd61ad7704d8fbc748167c154dbea","name":" ","source":"2"}},{"type":"Feature","id":9,"geometry":{"type":"Point","coordinates":[139.699235987972,35.688089922985185]},"properties":{"FID":9,"id":"c3c804ac0fc3492bbc054c1ddeb4c185","category":"F013","floor_id":"5cacd61ad7704d8fbc748167c154dbea","name":" ","source":"2"}},{"type":"Feature","id":10,"geometry":{"type":"Point","coordinates":[139.69840382248347,35.68849844176372]},"properties":{"FID":10,"id":"4d909d34354645ed8cdd6ca3e528f892","category":"F011","floor_id":"fe9c7dc46cce4b6f91b3462933690343","name":" ","source":"2"}},{"type":"Feature","id":11,"geometry":{"type":"Point","coordinates":[139.69838152473724,35.688526764870318]},"properties":{"FID":11,"id":"b899272907354a358a07c9a35d2bd467","category":"F011","floor_id":"fe9c7dc46cce4b6f91b3462933690343","name":" ","source":"2"}},{"type":"Feature","id":12,"geometry":{"type":"Point","coordinates":[139.69848893786627,35.68852301161327]},"properties":{"FID":12,"id":"6bee8aadcaa24fa1816e146385867080","category":"F013","floor_id":"fe9c7dc46cce4b6f91b3462933690343","name":" ","source":"2"}},{"type":"Feature","id":13,"geometry":{"type":"Point","coordinates":[139.69848722708628,35.688540267451749]},"properties":{"FID":13,"id":"a385dd7dd80545b0a77a7feda36338d6","category":"F013","floor_id":"fe9c7dc46cce4b6f91b3462933690343","name":" ","source":"2"}},{"type":"Feature","id":14,"geometry":{"type":"Point","coordinates":[139.69848452268744,35.688561766073896]},"properties":{"FID":14,"id":"2deaddc640fe4597a9e53991b1da4ee1","category":"F011","floor_id":"fe9c7dc46cce4b6f91b3462933690343","name":" ","source":"2"}}]}