{"type":"FeatureCollection","crs":{"type":"name","properties":{"name":"EPSG:6668"}},"features":[{"type":"Feature","id":0,"geometry":{"type":"Polygon","coordinates":[[[139.69942685661496,35.686879263607871],[139.69941572458876,35.686894940786004],[139.69941424165378,35.686897029195499],[139.69940663656365,35.686907739402031],[139.69940596992652,35.68690867822324],[139.69940766510987,35.686909422747149],[139.69940618190228,35.686909877812695],[139.69938612830609,35.686916046049397],[139.69938276136668,35.686917081660894],[139.6993557592123,35.686925386927669],[139.69931510986973,35.686906179467265],[139.69930048488106,35.68689927791327],[139.69926042193345,35.686880374542262],[139.69928660555155,35.686843562896584],[139.69928831783687,35.686844364318425],[139.6992960215359,35.686833396910849],[139.69929430814739,35.686832594586505],[139.69930269635216,35.686820677189594],[139.69935203215377,35.686843952800999],[139.69942685661496,35.686879263607871]]]},"properties":{"FID":0,"id":"760b5e4d053149f3b1a757570e2daefd","category":"1","name":"1階","ordinal":"1.0","short_name":" ","source":"2"}},{"type":"Feature","id":1,"geometry":{"type":"Polygon","coordinates":[[[139.69936996916761,35.687040533692773],[139.69937209367311,35.687041059022356],[139.69936839006647,35.687051941608651],[139.69939822145972,35.68705880181917],[139.69940040232621,35.687059280172619],[139.6993997965902,35.687061020040737],[139.69934532961162,35.687048553414279],[139.69934833204832,35.687039864741834],[139.69934513400372,35.687039137044522],[139.69935024775438,35.687024312492483],[139.69935345724332,35.68702504166729],[139.69935588476571,35.687018008123182],[139.69941041439955,35.6870305222753],[139.69940980544882,35.687032271378399],[139.69940762473456,35.687031788301184],[139.69937770019772,35.687024904595106],[139.69937509799226,35.687032337102124],[139.699372975572,35.687031813658898],[139.69936996916761,35.687040533692773]]]},"properties":{"FID":1,"id":"f521c9e601be4434aee84f3c8d901316","category":"1","name":"1階","ordinal":"1.0","short_name":" ","source":"2"}},{"type":"Feature","id":2,"geometry":{"type":"Polygon","coordinates":[[[139.69888965458324,35.688294629850262],[139.69885969176332,35.688353093493411],[139.69882522487302,35.688341362021703],[139.69877104681797,35.688322918595624],[139.69876995444244,35.688322546748495],[139.69872354866379,35.688306538754482],[139.69875336805831,35.688248235492317],[139.69880101472162,35.688264467865366],[139.69878777374581,35.688290356208896],[139.69882425408926,35.688272366384453],[139.69885513073839,35.688282877338892],[139.69888965458324,35.688294629850262]]]},"properties":{"FID":2,"id":"728f2dd21d10464d8a913e3b4cf6001f","category":"1","name":"1階","ordinal":"1.0","short_name":" ","source":"2"}},{"type":"Feature","id":3,"geometry":{"type":"Polygon","coordinates":[[[139.69876601626532,35.688823423699667],[139.69875341188626,35.688908884713207],[139.69875334020603,35.688908874228019],[139.69872148686855,35.688905720445888],[139.69873606435735,35.688806817629256],[139.6987493348245,35.688814195756045],[139.69874796404062,35.688817263388074],[139.69875399519671,35.688812885867222],[139.69875260442834,35.688816011164668],[139.69876601626532,35.688823423699667]]]},"properties":{"FID":3,"id":"fc864b5d0418434087b974400fbf6599","category":"1","name":"1階","ordinal":"1.0","short_name":" ","source":"2"}}]}