{"type":"FeatureCollection","crs":{"type":"name","properties":{"name":"EPSG:6668"}},"features":[{"type":"Feature","id":0,"geometry":{"type":"Polygon","coordinates":[[[139.69916609739258,35.688646058801922],[139.69906935950726,35.688618264280677],[139.6990604568096,35.688615706371863],[139.69905757912048,35.688621992020167],[139.69895227958079,35.688589264765774],[139.69895020382253,35.68858861657349],[139.69892535019977,35.688580838442277],[139.69892294583403,35.688579613500259],[139.69888344488365,35.688566753714049],[139.69882197616016,35.688546473955881],[139.69881550280434,35.688544338264201],[139.69880572372003,35.688564130463881],[139.69874898178915,35.688546167610326],[139.69868988614181,35.688525939688631],[139.69857141759354,35.688483524770859],[139.69858199943599,35.688464202230541],[139.69851533694074,35.688439806636886],[139.69841669603389,35.688403708230815],[139.69843309423692,35.688374474742204],[139.69843449160132,35.688371983624485],[139.69844119833317,35.688360027357369],[139.6985394281925,35.688396806914312],[139.69854081789887,35.688394313478305],[139.69854119709996,35.68839446425482],[139.69854194392474,35.688394628404545],[139.69854271434338,35.688394684261958],[139.69854348494695,35.688394630129935],[139.69854423232124,35.688394467653168],[139.69854493375755,35.688394201768496],[139.69854556794311,35.68839384055466],[139.69854611560848,35.68839339498696],[139.69854656011316,35.688392878603771],[139.69854672529431,35.688392559716867],[139.69854829334113,35.68838979516805],[139.69855341222663,35.68838059610907],[139.69857599602798,35.688340412178235],[139.6986927014029,35.688382580849058],[139.69873689371295,35.688398617864138],[139.69875826358026,35.688405788935704],[139.69875839926198,35.688405835310824],[139.69877317811458,35.688410980150117],[139.69877523297021,35.688411694531766],[139.69877009837469,35.688421753598739],[139.6987784517955,35.688424658026527],[139.69878673684954,35.688427526431767],[139.69881216489725,35.688376788093628],[139.69887083006046,35.688396504193783],[139.69899557317802,35.688351958040514],[139.69902601304301,35.68826422752759],[139.6990260337875,35.688264169786393],[139.6990727239056,35.68813853389517],[139.69908083111565,35.688135432308506],[139.69911516750327,35.688049485304234],[139.6991423786819,35.687981256689838],[139.69916169924082,35.687986035654937],[139.69917483615708,35.687978756408945],[139.6991867017561,35.687946827781658],[139.69920794349764,35.687889668534396],[139.69922227630084,35.687851100455951],[139.69923143932513,35.687826446471327],[139.69923169382304,35.687825761681147],[139.69928664610575,35.687677890062439],[139.69929713871824,35.687649656412489],[139.69931398202297,35.687653822367729],[139.6993149054212,35.6876513401211],[139.69930973900827,35.687650061635104],[139.69931666896721,35.68763141279198],[139.69933683874092,35.687636401792354],[139.69932990878624,35.687655050636636],[139.69932467169031,35.687653754946652],[139.69932374829085,35.687656238094654],[139.69932856129492,35.687657428753774],[139.69928845873486,35.687765338497179],[139.69928202264458,35.68778265926872],[139.69924106203044,35.687892879151271],[139.69923462481324,35.687910200819964],[139.69922496898445,35.687936181970308],[139.69924237890774,35.687940488278954],[139.69923793740003,35.687952440047994],[139.69923313149715,35.687965372915585],[139.69923287401537,35.687966065784082],[139.69923372330334,35.687966275858187],[139.69924858532218,35.687969952070667],[139.69925007079394,35.687970319574688],[139.69925058577152,35.687968933841191],[139.6992350875768,35.687965100178346],[139.69924276895796,35.687944430404478],[139.69925550722743,35.687947581359602],[139.69925833893672,35.687948281272298],[139.69925964746892,35.68794475927416],[139.69928533716185,35.687951113696293],[139.69929885514952,35.687954456605432],[139.69930145677759,35.68795511847857],[139.69925065538402,35.688082493019969],[139.69924405607665,35.688099083052215],[139.69922832593514,35.688138627104976],[139.69922953478391,35.6881411955533],[139.69918407592294,35.688255408876039],[139.69913605828086,35.688383994375137],[139.69911970775735,35.688425909681087],[139.69913813588968,35.688451995445028],[139.69913571753517,35.688453079711081],[139.69911070067482,35.688464911832043],[139.69911225215139,35.688467098754224],[139.69911187924961,35.688466663020122],[139.69911136949295,35.68846624601634],[139.69911077872001,35.688465907562062],[139.6991101248812,35.68846565794108],[139.69910942784304,35.688465504737977],[139.69910870878468,35.688465452607772],[139.69910798955436,35.688465503134381],[139.69910729200549,35.688465654782604],[139.69910663733276,35.688465902944678],[139.6991060454281,35.688466240080345],[139.69910553427619,35.688466655945874],[139.69910511940813,35.688467137905441],[139.69910481342947,35.688467671314932],[139.69910462563726,35.688468239966944],[139.69910456173744,35.688468826583318],[139.69910462367156,35.688469413339988],[139.69910480955781,35.688469982408648],[139.69910511374812,35.688470516498462],[139.69910552699983,35.688470999381344],[139.69910603675652,35.688471416385148],[139.69910662752946,35.688471754839405],[139.69910728136833,35.688472004460458],[139.69910797840654,35.688472157663568],[139.69910869746494,35.688472209793787],[139.69910941669534,35.688472159267164],[139.69911011424423,35.688472007618934],[139.69911032458793,35.688471936675981],[139.69911887667689,35.688484082269632],[139.69910021971722,35.688527633691351],[139.69909848380831,35.688531679808193],[139.69914581958386,35.688544459922838],[139.69913001916987,35.688581152403444],[139.6991250911266,35.688592542028395],[139.69907626462862,35.688578574040363],[139.6990754003792,35.688580693098622],[139.69908440716929,35.688583280463277],[139.69918118228685,35.688611080826632],[139.69916609739258,35.688646058801922]]]},"properties":{"FID":0,"id":"63df68d1c60e42f3b2fab3161e030808","category":"１","name":"地下3階","ordinal":"-3.0","short_name":" ","source":"2"}},{"type":"Feature","id":1,"geometry":{"type":"Polygon","coordinates":[[[139.69892496782873,35.688661632172042],[139.69892105958982,35.688685123954343],[139.69891298061694,35.688731606627044],[139.69888982368684,35.688864827641275],[139.69887054690955,35.688862619805349],[139.69886921104461,35.688862466804025],[139.6988537978975,35.68886070258479],[139.69885184249452,35.68886047735657],[139.69884980132261,35.688860244625083],[139.69883453361376,35.688858495069525],[139.69885304614851,35.688751898097294],[139.69884645278816,35.688751091346816],[139.69885398274121,35.688707997922343],[139.69884984011182,35.688701678297164],[139.6987054027596,35.688653658625569],[139.69867826239224,35.688644550575319],[139.6986179702883,35.688624215820077],[139.69850732668124,35.688584240590487],[139.69842223684691,35.688552718477304],[139.69836407558884,35.688531172191119],[139.69832963316264,35.688518412710188],[139.69835938842022,35.688465375782144],[139.69839380617347,35.688478108415296],[139.69843019607396,35.688491570655728],[139.69841505153627,35.688501083185287],[139.69841196250562,35.688498995756063],[139.69841506483672,35.688504995145692],[139.69841195582111,35.688502965381765],[139.69839845884837,35.688511418712466],[139.69843520304275,35.688525044841171],[139.69844074164945,35.68851512917724],[139.69846731105014,35.688525357044355],[139.69847669668201,35.68850877322425],[139.69847856775115,35.68850946588325],[139.69864500458687,35.688569560857104],[139.69873218365822,35.688600517661271],[139.69886341950939,35.688644136490012],[139.69886712811257,35.688643099550148],[139.69892496782873,35.688661632172042]]]},"properties":{"FID":1,"id":"220cccd00be94faeb8f84cb191130c76","category":"１","name":"地下3階","ordinal":"-3.0","short_name":" ","source":"2"}}]}