{"type":"FeatureCollection","crs":{"type":"name","properties":{"name":"EPSG:6668"}},"features":[{"type":"Feature","id":0,"geometry":{"type":"Polygon","coordinates":[[[139.6993700814449,35.687041230747724],[139.69936931496218,35.687043402470394],[139.69935164906863,35.687039295725526],[139.69935611910523,35.687026203791632],[139.699373826705,35.687030262173465],[139.69937274390989,35.687033441365266],[139.69937242205287,35.687034308125234],[139.6993700814449,35.687041230747724]]]},"properties":{"FID":0,"id":"bde84aaa74d84a209ccd153fe0404f17","category":"B022","floor_id":"5cacd61ad7704d8fbc748167c154dbea","name":" ","restricted":"2","suite":" ","nonpublic":"2","toll":"3","source":"2"}},{"type":"Feature","id":1,"geometry":{"type":"Polygon","coordinates":[[[139.69936931496218,35.687043402470394],[139.69936715518494,35.687049521899745],[139.69934678613174,35.687044862583811],[139.69934807355654,35.68704139824834],[139.6993448884717,35.687040610511488],[139.69934998442577,35.687025857147873],[139.69935321168586,35.687026530457537],[139.69935493077861,35.687021280988091],[139.69937527873614,35.687025998868243],[139.699373826705,35.687030262173465],[139.69935611910523,35.687026203791632],[139.69935164906863,35.687039295725526],[139.69936931496218,35.687043402470394]]]},"properties":{"FID":1,"id":"93c01472a41a43eabf6402cd73da01de","category":"B019","floor_id":"5cacd61ad7704d8fbc748167c154dbea","name":" ","restricted":"1","suite":" ","nonpublic":"2","toll":"1","source":"2"}},{"type":"Feature","id":2,"geometry":{"type":"Polygon","coordinates":[[[139.69960650073821,35.687041478242378],[139.69960150343979,35.687055431941701],[139.69951279761614,35.687034984828749],[139.69951116902433,35.687019643579262],[139.69960650073821,35.687041478242378]]]},"properties":{"FID":2,"id":"14d59fde448a4e28ae5fdafc03a26f39","category":"B023","floor_id":"5cacd61ad7704d8fbc748167c154dbea","name":" ","restricted":"2","suite":" ","nonpublic":"2","toll":"3","source":"2"}},{"type":"Feature","id":3,"geometry":{"type":"Polygon","coordinates":[[[139.6996027110325,35.687055710297983],[139.6996021686667,35.687056963501441],[139.69958429310944,35.687052869196265],[139.69951215444524,35.687036370100536],[139.69951292117537,35.687036149942735],[139.69951279761614,35.687034984828749],[139.69960150343979,35.687055431941701],[139.6996027110325,35.687055710297983]]]},"properties":{"FID":3,"id":"9541ab828d4146fcb47df4c89cb89395","category":"B019","floor_id":"5cacd61ad7704d8fbc748167c154dbea","name":" ","restricted":"1","suite":" ","nonpublic":"2","toll":"1","source":"2"}},{"type":"Feature","id":4,"geometry":{"type":"Polygon","coordinates":[[[139.69958429310944,35.687052869196265],[139.69957834003606,35.687070133769957],[139.69951481685652,35.687055594184734],[139.69951483555249,35.6870555369374],[139.69951319311784,35.687039369037855],[139.69951699340879,35.687038291617853],[139.699509028009,35.687037267821012],[139.69951215444524,35.687036370100536],[139.69958429310944,35.687052869196265]]]},"properties":{"FID":4,"id":"6c8f46bef0b04f828e15bb69ac84eaa0","category":"B021","floor_id":"5cacd61ad7704d8fbc748167c154dbea","name":" ","restricted":"2","suite":" ","nonpublic":"2","toll":"3","source":"2"}},{"type":"Feature","id":5,"geometry":{"type":"Polygon","coordinates":[[[139.69957969440031,35.687070443763616],[139.69957679555961,35.687078868353957],[139.69956656087837,35.687076462943331],[139.69956835063874,35.687071231576788],[139.69951209858687,35.687058326339887],[139.69951242044095,35.687057460480922],[139.69951306414913,35.687055728762999],[139.6995146654628,35.687056095687076],[139.69951481685652,35.687055594184734],[139.69957834003606,35.687070133769957],[139.69957969440031,35.687070443763616]]]},"properties":{"FID":5,"id":"c4764321f2d441b6b2974220e7379ac9","category":"B019","floor_id":"5cacd61ad7704d8fbc748167c154dbea","name":" ","restricted":"1","suite":" ","nonpublic":"2","toll":"1","source":"2"}},{"type":"Feature","id":6,"geometry":{"type":"Polygon","coordinates":[[[139.69965566950293,35.687052733298692],[139.69962251361213,35.687140439908703],[139.6995578287343,35.687124423344343],[139.69956848789116,35.68709623123064],[139.69956023671122,35.687094315664602],[139.69953880520401,35.687089392901889],[139.69950711903414,35.687082123286515],[139.6995087578625,35.687077296468296],[139.69945889597201,35.68706590990741],[139.69945768033844,35.68706939144991],[139.69942302114342,35.68706138569236],[139.69942416720124,35.687057886946789],[139.6994113425022,35.687054966663808],[139.69941012576191,35.687058448204603],[139.6993706832146,35.687049386113209],[139.69937319584952,35.687042000377872],[139.6993700814449,35.687041230747724],[139.69937242205287,35.687034308125234],[139.69937562822787,35.687035037295779],[139.69937816305389,35.687027594798685],[139.69939681244975,35.687031892549477],[139.69941503665547,35.687036084364102],[139.69945235654572,35.68704462218718],[139.69946303639691,35.687047074973776],[139.69950141873113,35.687055874458991],[139.69951209858687,35.687058326339887],[139.69956835063874,35.687071231576788],[139.69956656087837,35.687076462943331],[139.69957679555961,35.687078868353957],[139.69957969440031,35.687070443763616],[139.69957834003606,35.687070133769957],[139.69958429310944,35.687052869196265],[139.6996021686667,35.687056963501441],[139.6996027110325,35.687055710297983],[139.69960150343979,35.687055431941701],[139.69960650073821,35.687041478242378],[139.69965566950293,35.687052733298692]]]},"properties":{"FID":6,"id":"1f7db174319e4f388f17d8ac2436b59b","category":"B029","floor_id":"5cacd61ad7704d8fbc748167c154dbea","name":" ","restricted":"2","suite":" ","nonpublic":"2","toll":"3","source":"2"}},{"type":"Feature","id":7,"geometry":{"type":"Polygon","coordinates":[[[139.69962251361213,35.687140439908703],[139.69959194180802,35.687221310706484],[139.69952937917299,35.687205836617423],[139.69952944405907,35.687205662852804],[139.69952790073864,35.687203578972479],[139.6995578287343,35.687124423344343],[139.69962251361213,35.687140439908703]]]},"properties":{"FID":7,"id":"20f7ea3089d049b9be81ae88364b46fe","category":"B025","floor_id":"5cacd61ad7704d8fbc748167c154dbea","name":" ","restricted":"2","suite":" ","nonpublic":"2","toll":"3","source":"2"}},{"type":"Feature","id":8,"geometry":{"type":"Polygon","coordinates":[[[139.69958709180975,35.687234359834051],[139.69957663229516,35.687262505565066],[139.69951403230499,35.687246928552881],[139.69951450367608,35.687245657165782],[139.69952094077749,35.687228336381274],[139.69952937917299,35.687205836617423],[139.69959194180802,35.687221310706484],[139.69958709180975,35.687234359834051]]]},"properties":{"FID":8,"id":"aac3f80218434a2e9c2f6090d161c8f6","category":"B029","floor_id":"5cacd61ad7704d8fbc748167c154dbea","name":" ","restricted":"2","suite":" ","nonpublic":"2","toll":"3","source":"2"}},{"type":"Feature","id":9,"geometry":{"type":"Polygon","coordinates":[[[139.69957663229516,35.687262505565066],[139.69954830839245,35.687338722854669],[139.69948578039799,35.687323158365992],[139.69951403230499,35.687246928552881],[139.69957663229516,35.687262505565066]]]},"properties":{"FID":9,"id":"52d389df913645f9b24748eb893b250b","category":"B025","floor_id":"5cacd61ad7704d8fbc748167c154dbea","name":" ","restricted":"2","suite":" ","nonpublic":"2","toll":"3","source":"2"}},{"type":"Feature","id":10,"geometry":{"type":"Polygon","coordinates":[[[139.69953753210893,35.687360860736952],[139.69953730619696,35.687361438066716],[139.69947709060861,35.687346542041858],[139.69947784174974,35.687344521048523],[139.69948556629052,35.687323735929532],[139.69948578039799,35.687323158365992],[139.69954830839245,35.687338722854669],[139.69954115423891,35.687357974068426],[139.69953753210893,35.687360860736952]]]},"properties":{"FID":10,"id":"17d364bd75454ef987d46a0727ae5103","category":"B029","floor_id":"5cacd61ad7704d8fbc748167c154dbea","name":" ","restricted":"2","suite":" ","nonpublic":"2","toll":"3","source":"2"}},{"type":"Feature","id":11,"geometry":{"type":"Polygon","coordinates":[[[139.69953730619696,35.687361438066716],[139.6995292014642,35.687382150126908],[139.69946812489064,35.687367082878588],[139.69947305719211,35.687357396307689],[139.69947709060861,35.687346542041858],[139.69953730619696,35.687361438066716]]]},"properties":{"FID":11,"id":"c3e66ce56ba84ca78a766811c9fe990b","category":"B025","floor_id":"5cacd61ad7704d8fbc748167c154dbea","name":" ","restricted":"2","suite":" ","nonpublic":"2","toll":"3","source":"2"}},{"type":"Feature","id":12,"geometry":{"type":"Polygon","coordinates":[[[139.69938331421608,35.687610323694884],[139.69938065394678,35.687617482133561],[139.69937322239647,35.687615644083237],[139.69937588266635,35.687608485644716],[139.69938331421608,35.687610323694884]]]},"properties":{"FID":12,"id":"645c1c778b744377baf78dcd8497c4e0","category":"B029","floor_id":"5cacd61ad7704d8fbc748167c154dbea","name":" ","restricted":"2","suite":" ","nonpublic":"2","toll":"2","source":"2"}},{"type":"Feature","id":13,"geometry":{"type":"Polygon","coordinates":[[[139.69938065394678,35.687617482133561],[139.69938033191437,35.687618348850634],[139.69937290037367,35.687616510802698],[139.69937322239647,35.687615644083237],[139.69938065394678,35.687617482133561]]]},"properties":{"FID":13,"id":"9d0169deff1c49e397e3fd2419ff6488","category":"B019","floor_id":"5cacd61ad7704d8fbc748167c154dbea","name":" ","restricted":"1","suite":" ","nonpublic":"2","toll":"1","source":"2"}},{"type":"Feature","id":14,"geometry":{"type":"Polygon","coordinates":[[[139.69945601298838,35.687566080588397],[139.69943343472534,35.687622632665573],[139.69942365376528,35.687620300768607],[139.69942209655147,35.687619915954201],[139.6994150901497,35.687618182644272],[139.69941360400531,35.687617814966849],[139.69941204681803,35.687617429713157],[139.69941197687567,35.687617412409168],[139.69940511188477,35.687615714703419],[139.69940348391424,35.687615311987017],[139.69940192677655,35.687614926968088],[139.69939499110365,35.687613212057101],[139.69939343384897,35.687612826455585],[139.69939194846543,35.687612458732069],[139.69938494211198,35.687610725714457],[139.69938331421608,35.687610323694884],[139.69937588266635,35.687608485644716],[139.6993748213321,35.68760822306642],[139.69936107833959,35.687605070000863],[139.69936148403551,35.687603978129751],[139.69936296444274,35.687599994785614],[139.69936553930879,35.687593066115021],[139.69938401395714,35.687543354479004],[139.69938658771471,35.687536425806648],[139.69938738236849,35.687534288640926],[139.69938995722882,35.687527360871094],[139.69939366858182,35.687517373312772],[139.69939665186749,35.687509346325662],[139.69939678060976,35.68750900034275],[139.6994099440123,35.687512256313596],[139.69941329132911,35.687503249040368],[139.69942722584383,35.687468869158678],[139.69943042301287,35.687460267258039],[139.69943044560944,35.687460209091874],[139.69943692682847,35.68744422296934],[139.69944392941824,35.687427041629498],[139.69944749092923,35.687417457716506],[139.69946127884464,35.687382852324802],[139.69946447540954,35.687374250547499],[139.69946450067667,35.687374193042317],[139.69946812489064,35.687367082878588],[139.6995292014642,35.687382150126908],[139.69952831026717,35.687384427625915],[139.69950795713831,35.687436700853787],[139.69950793438807,35.687436758076032],[139.69949421515878,35.687470560708746],[139.69949032022444,35.687480000033133],[139.69947327482285,35.687522751092665],[139.69945976546273,35.687556605953397],[139.69945601298838,35.687566080588397]]]},"properties":{"FID":14,"id":"d9d27192d76e4c82bccdf9d03697636d","category":"B029","floor_id":"5cacd61ad7704d8fbc748167c154dbea","name":" ","restricted":"2","suite":" ","nonpublic":"2","toll":"3","source":"2"}},{"type":"Feature","id":15,"geometry":{"type":"Polygon","coordinates":[[[139.69937290037367,35.687616510802698],[139.69936991830002,35.687624535113166],[139.69936885696555,35.687624272534833],[139.6993748213321,35.68760822306642],[139.69937588266635,35.687608485644716],[139.69937322239647,35.687615644083237],[139.69937290037367,35.687616510802698]]]},"properties":{"FID":15,"id":"ef5143284960448eae8b61d4270a15cd","category":"B019","floor_id":"5cacd61ad7704d8fbc748167c154dbea","name":" ","restricted":"1","suite":" ","nonpublic":"2","toll":"1","source":"2"}},{"type":"Feature","id":16,"geometry":{"type":"Polygon","coordinates":[[[139.69938043809358,35.687624300744645],[139.69937897664087,35.687626776083491],[139.69937734985109,35.687626373163702],[139.69938033191437,35.687618348850634],[139.69938065394678,35.687617482133561],[139.69938331421608,35.687610323694884],[139.69938494211198,35.687610725714457],[139.69938440062907,35.687613429222218],[139.69938043809358,35.687624300744645]]]},"properties":{"FID":16,"id":"78a094f9fa584153ac9ae45447b66ddf","category":"B019","floor_id":"5cacd61ad7704d8fbc748167c154dbea","name":" ","restricted":"1","suite":" ","nonpublic":"2","toll":"1","source":"2"}},{"type":"Feature","id":17,"geometry":{"type":"Polygon","coordinates":[[[139.69939343384897,35.687612826455585],[139.69938746957595,35.687628876579709],[139.6993857709497,35.68762845658604],[139.69938631243269,35.687625753078329],[139.69939036673867,35.687614841096128],[139.69939194846543,35.687612458732069],[139.69939343384897,35.687612826455585]]]},"properties":{"FID":17,"id":"f87c76ec9a5647f39f199ee8730fbb70","category":"B019","floor_id":"5cacd61ad7704d8fbc748167c154dbea","name":" ","restricted":"1","suite":" ","nonpublic":"2","toll":"1","source":"2"}},{"type":"Feature","id":18,"geometry":{"type":"Polygon","coordinates":[[[139.69939055777078,35.687626803390955],[139.69938902674076,35.687629261526489],[139.69938746957595,35.687628876579709],[139.69939343384897,35.687612826455585],[139.69939499110365,35.687613212057101],[139.69939459209087,35.687615949975473],[139.69939055777078,35.687626803390955]]]},"properties":{"FID":18,"id":"7d0d5b31388e42d5bf7ff1b26dd85008","category":"B019","floor_id":"5cacd61ad7704d8fbc748167c154dbea","name":" ","restricted":"1","suite":" ","nonpublic":"2","toll":"1","source":"2"}},{"type":"Feature","id":19,"geometry":{"type":"Polygon","coordinates":[[[139.69940348391424,35.687615311987017],[139.6993975195262,35.687631362426018],[139.69939596241343,35.687630977339182],[139.69939636142624,35.68762823942081],[139.69940039574709,35.687617385103749],[139.69940192677655,35.687614926968088],[139.69940348391424,35.687615311987017]]]},"properties":{"FID":19,"id":"22fcc58896b64298a4bf676e9d8713da","category":"B019","floor_id":"5cacd61ad7704d8fbc748167c154dbea","name":" ","restricted":"1","suite":" ","nonpublic":"2","toll":"1","source":"2"}},{"type":"Feature","id":20,"geometry":{"type":"Polygon","coordinates":[[[139.69940060786953,35.68762928973436],[139.69939914641736,35.687631765073426],[139.6993975195262,35.687631362426018],[139.69940348391424,35.687615311987017],[139.69940511188477,35.687615714703419],[139.69940464108498,35.687618435415921],[139.69940060786953,35.68762928973436]]]},"properties":{"FID":20,"id":"ce2436fb1e074a74b12071b7d968ac82","category":"B019","floor_id":"5cacd61ad7704d8fbc748167c154dbea","name":" ","restricted":"1","suite":" ","nonpublic":"2","toll":"1","source":"2"}},{"type":"Feature","id":21,"geometry":{"type":"Polygon","coordinates":[[[139.69941360400531,35.687617814966849],[139.69940763938584,35.687633865481281],[139.6994060125144,35.687633462780767],[139.69940648220933,35.687630742067014],[139.69941053761769,35.687619830085431],[139.69941204681803,35.687617429713157],[139.69941360400531,35.687617814966849]]]},"properties":{"FID":21,"id":"c8fb7b28e0f8411f9ee8c332768c8e20","category":"B019","floor_id":"5cacd61ad7704d8fbc748167c154dbea","name":" ","restricted":"1","suite":" ","nonpublic":"2","toll":"1","source":"2"}},{"type":"Feature","id":22,"geometry":{"type":"Polygon","coordinates":[[[139.69941072865285,35.687631792380202],[139.69940912583596,35.687634233310092],[139.69940763938584,35.687633865481281],[139.69941360400531,35.687617814966849],[139.6994150901497,35.687618182644272],[139.6994147618656,35.687620938962802],[139.69941072865285,35.687631792380202]]]},"properties":{"FID":22,"id":"f63d43945a5041658578c24aab7f007f","category":"B019","floor_id":"5cacd61ad7704d8fbc748167c154dbea","name":" ","restricted":"1","suite":" ","nonpublic":"2","toll":"1","source":"2"}},{"type":"Feature","id":23,"geometry":{"type":"Polygon","coordinates":[[[139.69942365376528,35.687620300768607],[139.69941768940612,35.687636351140775],[139.69941606151104,35.687635948220283],[139.69941646052317,35.687633210301826],[139.69942056552256,35.687622374090139],[139.69942209655147,35.687619915954201],[139.69942365376528,35.687620300768607]]]},"properties":{"FID":23,"id":"3593253995c041c0a5cce94a64fd63c4","category":"B019","floor_id":"5cacd61ad7704d8fbc748167c154dbea","name":" ","restricted":"1","suite":" ","nonpublic":"2","toll":"1","source":"2"}},{"type":"Feature","id":24,"geometry":{"type":"Polygon","coordinates":[[[139.69935030541785,35.687634058796313],[139.69934929680687,35.687636772661442],[139.6993250216054,35.687630768571829],[139.69933720905104,35.687597974094018],[139.69935617612012,35.68760266520178],[139.69936148403551,35.687603978129751],[139.69936107833959,35.687605070000863],[139.69935223656987,35.687628861842917],[139.69935030541785,35.687634058796313]]]},"properties":{"FID":24,"id":"7c505046c78b4fffa87e94f90ee22826","category":"B026","floor_id":"5cacd61ad7704d8fbc748167c154dbea","name":" ","restricted":"1","suite":" ","nonpublic":"2","toll":"1","source":"2"}},{"type":"Feature","id":25,"geometry":{"type":"Polygon","coordinates":[[[139.69933683874089,35.687636401792346],[139.69933031500008,35.687653954121416],[139.69932550309952,35.687652764364984],[139.6993245279821,35.687652523166776],[139.69931586212326,35.687650379640246],[139.69931488754335,35.687650138574874],[139.69931021700819,35.687648983227277],[139.69931673964967,35.687631429996685],[139.69933683874089,35.687636401792346]]]},"properties":{"FID":25,"id":"a0f340105d3145a3a05e87cef96a3106","category":"B022","floor_id":"5cacd61ad7704d8fbc748167c154dbea","name":" ","restricted":"2","suite":" ","nonpublic":"2","toll":"2","source":"2"}},{"type":"Feature","id":26,"geometry":{"type":"Polygon","coordinates":[[[139.69934929680687,35.687636772661442],[139.69934090825197,35.687659347091483],[139.6993241345223,35.687655198343549],[139.6993245279821,35.687652523166776],[139.69932550309952,35.687652764364984],[139.69933031500008,35.687653954121416],[139.69933683874089,35.687636401792346],[139.69931673964967,35.687631429996685],[139.69931021700819,35.687648983227277],[139.69931488754335,35.687650138574874],[139.69931586212326,35.687650379640246],[139.69931436825303,35.687652783517969],[139.69930807102227,35.687651222032741],[139.69930657456484,35.687650848791286],[139.69931484396963,35.68762862913232],[139.69932489296286,35.687631114579439],[139.6993250216054,35.687630768571829],[139.69934929680687,35.687636772661442]]]},"properties":{"FID":26,"id":"d4523859711343eb8d35ee32580fb7ed","category":"B019","floor_id":"5cacd61ad7704d8fbc748167c154dbea","name":" ","restricted":"1","suite":" ","nonpublic":"2","toll":"1","source":"2"}},{"type":"Feature","id":27,"geometry":{"type":"Polygon","coordinates":[[[139.69932002290196,35.687716970497981],[139.6993194127065,35.687718524908341],[139.69927493800211,35.68770752398833],[139.69927236312446,35.687714452656806],[139.69926203028896,35.687711897483773],[139.69926521097426,35.687703406865829],[139.69929059304712,35.687709689467709],[139.69932002290196,35.687716970497981]]]},"properties":{"FID":27,"id":"2e3d77232d8a46a0bf616a25d667526d","category":"B019","floor_id":"5cacd61ad7704d8fbc748167c154dbea","name":" ","restricted":"1","suite":" ","nonpublic":"2","toll":"1","source":"2"}},{"type":"Feature","id":28,"geometry":{"type":"Polygon","coordinates":[[[139.69934239584649,35.687722506846306],[139.6992971657055,35.687844217169314],[139.69929674054558,35.687844112035201],[139.69929567919903,35.687843849481638],[139.69929525507774,35.687843744526909],[139.69930514616809,35.687817127265191],[139.69929665326427,35.687815026631249],[139.69929980749032,35.687806539237172],[139.69930830039334,35.687808639870902],[139.69932123914666,35.687773824434409],[139.69931274624702,35.687771723801589],[139.69931590046966,35.687763236407022],[139.69932439336853,35.687765337039615],[139.69933733100297,35.687730521599896],[139.69932883810745,35.687728420968227],[139.69933198166828,35.687719929782546],[139.69934239584649,35.687722506846306]]]},"properties":{"FID":28,"id":"e0f27bde0ff64405bdc1a577c28a0e3d","category":"B019","floor_id":"5cacd61ad7704d8fbc748167c154dbea","name":" ","restricted":"1","suite":" ","nonpublic":"2","toll":"1","source":"2"}},{"type":"Feature","id":29,"geometry":{"type":"Polygon","coordinates":[[[139.69928371559843,35.687849842066043],[139.69928257798998,35.68785290275337],[139.69924959922869,35.68784474558484],[139.6992261736101,35.687838951625167],[139.69922731011562,35.687835890937137],[139.69921690658478,35.687833317654082],[139.69921577007895,35.687836378342013],[139.69918825976782,35.68782963153317],[139.69924078848311,35.687697816261917],[139.69926521097426,35.687703406865829],[139.69926203028896,35.687711897483773],[139.69927236312446,35.687714452656806],[139.69927493800211,35.68770752398833],[139.6993194127065,35.687718524908341],[139.69932002290196,35.687716970497981],[139.69933198166828,35.687719929782546],[139.69932883810745,35.687728420968227],[139.69933733100297,35.687730521599896],[139.69932439336853,35.687765337039615],[139.69931590046966,35.687763236407022],[139.69931274624702,35.687771723801589],[139.69932123914666,35.687773824434409],[139.69930830039334,35.687808639870902],[139.69929980749032,35.687806539237172],[139.69929665326427,35.687815026631249],[139.69930514616809,35.687817127265191],[139.69929525507774,35.687843744526909],[139.69929567919903,35.687843849481638],[139.69929674054558,35.687844112035201],[139.6992971657055,35.687844217169314],[139.6992942689657,35.687852011696378],[139.69929384484251,35.687851906746708],[139.69929278245911,35.687851644008674],[139.69929235833777,35.687851539053931],[139.69929220850554,35.687851942700881],[139.69928371559843,35.687849842066043]]]},"properties":{"FID":29,"id":"85b847d1976941b287161906c1695e77","category":"B018","floor_id":"5cacd61ad7704d8fbc748167c154dbea","name":" ","restricted":"2","suite":" ","nonpublic":"2","toll":"2","source":"2"}},{"type":"Feature","id":30,"geometry":{"type":"Polygon","coordinates":[[[139.69924366178893,35.688041423319866],[139.699236173114,35.68806157402036],[139.69921656941904,35.68805672552395],[139.69922060346505,35.688045871134442],[139.69921847968109,35.688045345973904],[139.69921570981879,35.688052798724584],[139.69920751769575,35.688050777531814],[139.69923585737075,35.687974521253906],[139.69923641127255,35.687972811584636],[139.6992506901621,35.687969275576641],[139.6992942689657,35.687852011696378],[139.6992971657055,35.687844217169314],[139.69934239584649,35.687722506846306],[139.69933198166828,35.687719929782546],[139.69932002290196,35.687716970497981],[139.69929059304712,35.687709689467709],[139.69930417276129,35.68767314673677],[139.69930028083283,35.687672183346066],[139.69930807102227,35.687651222032741],[139.69931436825303,35.687652783517969],[139.69931586212326,35.687650379640246],[139.6993245279821,35.687652523166776],[139.6993241345223,35.687655198343549],[139.69934090825197,35.687659347091483],[139.69934929680687,35.687636772661442],[139.69935030541785,35.687634058796313],[139.69935223656987,35.687628861842917],[139.69936107833959,35.687605070000863],[139.6993748213321,35.68760822306642],[139.69936885696555,35.687624272534833],[139.69936991830002,35.687624535113166],[139.69937290037367,35.687616510802698],[139.69938033191437,35.687618348850634],[139.69937734985109,35.687626373163702],[139.69937897664087,35.687626776083491],[139.69938043809358,35.687624300744645],[139.69938440062907,35.687613429222218],[139.69938494211198,35.687610725714457],[139.69939194846543,35.687612458732069],[139.69939036673867,35.687614841096128],[139.69938631243269,35.687625753078329],[139.6993857709497,35.68762845658604],[139.69938746957595,35.687628876579709],[139.69938902674076,35.687629261526489],[139.69939055777078,35.687626803390955],[139.69939459209087,35.687615949975473],[139.69939499110365,35.687613212057101],[139.69940192677655,35.687614926968088],[139.69940039574709,35.687617385103749],[139.69939636142624,35.68762823942081],[139.69939596241343,35.687630977339182],[139.6993975195262,35.687631362426018],[139.69939914641736,35.687631765073426],[139.69940060786953,35.68762928973436],[139.69940464108498,35.687618435415921],[139.69940511188477,35.687615714703419],[139.69941197687567,35.687617412409168],[139.69941204681803,35.687617429713157],[139.69941053761769,35.687619830085431],[139.69940648220933,35.687630742067014],[139.6994060125144,35.687633462780767],[139.69940763938584,35.687633865481281],[139.69940912583596,35.687634233310092],[139.69941072865285,35.687631792380202],[139.6994147618656,35.687620938962802],[139.6994150901497,35.687618182644272],[139.69942209655147,35.687619915954201],[139.69942056552256,35.687622374090139],[139.69941646052317,35.687633210301826],[139.69941606151104,35.687635948220283],[139.69941768940612,35.687636351140775],[139.69942365376528,35.687620300768607],[139.69943343472534,35.687622632665573],[139.69942474376344,35.68764440101134],[139.69940830392963,35.687685726766574],[139.69938746156228,35.68773806777137],[139.69937328212018,35.687773520004697],[139.69933897463179,35.687859600521818],[139.6993218203074,35.687902640775597],[139.69928744202522,35.687988704071266],[139.69926914372434,35.688034613906296],[139.69927011960459,35.688035106239674],[139.69926536214629,35.688038344071025],[139.69926227443989,35.688046027515895],[139.69926168839149,35.688045882462902],[139.69926065314249,35.68804562622816],[139.69924472264893,35.688041685746711],[139.69924366178893,35.688041423319866]]]},"properties":{"FID":30,"id":"0346988f44d94ad0bbb8e3c9735f1741","category":"B029","floor_id":"5cacd61ad7704d8fbc748167c154dbea","name":" ","restricted":"2","suite":" ","nonpublic":"2","toll":"2","source":"2"}},{"type":"Feature","id":31,"geometry":{"type":"Polygon","coordinates":[[[139.699236173114,35.68806157402036],[139.69920926537947,35.68813397485772],[139.6991896640798,35.688129126751804],[139.69921656941904,35.68805672552395],[139.699236173114,35.68806157402036]]]},"properties":{"FID":31,"id":"db820631efe747169eae4e2a3c584807","category":"B021","floor_id":"5cacd61ad7704d8fbc748167c154dbea","name":" ","restricted":"2","suite":" ","nonpublic":"2","toll":"2","source":"2"}},{"type":"Feature","id":32,"geometry":{"type":"Polygon","coordinates":[[[139.69924472264893,35.688041685746711],[139.69921032913913,35.688134237963602],[139.69920926537947,35.68813397485772],[139.699236173114,35.68806157402036],[139.69924366178893,35.688041423319866],[139.69924472264893,35.688041685746711]]]},"properties":{"FID":32,"id":"e2519da1ba3644f1b2dd5fb6e95506cc","category":"B019","floor_id":"5cacd61ad7704d8fbc748167c154dbea","name":" ","restricted":"1","suite":" ","nonpublic":"2","toll":"1","source":"2"}},{"type":"Feature","id":33,"geometry":{"type":"Polygon","coordinates":[[[139.69926168839149,35.688045882462902],[139.69922703135376,35.688138369018439],[139.69921032913913,35.688134237963602],[139.69924472264893,35.688041685746711],[139.69926065314249,35.68804562622816],[139.69926168839149,35.688045882462902]]]},"properties":{"FID":33,"id":"2ec5320624c0409faf800c3cca56498d","category":"B023","floor_id":"5cacd61ad7704d8fbc748167c154dbea","name":" ","restricted":"2","suite":" ","nonpublic":"2","toll":"2","source":"2"}},{"type":"Feature","id":34,"geometry":{"type":"Polygon","coordinates":[[[139.69842854099403,35.688492641272177],[139.69841462806392,35.688517409918617],[139.69837910345277,35.688504235874092],[139.69839300966729,35.688479480082407],[139.69841516249105,35.688487682642794],[139.69842854099403,35.688492641272177]]]},"properties":{"FID":34,"id":"82886b5723f34e11ba8ed59cd154eec0","category":"B021","floor_id":"fe9c7dc46cce4b6f91b3462933690343","name":" ","restricted":"2","suite":" ","nonpublic":"2","toll":"2","source":"2"}},{"type":"Feature","id":35,"geometry":{"type":"Polygon","coordinates":[[[139.69838416861919,35.688508121303194],[139.69837051868058,35.688532581571252],[139.69833076104621,35.688517872251644],[139.69835925643577,35.68846698220996],[139.69839300966729,35.688479480082407],[139.69837910345277,35.688504235874092],[139.69837856026965,35.688504035733544],[139.69837763268976,35.688505697721254],[139.69838416861919,35.688508121303194]]]},"properties":{"FID":35,"id":"8798abb055624f86970f26939ba3d01b","category":"B029","floor_id":"fe9c7dc46cce4b6f91b3462933690343","name":" ","restricted":"2","suite":" ","nonpublic":"2","toll":"2","source":"2"}},{"type":"Feature","id":36,"geometry":{"type":"Polygon","coordinates":[[[139.69838713477381,35.688524629029025],[139.69838979488296,35.688539714929632],[139.69837051868058,35.688532581571252],[139.69838416861919,35.688508121303194],[139.69838621213719,35.688519419879377],[139.69839082897334,35.688519680142136],[139.69838153358469,35.688524314481825],[139.69838713477381,35.688524629029025]]]},"properties":{"FID":36,"id":"6f5b462490d747d18850ed0c72a6e5dd","category":"B021","floor_id":"fe9c7dc46cce4b6f91b3462933690343","name":" ","restricted":"2","suite":" ","nonpublic":"2","toll":"2","source":"2"}},{"type":"Feature","id":37,"geometry":{"type":"Polygon","coordinates":[[[139.69851609776887,35.688525134151952],[139.69851987847844,35.688541569894248],[139.69846657807278,35.68852233933805],[139.69845663554963,35.688519564599112],[139.69846271790408,35.688508397130306],[139.69846412419435,35.688505849642759],[139.69851609776887,35.688525134151952]]]},"properties":{"FID":37,"id":"afe22c8628a74cfbb0b8bac26faaad32","category":"B023","floor_id":"fe9c7dc46cce4b6f91b3462933690343","name":" ","restricted":"2","suite":" ","nonpublic":"2","toll":"2","source":"2"}},{"type":"Feature","id":38,"geometry":{"type":"Polygon","coordinates":[[[139.69851987847844,35.688541569894248],[139.69852032425672,35.688543507809477],[139.69845613971557,35.688520382464645],[139.69845663554963,35.688519564599112],[139.69846657807278,35.68852233933805],[139.69851987847844,35.688541569894248]]]},"properties":{"FID":38,"id":"f73c32e91537469e9adbb6530d62fe6f","category":"B019","floor_id":"fe9c7dc46cce4b6f91b3462933690343","name":" ","restricted":"1","suite":" ","nonpublic":"2","toll":"1","source":"2"}},{"type":"Feature","id":39,"geometry":{"type":"Polygon","coordinates":[[[139.69841992196609,35.688519372932518],[139.69840574905726,35.688544616403213],[139.69840371365285,35.68854386273604],[139.69841695826767,35.68852027999484],[139.69838416861919,35.688508121303194],[139.69837763268976,35.688505697721254],[139.69837856026965,35.688504035733544],[139.69837910345277,35.688504235874092],[139.69841462806392,35.688517409918617],[139.69841992196609,35.688519372932518]]]},"properties":{"FID":39,"id":"4bc3afb4894642d385a93e09ce1d1f81","category":"B019","floor_id":"fe9c7dc46cce4b6f91b3462933690343","name":" ","restricted":"1","suite":" ","nonpublic":"2","toll":"1","source":"2"}},{"type":"Feature","id":40,"geometry":{"type":"Polygon","coordinates":[[[139.69840371365285,35.68854386273604],[139.69840324874494,35.688544690853682],[139.69838979488296,35.688539714929632],[139.69838713477381,35.688524629029025],[139.69838153358469,35.688524314481825],[139.69839082897334,35.688519680142136],[139.69838621213719,35.688519419879377],[139.69838416861919,35.688508121303194],[139.69841695826767,35.68852027999484],[139.69840371365285,35.68854386273604]]]},"properties":{"FID":40,"id":"03da1073846b46149bddcaca751a0eca","category":"B019","floor_id":"fe9c7dc46cce4b6f91b3462933690343","name":" ","restricted":"1","suite":" ","nonpublic":"2","toll":"2","source":"2"}},{"type":"Feature","id":41,"geometry":{"type":"Polygon","coordinates":[[[139.69852032425672,35.688543507809477],[139.6985207704808,35.688545447662896],[139.69846499413356,35.68852535264601],[139.69845563839294,35.68852120938341],[139.69845613971557,35.688520382464645],[139.69852032425672,35.688543507809477]]]},"properties":{"FID":41,"id":"d7f3ca71048b464f9b5f6489a0787385","category":"B019","floor_id":"fe9c7dc46cce4b6f91b3462933690343","name":" ","restricted":"1","suite":" ","nonpublic":"2","toll":"1","source":"2"}},{"type":"Feature","id":42,"geometry":{"type":"Polygon","coordinates":[[[139.69844620996199,35.688535141433114],[139.69843503354545,35.688555460425725],[139.69840574905726,35.688544616403213],[139.69841992196609,35.688519372932518],[139.69841462806392,35.688517409918617],[139.69842854099403,35.688492641272177],[139.69846412419435,35.688505849642759],[139.69846271790408,35.688508397130306],[139.69845663554963,35.688519564599112],[139.69845613971557,35.688520382464645],[139.69845563839294,35.68852120938341],[139.69844964780782,35.688532337294383],[139.6984491041114,35.688533190543957],[139.69844705447085,35.688532452468209],[139.69844566476064,35.688534945001749],[139.69844620996199,35.688535141433114]]]},"properties":{"FID":42,"id":"a71c04d2f83e4c5d9be3447c7067866d","category":"B029","floor_id":"fe9c7dc46cce4b6f91b3462933690343","name":" ","restricted":"2","suite":" ","nonpublic":"2","toll":"2","source":"2"}},{"type":"Feature","id":43,"geometry":{"type":"Polygon","coordinates":[[[139.69852781070466,35.68855885751681],[139.69852413815903,35.688560215773393],[139.6984491041114,35.688533190543957],[139.69844964780782,35.688532337294383],[139.69845563839294,35.68852120938341],[139.69846499413356,35.68852535264601],[139.6985207704808,35.688545447662896],[139.69852344721852,35.6885570841429],[139.69851984410806,35.688558462809517],[139.69852781070466,35.68855885751681]]]},"properties":{"FID":43,"id":"9bab0efcc814475e81a8dbc9ccdd6295","category":"B023","floor_id":"fe9c7dc46cce4b6f91b3462933690343","name":" ","restricted":"2","suite":" ","nonpublic":"2","toll":"2","source":"2"}},{"type":"Feature","id":44,"geometry":{"type":"Polygon","coordinates":[[[139.69852413815903,35.688560215773393],[139.69852489419546,35.688563490651283],[139.69844620996199,35.688535141433114],[139.69844566476064,35.688534945001749],[139.69844705447085,35.688532452468209],[139.6984491041114,35.688533190543957],[139.69852413815903,35.688560215773393]]]},"properties":{"FID":44,"id":"be58e5a802a0474781f5222b33f34db9","category":"B019","floor_id":"fe9c7dc46cce4b6f91b3462933690343","name":" ","restricted":"1","suite":" ","nonpublic":"2","toll":"1","source":"2"}},{"type":"Feature","id":45,"geometry":{"type":"Polygon","coordinates":[[[139.69852489419546,35.688563490651283],[139.69853122398953,35.688590844647827],[139.69850818247136,35.688582561395371],[139.69843503354545,35.688555460425725],[139.69844620996199,35.688535141433114],[139.69852489419546,35.688563490651283]]]},"properties":{"FID":45,"id":"59d02b7ad416498487f7e9695414421e","category":"B021","floor_id":"fe9c7dc46cce4b6f91b3462933690343","name":" ","restricted":"2","suite":" ","nonpublic":"2","toll":"2","source":"2"}}]}