{"type":"FeatureCollection","crs":{"type":"name","properties":{"name":"EPSG:6668"}},"features":[{"type":"Feature","id":0,"geometry":{"type":"Point","coordinates":[139.69938392131147,35.686869448079385]},"properties":{"FID":0,"id":"a5efc63cabce4be38c57f598ac5aba63","category":"F011","floor_id":"760b5e4d053149f3b1a757570e2daefd","name":" ","source":"2"}},{"type":"Feature","id":1,"geometry":{"type":"Point","coordinates":[139.69936563412443,35.686881211409705]},"properties":{"FID":1,"id":"7431653e643c4fbb8eb49983b7b8796b","category":"F013","floor_id":"760b5e4d053149f3b1a757570e2daefd","name":" ","source":"2"}},{"type":"Feature","id":2,"geometry":{"type":"Point","coordinates":[139.69935412560184,35.686892942928274]},"properties":{"FID":2,"id":"7eb34d7f168642499a77a74aeb8f27a3","category":"F013","floor_id":"760b5e4d053149f3b1a757570e2daefd","name":" ","source":"2"}},{"type":"Feature","id":3,"geometry":{"type":"Point","coordinates":[139.69933808337859,35.686906121432209]},"properties":{"FID":3,"id":"73c680b9e5a647f2ad414a1c49b36d05","category":"F011","floor_id":"760b5e4d053149f3b1a757570e2daefd","name":" ","source":"2"}},{"type":"Feature","id":4,"geometry":{"type":"Point","coordinates":[139.6993625718315,35.687034750571605]},"properties":{"FID":4,"id":"d84568ba8f2c4b72af9138e929b652d7","category":"F012","floor_id":"f521c9e601be4434aee84f3c8d901316","name":" ","source":"2"}},{"type":"Feature","id":5,"geometry":{"type":"Point","coordinates":[139.69882610984598,35.688289582742406]},"properties":{"FID":5,"id":"346847dcb029489fbdbaf9aa065e8343","category":"F011","floor_id":"728f2dd21d10464d8a913e3b4cf6001f","name":" ","source":"2"}},{"type":"Feature","id":6,"geometry":{"type":"Point","coordinates":[139.6988060331735,35.688316693124236]},"properties":{"FID":6,"id":"db79b669808a416fb575b56622c46158","category":"F011","floor_id":"728f2dd21d10464d8a913e3b4cf6001f","name":" ","source":"2"}},{"type":"Feature","id":7,"geometry":{"type":"Point","coordinates":[139.69874387195418,35.688861091444359]},"properties":{"FID":7,"id":"9da6311269184bfd892634405381dc2b","category":"F011","floor_id":"fc864b5d0418434087b974400fbf6599","name":" ","source":"2"}},{"type":"Feature","id":8,"geometry":{"type":"Point","coordinates":[139.6987369826077,35.688907254671918]},"properties":{"FID":8,"id":"108d1560f0374a9a9ef9c9d72d63b6bd","category":"F108","floor_id":"fc864b5d0418434087b974400fbf6599","name":" ","source":"2"}},{"type":"Feature","id":9,"geometry":{"type":"Point","coordinates":[139.69874715691125,35.68831468258562]},"properties":{"FID":9,"id":"91873a28fed84da5b3d890f3f1d96fe2","category":"F108","floor_id":"728f2dd21d10464d8a913e3b4cf6001f","name":" ","source":"2"}},{"type":"Feature","id":10,"geometry":{"type":"Point","coordinates":[139.69937139071374,35.687036410518338]},"properties":{"FID":10,"id":"25fcd7fefc674a57875fdde21fdbb892","category":"F108","floor_id":"f521c9e601be4434aee84f3c8d901316","name":" ","source":"2"}},{"type":"Feature","id":11,"geometry":{"type":"Point","coordinates":[139.69941646785284,35.686893894050989]},"properties":{"FID":11,"id":"b30e02020a41420bb43c616817e3ffd3","category":"F108","floor_id":"760b5e4d053149f3b1a757570e2daefd","name":" ","source":"2"}}]}