{"type":"FeatureCollection","crs":{"type":"name","properties":{"name":"EPSG:6668"}},"features":[{"type":"Feature","id":0,"geometry":{"type":"Polygon","coordinates":[[[139.69933683874092,35.687636401792361],[139.69932990878621,35.68765505063665],[139.69932467169028,35.687653754946616],[139.69931490542118,35.687651340121093],[139.69930973900824,35.687650061635111],[139.69931666896719,35.687631412791966],[139.69933683874092,35.687636401792361]]]},"properties":{"FID":0,"id":"9f5d4016e10043eca03f1caece735760","category":"B022","floor_id":"63df68d1c60e42f3b2fab3161e030808","name":" ","restricted":"2","suite":" ","nonpublic":"2","toll":"2","source":"2"}},{"type":"Feature","id":1,"geometry":{"type":"Polygon","coordinates":[[[139.6992379374,35.687952440047987],[139.69923313149715,35.687965372915563],[139.69921727863763,35.687961451385405],[139.69922208452505,35.687948518514077],[139.6992379374,35.687952440047987]]]},"properties":{"FID":1,"id":"085a230c19304233b477e384bfa2e946","category":"B025","floor_id":"63df68d1c60e42f3b2fab3161e030808","name":" ","restricted":"2","suite":" ","nonpublic":"2","toll":"2","source":"2"}},{"type":"Feature","id":2,"geometry":{"type":"Polygon","coordinates":[[[139.69923372330334,35.687966275858216],[139.69922953930447,35.687977534188342],[139.69921283710894,35.687973403149556],[139.69921727863763,35.687961451385405],[139.69923313149715,35.687965372915563],[139.69923287401534,35.687966065784089],[139.69923372330334,35.687966275858216]]]},"properties":{"FID":2,"id":"53571854baa84bd292483c941ff97d81","category":"B029","floor_id":"63df68d1c60e42f3b2fab3161e030808","name":" ","restricted":"2","suite":" ","nonpublic":"2","toll":"2","source":"2"}},{"type":"Feature","id":3,"geometry":{"type":"Polygon","coordinates":[[[139.69924858532215,35.687969952070667],[139.69924440118311,35.687981209886331],[139.69922953930447,35.687977534188342],[139.69923372330334,35.687966275858216],[139.69924858532215,35.687969952070667]]]},"properties":{"FID":3,"id":"9cc2ef6334db48daa2b7bb9f596f1820","category":"B025","floor_id":"63df68d1c60e42f3b2fab3161e030808","name":" ","restricted":"2","suite":" ","nonpublic":"2","toll":"2","source":"2"}},{"type":"Feature","id":4,"geometry":{"type":"Polygon","coordinates":[[[139.69928228013214,35.687995938127656],[139.69928081435165,35.687999673575625],[139.6992426690949,35.687990238819197],[139.69924588770698,35.68798157753411],[139.69924440118311,35.687981209886331],[139.69924858532215,35.687969952070667],[139.69925007079394,35.687970319574696],[139.69925058577152,35.687968933841162],[139.6992350875768,35.687965100178332],[139.69924276895796,35.687944430404478],[139.69925550722743,35.687947581359595],[139.69925833893672,35.687948281272298],[139.69925964746892,35.68794475927416],[139.69928533716185,35.687951113696286],[139.69929885514952,35.687954456605404],[139.69928228013214,35.687995938127656]]]},"properties":{"FID":4,"id":"c31eb8def55749549b20f80529693e96","category":"B008","floor_id":"63df68d1c60e42f3b2fab3161e030808","name":" ","restricted":"2","suite":" ","nonpublic":"2","toll":"2","source":"2"}},{"type":"Feature","id":5,"geometry":{"type":"Polygon","coordinates":[[[139.69923783066446,35.687990365931377],[139.6992304278557,35.688010285173817],[139.69920707287289,35.688004508415275],[139.69921140716846,35.687992845073538],[139.6992097085799,35.687992424944341],[139.6992126050755,35.687984631257557],[139.69921430377389,35.687985051413911],[139.69921447568697,35.687984589174256],[139.69923783066446,35.687990365931377]]]},"properties":{"FID":5,"id":"f1a86b84e0cd485ca8ae904dfe2aef57","category":"B009","floor_id":"63df68d1c60e42f3b2fab3161e030808","name":" ","restricted":"2","suite":" ","nonpublic":"2","toll":"2","source":"2"}},{"type":"Feature","id":6,"geometry":{"type":"Polygon","coordinates":[[[139.69921736018208,35.688021742352973],[139.69921710032673,35.688022441587187],[139.69919650821058,35.68801734103792],[139.69920125009472,35.688004581248464],[139.69922241077836,35.688009815193439],[139.6992179265919,35.688021882210485],[139.69921736018208,35.688021742352973]]]},"properties":{"FID":6,"id":"7dea9bb1320d4f9baadc74071e922638","category":"B029","floor_id":"63df68d1c60e42f3b2fab3161e030808","name":" ","restricted":"2","suite":" ","nonpublic":"2","toll":"2","source":"2"}},{"type":"Feature","id":7,"geometry":{"type":"Polygon","coordinates":[[[139.69924470425912,35.688015328917714],[139.69924021932283,35.688027395884383],[139.6992179265919,35.688021882210485],[139.69922241077836,35.688009815193439],[139.69924470425912,35.688015328917714]]]},"properties":{"FID":7,"id":"e30c9584d3fd42f0866a5f8cf2ff987b","category":"B025","floor_id":"63df68d1c60e42f3b2fab3161e030808","name":" ","restricted":"2","suite":" ","nonpublic":"2","toll":"2","source":"2"}},{"type":"Feature","id":8,"geometry":{"type":"Polygon","coordinates":[[[139.69921710032673,35.688022441587187],[139.69921485009058,35.688028496655647],[139.69919425470687,35.688023403781457],[139.69919650821058,35.68801734103792],[139.69921710032673,35.688022441587187]]]},"properties":{"FID":8,"id":"669f13e99d19488182cd32472b359912","category":"B025","floor_id":"63df68d1c60e42f3b2fab3161e030808","name":" ","restricted":"2","suite":" ","nonpublic":"2","toll":"2","source":"2"}},{"type":"Feature","id":9,"geometry":{"type":"Polygon","coordinates":[[[139.69924570686035,35.688061914639377],[139.6992417157789,35.688072653623202],[139.69920378143567,35.688063270467545],[139.69921468145051,35.688033940313289],[139.69924030202628,35.688040276228946],[139.699241910897,35.688035947349597],[139.69924467890482,35.688028498806744],[139.69924021932283,35.688027395884383],[139.69924470425912,35.688015328917714],[139.69924509049181,35.68801429006826],[139.69923199769642,35.688011051284256],[139.69923952924864,35.687990786059025],[139.69928029306485,35.688000868211809],[139.6992651257479,35.688038978372248],[139.69925504797851,35.688064224437973],[139.69925398663861,35.688063961858646],[139.69924570686035,35.688061914639377]]]},"properties":{"FID":9,"id":"5f4f16e76494484fa2676fa9cba2e324","category":"B007","floor_id":"63df68d1c60e42f3b2fab3161e030808","name":" ","restricted":"2","suite":" ","nonpublic":"2","toll":"2","source":"2"}},{"type":"Feature","id":10,"geometry":{"type":"Polygon","coordinates":[[[139.69922268514074,35.688100992353931],[139.69922087509542,35.688102739772113],[139.69921731580303,35.688097762047342],[139.69921502397301,35.688100599711056],[139.69919939255422,35.688101282374802],[139.69920390163577,35.688089148934345],[139.69924405607662,35.688099083052222],[139.69924189221194,35.688099198776484],[139.6992235255411,35.688100181031139],[139.69922268514074,35.688100992353931]]]},"properties":{"FID":10,"id":"fff67f849a36444ebf63019a38c272ca","category":"B019","floor_id":"63df68d1c60e42f3b2fab3161e030808","name":" ","restricted":"1","suite":" ","nonpublic":"2","toll":"1","source":"2"}},{"type":"Feature","id":11,"geometry":{"type":"Polygon","coordinates":[[[139.69922087509542,35.688102739772113],[139.69920765752107,35.688138305690629],[139.69918791186709,35.688133422637542],[139.69918748915444,35.688133312719252],[139.69919939255422,35.688101282374802],[139.69921502397301,35.688100599711056],[139.69921731580303,35.688097762047342],[139.69922087509542,35.688102739772113]]]},"properties":{"FID":11,"id":"93ce0faf901c4451a7f5052fd0d1fcd9","category":"B021","floor_id":"63df68d1c60e42f3b2fab3161e030808","name":" ","restricted":"2","suite":" ","nonpublic":"2","toll":"2","source":"2"}},{"type":"Feature","id":12,"geometry":{"type":"Polygon","coordinates":[[[139.69922268514074,35.688100992353931],[139.69920778542559,35.6881411116808],[139.69920671316837,35.688140846537657],[139.69920765752107,35.688138305690629],[139.69922087509542,35.688102739772113],[139.69922268514074,35.688100992353931]]]},"properties":{"FID":12,"id":"cac3ddd6a6d44f3e90a10927d0bc4be7","category":"B019","floor_id":"63df68d1c60e42f3b2fab3161e030808","name":" ","restricted":"1","suite":" ","nonpublic":"2","toll":"1","source":"2"}},{"type":"Feature","id":13,"geometry":{"type":"Polygon","coordinates":[[[139.69924189221194,35.688099198776484],[139.69922476009677,35.688145310326668],[139.69920883695477,35.6881413716984],[139.69920778542559,35.6881411116808],[139.69922268514074,35.688100992353931],[139.6992235255411,35.688100181031139],[139.69924189221194,35.688099198776484]]]},"properties":{"FID":13,"id":"30849e0898324dadbba0c51eb24f8a56","category":"B023","floor_id":"63df68d1c60e42f3b2fab3161e030808","name":" ","restricted":"2","suite":" ","nonpublic":"2","toll":"2","source":"2"}},{"type":"Feature","id":14,"geometry":{"type":"Polygon","coordinates":[[[139.69916734154103,35.688050285782666],[139.6991314490277,35.688146881232989],[139.69911895707435,35.688143791573971],[139.69915474447328,35.688047169634537],[139.69916734154103,35.688050285782666]]]},"properties":{"FID":14,"id":"6a9e1151a5b0414e88ec89953a7e2cbf","category":"B023","floor_id":"63df68d1c60e42f3b2fab3161e030808","name":" ","restricted":"2","suite":" ","nonpublic":"2","toll":"2","source":"2"}},{"type":"Feature","id":15,"geometry":{"type":"Polygon","coordinates":[[[139.69916925218726,35.688050758388762],[139.69913328181534,35.688147334539771],[139.6991314490277,35.688146881232989],[139.69916734154103,35.688050285782666],[139.69916925218726,35.688050758388762]]]},"properties":{"FID":15,"id":"19a7342ba2424b9f83b15a99b5157e80","category":"B019","floor_id":"63df68d1c60e42f3b2fab3161e030808","name":" ","restricted":"1","suite":" ","nonpublic":"2","toll":"1","source":"2"}},{"type":"Feature","id":16,"geometry":{"type":"Polygon","coordinates":[[[139.69917116283372,35.688051230994098],[139.69913515480201,35.688147797789021],[139.69913328181534,35.688147334539771],[139.69916925218726,35.688050758388762],[139.69917116283372,35.688051230994098]]]},"properties":{"FID":16,"id":"6dea92548f294b65b19e4b66a637de17","category":"B019","floor_id":"63df68d1c60e42f3b2fab3161e030808","name":" ","restricted":"1","suite":" ","nonpublic":"2","toll":"1","source":"2"}},{"type":"Feature","id":17,"geometry":{"type":"Polygon","coordinates":[[[139.69918383141524,35.688054364189782],[139.6991480076114,35.688150976697173],[139.69913515480201,35.688147797789021],[139.69917116283372,35.688051230994098],[139.69918383141524,35.688054364189782]]]},"properties":{"FID":17,"id":"56a78e26be394a8e86cae3cf2cbee660","category":"B023","floor_id":"63df68d1c60e42f3b2fab3161e030808","name":" ","restricted":"2","suite":" ","nonpublic":"2","toll":"2","source":"2"}},{"type":"Feature","id":18,"geometry":{"type":"Polygon","coordinates":[[[139.69918574206125,35.68805483679661],[139.69914980659141,35.688151421641976],[139.6991480076114,35.688150976697173],[139.69918383141524,35.688054364189782],[139.69918574206125,35.68805483679661]]]},"properties":{"FID":18,"id":"79b26cdc43e84a108933541a6dafbe66","category":"B019","floor_id":"63df68d1c60e42f3b2fab3161e030808","name":" ","restricted":"1","suite":" ","nonpublic":"2","toll":"1","source":"2"}},{"type":"Feature","id":19,"geometry":{"type":"Polygon","coordinates":[[[139.69918765270748,35.688055309402813],[139.69915176272394,35.688151905455527],[139.69914980659141,35.688151421641976],[139.69918574206125,35.68805483679661],[139.69918765270748,35.688055309402813]]]},"properties":{"FID":19,"id":"526edc9ae92648e5a3770356b6e782d0","category":"B019","floor_id":"63df68d1c60e42f3b2fab3161e030808","name":" ","restricted":"1","suite":" ","nonpublic":"2","toll":"1","source":"2"}},{"type":"Feature","id":20,"geometry":{"type":"Polygon","coordinates":[[[139.69920025065082,35.688058425275365],[139.69916438130818,35.688155026430309],[139.69915176272394,35.688151905455527],[139.69918765270748,35.688055309402813],[139.69920025065082,35.688058425275365]]]},"properties":{"FID":20,"id":"10bce6ff4dbf4c7da67bdbe0a535b91b","category":"B023","floor_id":"63df68d1c60e42f3b2fab3161e030808","name":" ","restricted":"2","suite":" ","nonpublic":"2","toll":"2","source":"2"}},{"type":"Feature","id":21,"geometry":{"type":"Polygon","coordinates":[[[139.69918748915444,35.688133312719252],[139.69917557886319,35.68816536155952],[139.69916920971266,35.688163786077901],[139.69916936855276,35.688163358679226],[139.69916383969095,35.688162016112194],[139.69916626365267,35.688155491993477],[139.69916438130818,35.688155026430309],[139.69920025065082,35.688058425275365],[139.69918765270748,35.688055309402813],[139.69918574206125,35.68805483679661],[139.69918383141524,35.688054364189782],[139.69917116283372,35.688051230994098],[139.69916925218726,35.688050758388762],[139.69916734154103,35.688050285782666],[139.69915474447328,35.688047169634537],[139.69911895707435,35.688143791573971],[139.69911636959225,35.688143151606837],[139.69911394562683,35.68814967572451],[139.69910939633914,35.688148607640244],[139.69910913674516,35.68814930620961],[139.69910191830382,35.68814752065969],[139.69910668187953,35.688134703081374],[139.69911241378188,35.68813612011607],[139.699123743358,35.688105635794351],[139.69911801145912,35.688104217858857],[139.69912277392478,35.688091400278573],[139.69912850692768,35.68809281821509],[139.69913983538811,35.688062332988999],[139.69913410349207,35.688060915054272],[139.69913886705743,35.688048097474457],[139.69914806680524,35.688050372871722],[139.6991506206154,35.688043501870482],[139.69917135704515,35.688048631242275],[139.69917714945751,35.688033042193332],[139.69921012939366,35.688041199382866],[139.69921485009058,35.688028496655647],[139.69921710032673,35.688022441587187],[139.69921736018208,35.688021742352973],[139.6992179265919,35.688021882210485],[139.69924021932283,35.688027395884383],[139.69924467890482,35.688028498806744],[139.699241910897,35.688035947349597],[139.69924030202628,35.688040276228946],[139.69921468145051,35.688033940313289],[139.69920378143567,35.688063270467545],[139.6992417157789,35.688072653623202],[139.69924570686035,35.688061914639377],[139.69925398663861,35.688063961858646],[139.69925504797851,35.688064224437973],[139.6992651257479,35.688038978372248],[139.69928029306485,35.688000868211809],[139.69923952924864,35.687990786059025],[139.69923199769642,35.688011051284256],[139.69924509049181,35.68801429006826],[139.69924470425912,35.688015328917714],[139.69922241077836,35.688009815193439],[139.69920125009472,35.688004581248464],[139.69919650821058,35.68801734103792],[139.69919425470687,35.688023403781457],[139.69919371853155,35.688024846471222],[139.6991920210518,35.688024426344164],[139.69920006648923,35.688002775386934],[139.69920537428865,35.688004088287165],[139.6992097085799,35.687992424944341],[139.69921140716846,35.687992845073538],[139.69920707287289,35.688004508415275],[139.6992304278557,35.688010285173817],[139.69923783066446,35.687990365931377],[139.69921447568697,35.687984589174256],[139.69921430377389,35.687985051413911],[139.6992126050755,35.687984631257557],[139.69921389252067,35.687981166923983],[139.69921599571668,35.687975508663293],[139.69921068791894,35.687974195763566],[139.69922064342549,35.687947405518116],[139.6992223420086,35.687947825646035],[139.69922208452505,35.687948518514077],[139.69921727863763,35.687961451385405],[139.69921283710894,35.687973403149556],[139.69922953930447,35.687977534188342],[139.69924440118311,35.687981209886331],[139.69924588770698,35.68798157753411],[139.6992426690949,35.687990238819197],[139.69928081435165,35.687999673575625],[139.69928228013214,35.687995938127656],[139.69929885514952,35.687954456605404],[139.69930145677756,35.687955118478534],[139.69925065538402,35.688082493019962],[139.69924405607662,35.688099083052222],[139.69920390163577,35.688089148934345],[139.69919939255422,35.688101282374802],[139.69918748915444,35.688133312719252]]]},"properties":{"FID":21,"id":"442861f60dbb4318a9263dd1000238d4","category":"B019","floor_id":"63df68d1c60e42f3b2fab3161e030808","name":" ","restricted":"1","suite":" ","nonpublic":"2","toll":"1","source":"2"}},{"type":"Feature","id":22,"geometry":{"type":"Polygon","coordinates":[[[139.69908616035255,35.688273093296345],[139.69905446372496,35.688364002046022],[139.69904180238933,35.688361059372035],[139.69907340322271,35.688270196687938],[139.69908616035255,35.688273093296345]]]},"properties":{"FID":22,"id":"9214273d5fa2459f83316abbc71c502f","category":"B023","floor_id":"63df68d1c60e42f3b2fab3161e030808","name":" ","restricted":"2","suite":" ","nonpublic":"2","toll":"2","source":"2"}},{"type":"Feature","id":23,"geometry":{"type":"Polygon","coordinates":[[[139.69908808660585,35.688273530766864],[139.69905638919266,35.688364446722616],[139.69905446372496,35.688364002046022],[139.69908616035255,35.688273093296345],[139.69908808660585,35.688273530766864]]]},"properties":{"FID":23,"id":"96d796fd2e154d079cfbe38eb2fe1731","category":"B019","floor_id":"63df68d1c60e42f3b2fab3161e030808","name":" ","restricted":"1","suite":" ","nonpublic":"2","toll":"1","source":"2"}},{"type":"Feature","id":24,"geometry":{"type":"Polygon","coordinates":[[[139.69909001073222,35.688273967668003],[139.69905830719654,35.688364889675448],[139.69905638919266,35.688364446722616],[139.69908808660585,35.688273530766864],[139.69909001073222,35.688273967668003]]]},"properties":{"FID":24,"id":"99b0a5d1ad8b4896a25a5d164c2ab3dd","category":"B019","floor_id":"63df68d1c60e42f3b2fab3161e030808","name":" ","restricted":"1","suite":" ","nonpublic":"2","toll":"1","source":"2"}},{"type":"Feature","id":25,"geometry":{"type":"Polygon","coordinates":[[[139.69910269512644,35.688276847660724],[139.69907099072745,35.688367774684728],[139.69905830719654,35.688364889675448],[139.69909001073222,35.688273967668003],[139.69910269512644,35.688276847660724]]]},"properties":{"FID":25,"id":"7cbad27ce82c4c2bb8fe97d73cd361e5","category":"B023","floor_id":"63df68d1c60e42f3b2fab3161e030808","name":" ","restricted":"2","suite":" ","nonpublic":"2","toll":"2","source":"2"}},{"type":"Feature","id":26,"geometry":{"type":"Polygon","coordinates":[[[139.69910461884217,35.688277284652706],[139.69907291258687,35.688368218960299],[139.69907099072745,35.688367774684728],[139.69910269512644,35.688276847660724],[139.69910461884217,35.688277284652706]]]},"properties":{"FID":26,"id":"d48fabcb81e5454ea3434d18ab2b882d","category":"B019","floor_id":"63df68d1c60e42f3b2fab3161e030808","name":" ","restricted":"1","suite":" ","nonpublic":"2","toll":"1","source":"2"}},{"type":"Feature","id":27,"geometry":{"type":"Polygon","coordinates":[[[139.69910654492227,35.688277719718648],[139.69907490488251,35.688368679518526],[139.69907291258687,35.688368218960299],[139.69910461884217,35.688277284652706],[139.69910654492227,35.688277719718648]]]},"properties":{"FID":27,"id":"0177dafb6b2d4cdc884d576804d6bf71","category":"B019","floor_id":"63df68d1c60e42f3b2fab3161e030808","name":" ","restricted":"1","suite":" ","nonpublic":"2","toll":"1","source":"2"}},{"type":"Feature","id":28,"geometry":{"type":"Polygon","coordinates":[[[139.69911930036056,35.688280618303779],[139.69908758730975,35.688371564524836],[139.69907490488251,35.688368679518526],[139.69910654492227,35.688277719718648],[139.69911930036056,35.688280618303779]]]},"properties":{"FID":28,"id":"bc4190743af0442aa8ca04737ade743b","category":"B023","floor_id":"63df68d1c60e42f3b2fab3161e030808","name":" ","restricted":"2","suite":" ","nonpublic":"2","toll":"2","source":"2"}},{"type":"Feature","id":29,"geometry":{"type":"Polygon","coordinates":[[[139.69910263768708,35.68837036986551],[139.69909901370943,35.688381577064327],[139.69909182264573,35.688379924947149],[139.69909402195253,35.688372967020676],[139.69909036943866,35.688372189572469],[139.69909049818514,35.688371842688575],[139.6990895707676,35.688371613498589],[139.69908944946138,35.688371961401387],[139.69908758730975,35.688371564524836],[139.69911930036056,35.688280618303779],[139.69910654492227,35.688277719718648],[139.69910461884217,35.688277284652706],[139.69910269512644,35.688276847660724],[139.69909001073222,35.688273967668003],[139.69908808660585,35.688273530766864],[139.69908616035255,35.688273093296345],[139.69907340322271,35.688270196687938],[139.69904180238933,35.688361059372035],[139.69903987066152,35.688360644389775],[139.69903993503411,35.688360471398532],[139.69903929778627,35.688360313849309],[139.69903923341374,35.68836048684053],[139.69903751262717,35.688360125274336],[139.69903526372349,35.688367007429385],[139.69902805157312,35.688365412972544],[139.69903167556149,35.688354204874479],[139.69903745186488,35.688355507488239],[139.69904829210174,35.688323009869819],[139.69904216238689,35.688321620330832],[139.69904578747614,35.688310412233484],[139.69905198218302,35.688311837038619],[139.69906282809666,35.688279322258531],[139.69905599156115,35.688277757066118],[139.699059756906,35.688266584278132],[139.69906652025432,35.688268139872839],[139.69906756750328,35.688265112038451],[139.69912784844689,35.688278824191976],[139.6991267900066,35.688281864020816],[139.69913177919884,35.68828301093049],[139.69912773002781,35.688294113998808],[139.69912289700264,35.688292981898499],[139.69911147671945,35.688325364451423],[139.69911674846247,35.688326576313635],[139.69911312448733,35.68833778441433],[139.69910757264239,35.688336507473231],[139.69909615455686,35.688368891600966],[139.69910263768708,35.68837036986551]]]},"properties":{"FID":29,"id":"f5f328519d5e4fe3a544a9a6ce68d068","category":"B019","floor_id":"63df68d1c60e42f3b2fab3161e030808","name":" ","restricted":"1","suite":" ","nonpublic":"2","toll":"1","source":"2"}},{"type":"Feature","id":30,"geometry":{"type":"Polygon","coordinates":[[[139.69853896385314,35.688397637457491],[139.69853274125668,35.688408770521306],[139.69843449160129,35.688371983624485],[139.69844119833317,35.688360027357355],[139.69853942819248,35.688396806914298],[139.69853896385314,35.688397637457491]]]},"properties":{"FID":30,"id":"7a5e16c5ba7a423c8651bb1a373e736d","category":"B023","floor_id":"63df68d1c60e42f3b2fab3161e030808","name":" ","restricted":"2","suite":" ","nonpublic":"2","toll":"2","source":"2"}},{"type":"Feature","id":31,"geometry":{"type":"Polygon","coordinates":[[[139.69853274125668,35.688408770521306],[139.69853135044644,35.688411263054626],[139.69843309423692,35.688374474742211],[139.69843449160129,35.688371983624485],[139.69853274125668,35.688408770521306]]]},"properties":{"FID":31,"id":"af6855a349504386a07ee3ba2c854853","category":"B019","floor_id":"63df68d1c60e42f3b2fab3161e030808","name":" ","restricted":"1","suite":" ","nonpublic":"2","toll":"1","source":"2"}},{"type":"Feature","id":32,"geometry":{"type":"Polygon","coordinates":[[[139.69877317811458,35.688410980150088],[139.69876272008673,35.688415621427723],[139.69868892523542,35.688389224818344],[139.6986927014029,35.688382580849066],[139.69873689371295,35.688398617864124],[139.69875826358023,35.68840578893569],[139.69875839926198,35.688405835310817],[139.69877317811458,35.688410980150088]]]},"properties":{"FID":32,"id":"9b078789965645fc9e577fe719ff4299","category":"B019","floor_id":"63df68d1c60e42f3b2fab3161e030808","name":" ","restricted":"1","suite":" ","nonpublic":"2","toll":"1","source":"2"}},{"type":"Feature","id":33,"geometry":{"type":"Polygon","coordinates":[[[139.69876272008673,35.688415621427723],[139.69874482483854,35.688423563343861],[139.69868227123413,35.688401113445565],[139.69868784945032,35.688391117788186],[139.69868892523542,35.688389224818344],[139.69876272008673,35.688415621427723]]]},"properties":{"FID":33,"id":"5fb08fd7b0c04c33a152f4f885b8b399","category":"B023","floor_id":"63df68d1c60e42f3b2fab3161e030808","name":" ","restricted":"2","suite":" ","nonpublic":"2","toll":"2","source":"2"}},{"type":"Feature","id":34,"geometry":{"type":"Polygon","coordinates":[[[139.69874482483854,35.688423563343861],[139.6987423026728,35.688424682681386],[139.69868130926102,35.6884028372138],[139.69868227123413,35.688401113445565],[139.69874482483854,35.688423563343861]]]},"properties":{"FID":34,"id":"ab69f9566fd14a61988d8f9b8d09c4b2","category":"B019","floor_id":"63df68d1c60e42f3b2fab3161e030808","name":" ","restricted":"1","suite":" ","nonpublic":"2","toll":"1","source":"2"}},{"type":"Feature","id":35,"geometry":{"type":"Polygon","coordinates":[[[139.6987423026728,35.688424682681386],[139.69873986205425,35.688425766321878],[139.69868036429531,35.68840451873421],[139.69868130926102,35.6884028372138],[139.6987423026728,35.688424682681386]]]},"properties":{"FID":35,"id":"6357bb37378d469e9df694ae46baee3c","category":"B019","floor_id":"63df68d1c60e42f3b2fab3161e030808","name":" ","restricted":"1","suite":" ","nonpublic":"2","toll":"1","source":"2"}},{"type":"Feature","id":36,"geometry":{"type":"Polygon","coordinates":[[[139.69873949511336,35.68842592867658],[139.6987252973544,35.688432939592474],[139.69867461131344,35.688414755883507],[139.69868036429531,35.68840451873421],[139.69873986205425,35.688425766321878],[139.69873949511336,35.68842592867658]]]},"properties":{"FID":36,"id":"bdadff7a0e194c99a99ecc3df9318e58","category":"B023","floor_id":"63df68d1c60e42f3b2fab3161e030808","name":" ","restricted":"2","suite":" ","nonpublic":"2","toll":"2","source":"2"}},{"type":"Feature","id":37,"geometry":{"type":"Polygon","coordinates":[[[139.6987252973544,35.688432939592474],[139.69872299628594,35.688434075869957],[139.69867370297001,35.688416420682501],[139.6986744915439,35.688414969146912],[139.69867461131344,35.688414755883507],[139.6987252973544,35.688432939592474]]]},"properties":{"FID":37,"id":"bf0c9b89859742058d9873340d5afc40","category":"B019","floor_id":"63df68d1c60e42f3b2fab3161e030808","name":" ","restricted":"1","suite":" ","nonpublic":"2","toll":"1","source":"2"}},{"type":"Feature","id":38,"geometry":{"type":"Polygon","coordinates":[[[139.69872299628594,35.688434075869957],[139.69872069297963,35.688435213252397],[139.69867277718015,35.68841811718741],[139.69867297194642,35.688417776023492],[139.69867370297001,35.688416420682501],[139.69872299628594,35.688434075869957]]]},"properties":{"FID":38,"id":"ea53659d663744ca99092cd4c697a368","category":"B019","floor_id":"63df68d1c60e42f3b2fab3161e030808","name":" ","restricted":"1","suite":" ","nonpublic":"2","toll":"1","source":"2"}},{"type":"Feature","id":39,"geometry":{"type":"Polygon","coordinates":[[[139.69853135044644,35.688411263054626],[139.69851533694074,35.688439806636872],[139.69841669603386,35.688403708230815],[139.69843309423692,35.688374474742211],[139.69853135044644,35.688411263054626]]]},"properties":{"FID":39,"id":"06af549eac964cef8f7a0c0246db7e58","category":"B021","floor_id":"63df68d1c60e42f3b2fab3161e030808","name":" ","restricted":"2","suite":" ","nonpublic":"2","toll":"2","source":"2"}},{"type":"Feature","id":40,"geometry":{"type":"Polygon","coordinates":[[[139.69872069297963,35.688435213252397],[139.69870384071584,35.688443534969572],[139.69866602028915,35.688430017929853],[139.69866724376442,35.68842780983865],[139.69867277718015,35.68841811718741],[139.69872069297963,35.688435213252397]]]},"properties":{"FID":40,"id":"895a0628d01d453385a70331f487bc00","category":"B023","floor_id":"63df68d1c60e42f3b2fab3161e030808","name":" ","restricted":"2","suite":" ","nonpublic":"2","toll":"2","source":"2"}},{"type":"Feature","id":41,"geometry":{"type":"Polygon","coordinates":[[[139.69913813588965,35.688451995445028],[139.69913571753517,35.688453079711081],[139.69911667555044,35.688426167697862],[139.69913346079906,35.688383289312469],[139.69919686115318,35.688216017029134],[139.69922248625954,35.688151429968833],[139.69922476009677,35.688145310326668],[139.69924189221194,35.688099198776484],[139.69924405607662,35.688099083052222],[139.69922832593514,35.688138627104976],[139.69922953478388,35.688141195553293],[139.69918407592291,35.688255408876032],[139.69913605828083,35.688383994375137],[139.69911970775735,35.688425909681058],[139.69913813588965,35.688451995445028]]]},"properties":{"FID":41,"id":"7b2cf27afcc94a169fab232af7de7444","category":"B019","floor_id":"63df68d1c60e42f3b2fab3161e030808","name":" ","restricted":"1","suite":" ","nonpublic":"2","toll":"1","source":"2"}},{"type":"Feature","id":42,"geometry":{"type":"Polygon","coordinates":[[[139.69877317811458,35.688410980150088],[139.69874843575857,35.688459473239369],[139.69870384071584,35.688443534969572],[139.69872069297963,35.688435213252397],[139.69872299628594,35.688434075869957],[139.6987252973544,35.688432939592474],[139.69873949511336,35.68842592867658],[139.69873986205425,35.688425766321878],[139.6987423026728,35.688424682681386],[139.69874482483854,35.688423563343861],[139.69876272008673,35.688415621427723],[139.69877317811458,35.688410980150088]]]},"properties":{"FID":42,"id":"ce2063a6677f48638d81f71c7b66074d","category":"B019","floor_id":"63df68d1c60e42f3b2fab3161e030808","name":" ","restricted":"1","suite":" ","nonpublic":"2","toll":"1","source":"2"}},{"type":"Feature","id":43,"geometry":{"type":"Polygon","coordinates":[[[139.69877009837469,35.688421753598732],[139.6987493744839,35.688462353264363],[139.69866487244244,35.688432064682701],[139.69866602028915,35.688430017929853],[139.69870384071584,35.688443534969572],[139.69874843575857,35.688459473239369],[139.69877317811458,35.688410980150088],[139.69877523297018,35.688411694531759],[139.69877009837469,35.688421753598732]]]},"properties":{"FID":43,"id":"3c5ea0c68fef41628f573cb5b508046c","category":"B019","floor_id":"63df68d1c60e42f3b2fab3161e030808","name":" ","restricted":"1","suite":" ","nonpublic":"2","toll":"1","source":"2"}},{"type":"Feature","id":44,"geometry":{"type":"Polygon","coordinates":[[[139.69896278459984,35.688473955707046],[139.69895940964588,35.688475847608601],[139.69888529803646,35.688453453618671],[139.69888698264126,35.688449935627695],[139.69893725811545,35.688465828820249],[139.69896278459984,35.688473955707046]]]},"properties":{"FID":44,"id":"af7091633bfc412f8a72db86e0a05eca","category":"B019","floor_id":"63df68d1c60e42f3b2fab3161e030808","name":" ","restricted":"1","suite":" ","nonpublic":"2","toll":"1","source":"2"}},{"type":"Feature","id":45,"geometry":{"type":"Polygon","coordinates":[[[139.69895940964588,35.688475847608601],[139.69895715003139,35.688477114282996],[139.69888450864116,35.688455102139422],[139.69888529803646,35.688453453618671],[139.69895940964588,35.688475847608601]]]},"properties":{"FID":45,"id":"6e7c577e0a7c42f2b32ac9e9cccebaaa","category":"B019","floor_id":"63df68d1c60e42f3b2fab3161e030808","name":" ","restricted":"1","suite":" ","nonpublic":"2","toll":"1","source":"2"}},{"type":"Feature","id":46,"geometry":{"type":"Polygon","coordinates":[[[139.69895715003139,35.688477114282996],[139.69894317982883,35.688484945571915],[139.698879460336,35.688465644690787],[139.69888450864116,35.688455102139422],[139.69895715003139,35.688477114282996]]]},"properties":{"FID":46,"id":"e2aa38961f7b4943973788ab1664ac59","category":"B023","floor_id":"63df68d1c60e42f3b2fab3161e030808","name":" ","restricted":"2","suite":" ","nonpublic":"2","toll":"2","source":"2"}},{"type":"Feature","id":47,"geometry":{"type":"Polygon","coordinates":[[[139.69905757912045,35.68862199202016],[139.69895227958091,35.688589264765824],[139.69896751354133,35.688557311510692],[139.69896544833819,35.688556639349656],[139.69894069425607,35.688548582646661],[139.69894270737996,35.688544350720747],[139.6989401262922,35.688543528519403],[139.69893805992115,35.68854287028023],[139.69894485632301,35.688528595377761],[139.69894690907472,35.688529282290858],[139.69894946807028,35.688530138608542],[139.69895171316091,35.688525419049199],[139.69897639019325,35.688533625873731],[139.69897845876278,35.688534293115993],[139.69900167768503,35.688485434932204],[139.69900169660036,35.688485395130101],[139.69900391216265,35.688486097504097],[139.69900712433719,35.6884793263917],[139.69902045909623,35.688451319607225],[139.69901880374823,35.688445446055312],[139.69901598381909,35.688439878855263],[139.69901207129044,35.688434770233982],[139.69900717450503,35.688430261655412],[139.6990014290617,35.688426477968108],[139.69899499405858,35.688423523947051],[139.69898804768957,35.688421481392652],[139.69898078230801,35.688420406866271],[139.69897339910176,35.688420330122312],[139.69896610252101,35.688421253286265],[139.69895909461707,35.688423150794335],[139.69893656062038,35.688431108172608],[139.6989213041395,35.688436602115644],[139.69890912010635,35.688440901566935],[139.69886927732659,35.688428336142181],[139.69886208806997,35.688442065891422],[139.69888698264128,35.688449935627716],[139.69888529803654,35.688453453618592],[139.6988845086413,35.688455102139415],[139.698879460336,35.68846564469078],[139.69887905108544,35.688466499343974],[139.69887858785421,35.688467329889761],[139.69887778867462,35.688469007483832],[139.69887275754184,35.688479569796982],[139.69887194701789,35.68848126996852],[139.69887115398706,35.68848293465544],[139.69886624305525,35.688493243409994],[139.69886593333842,35.688493893550003],[139.69886550475235,35.688494774938647],[139.69886443817245,35.688496966795469],[139.69883792442874,35.688488163801424],[139.69883249415614,35.688499240979354],[139.69884357270359,35.688502894676958],[139.69882197616039,35.688546473955796],[139.69881550280434,35.688544338264194],[139.69880572372028,35.688564130463874],[139.69874898178932,35.688546167610298],[139.69868988614201,35.688525939688759],[139.6985714175936,35.688483524770959],[139.69858199943621,35.688464202230591],[139.69851533694077,35.68843980663695],[139.6985313504465,35.688411263054661],[139.69853274125683,35.688408770521391],[139.69853896385314,35.688397637457513],[139.69853942819248,35.688396806914398],[139.6985408178989,35.688394313478341],[139.69854119709998,35.688394464254827],[139.69854194392474,35.688394628404581],[139.69854271434338,35.688394684261937],[139.69854348494698,35.688394630129949],[139.6985442323213,35.688394467653154],[139.69854493375749,35.688394201768631],[139.69854556794337,35.688393840554795],[139.69854611560856,35.688393394986917],[139.6985465601133,35.688392878603906],[139.69854672529425,35.688392559716931],[139.6985482933411,35.688389795168177],[139.6985534122266,35.688380596109084],[139.69857599602813,35.688340412178206],[139.69869270140293,35.688382580849066],[139.6986889252355,35.688389224818366],[139.69868784945049,35.688391117788228],[139.69868227123436,35.688401113445707],[139.69868130926113,35.688402837213857],[139.69868036429546,35.688404518734217],[139.69867461131366,35.688414755883628],[139.6986744915439,35.688414969147004],[139.69867370297004,35.688416420682586],[139.69867297194662,35.688417776023527],[139.69867277718015,35.688418117187382],[139.69866724376448,35.688427809838686],[139.69866602028924,35.688430017929818],[139.69866487244246,35.688432064682672],[139.69864892455837,35.68842634837614],[139.69864547290911,35.688432934430296],[139.69864454644028,35.688434596421359],[139.69865252539921,35.688437452889502],[139.69863896104266,35.688463331488663],[139.69863098579981,35.688460477308126],[139.69862990403988,35.688462559463062],[139.69873082658683,35.688498744267861],[139.69874601461561,35.688468897960945],[139.6987493744839,35.688462353264413],[139.69877009837478,35.688421753598732],[139.69877845179553,35.688424658026577],[139.69878673684957,35.688427526431838],[139.69881216489728,35.688376788093649],[139.69887083006051,35.688396504193861],[139.69899557317808,35.688351958040641],[139.69902601304307,35.688264227527611],[139.6990260337875,35.688264169786464],[139.6990727239056,35.688138533895255],[139.69908083111568,35.688135432308513],[139.69911516750324,35.688049485304361],[139.69914237868215,35.687981256689966],[139.69916169924079,35.687986035655058],[139.69917483615711,35.687978756409052],[139.69918670175605,35.687946827781673],[139.69920794349764,35.68788966853441],[139.69922227630082,35.687851100456044],[139.6992314393251,35.687826446471433],[139.69923169382321,35.687825761681268],[139.69928664610575,35.687677890062503],[139.69929713871841,35.687649656412589],[139.69931398202311,35.687653822367793],[139.69931490542115,35.687651340121192],[139.69932467169042,35.687653754946723],[139.69932374829091,35.687656238094632],[139.69932856129492,35.687657428753766],[139.69928845873494,35.687765338497286],[139.69928202264452,35.687782659268748],[139.69924106203041,35.687892879151207],[139.69923462481324,35.687910200819942],[139.69922496898459,35.687936181970315],[139.69924237890802,35.687940488279082],[139.69923793740008,35.687952440048093],[139.6992220845251,35.68794851851419],[139.69922234200862,35.687947825646063],[139.69922064342563,35.687947405518116],[139.69921068791905,35.687974195763502],[139.69921599571671,35.687975508663328],[139.69921389252079,35.687981166924033],[139.69921260507556,35.687984631257564],[139.69920970857993,35.687992424944355],[139.69920537428879,35.688004088287187],[139.6992000664892,35.688002775386963],[139.69919202105189,35.688024426344271],[139.69919371853155,35.688024846471308],[139.69919425470687,35.688023403781472],[139.69921485009058,35.688028496655647],[139.69921012939369,35.688041199382894],[139.69917714945757,35.688033042193467],[139.6991713570452,35.688048631242282],[139.69915062061534,35.688043501870482],[139.69914806680538,35.688050372871714],[139.6991388670574,35.688048097474564],[139.69913410349204,35.68806091505428],[139.69913983538822,35.688062332989034],[139.69912850692776,35.688092818215125],[139.69912277392484,35.688091400278608],[139.69911801145906,35.688104217858836],[139.69912374335797,35.688105635794443],[139.6991124137819,35.688136120116212],[139.69910668187947,35.688134703081346],[139.699101918304,35.688147520659811],[139.69910913674516,35.688149306209652],[139.69910939633928,35.688148607640301],[139.699113945627,35.68814967572456],[139.69911636959239,35.688143151606766],[139.69911895707435,35.688143791573964],[139.69913144902785,35.688146881233024],[139.69913328181542,35.688147334539906],[139.69913515480221,35.6881477977891],[139.69914800761148,35.688150976697216],[139.69914980659144,35.68815142164209],[139.699151762724,35.688151905455641],[139.69916438130815,35.688155026430422],[139.69916626365296,35.688155491993484],[139.69916383969098,35.688162016112301],[139.69916936855293,35.688163358679276],[139.69916920971275,35.688163786078007],[139.69917557886322,35.688165361559584],[139.6991874891545,35.688133312719231],[139.69918791186717,35.68813342263752],[139.69920765752124,35.688138305690757],[139.69920671316834,35.688140846537749],[139.69920778542564,35.688141111680864],[139.69920883695499,35.688141371698464],[139.69922476009674,35.688145310326775],[139.6992224862596,35.688151429968968],[139.69919686115315,35.688216017029276],[139.6991334607992,35.688383289312583],[139.69911667555061,35.688426167697912],[139.69913571753511,35.68845307971111],[139.69911070067496,35.68846491183217],[139.69911225215139,35.688467098754302],[139.6991118792497,35.688466663020165],[139.69911136949315,35.688466246016333],[139.69911077872007,35.68846590756209],[139.69911012488126,35.688465657941151],[139.69910942784315,35.688465504738019],[139.69910870878471,35.688465452607772],[139.69910798955436,35.688465503134466],[139.69910729200546,35.68846565478259],[139.69910663733276,35.688465902944813],[139.69910604542804,35.688466240080459],[139.69910553427621,35.688466655946002],[139.69910511940827,35.688467137905548],[139.69910481342959,35.688467671314982],[139.69910462563723,35.688468239966937],[139.69910456173773,35.688468826583403],[139.6991046236717,35.688469413339988],[139.69910480955798,35.688469982408662],[139.69910511374826,35.688470516498455],[139.69910552699992,35.688470999381479],[139.69910603675646,35.688471416385198],[139.69910662752955,35.688471754839441],[139.69910728136847,35.68847200446055],[139.69910797840669,35.688472157663682],[139.69910869746491,35.688472209793872],[139.69910941669559,35.688472159267178],[139.69911011424426,35.688472007618884],[139.69911032458788,35.688471936676024],[139.69911887667683,35.688484082269667],[139.69910021971748,35.688527633691365],[139.69909848380848,35.68853167980825],[139.6991458195838,35.688544459922809],[139.69913001916984,35.688581152403515],[139.69912509112658,35.688592542028402],[139.69907626462873,35.688578574040378],[139.69907540037923,35.688580693098743],[139.69908440716927,35.688583280463376],[139.69906935950723,35.688618264280592],[139.69906045680966,35.688615706371877],[139.69905757912045,35.68862199202016]],[[139.69909036943864,35.688372189572476],[139.69909402195253,35.688372967020769],[139.69909182264587,35.688379924947128],[139.69909901370943,35.68838157706449],[139.69910263768713,35.688370369865595],[139.69909615455686,35.688368891600931],[139.69910757264267,35.688336507473196],[139.69911312448733,35.688337784414443],[139.69911674846264,35.688326576313671],[139.69911147671939,35.68832536445143],[139.69912289700278,35.688292981898599],[139.69912773002795,35.688294113998893],[139.69913177919886,35.688283010930547],[139.69912679000674,35.688281864020951],[139.69912784844701,35.688278824191968],[139.69906756750356,35.688265112038437],[139.69906652025452,35.688268139872946],[139.69905975690608,35.688266584278153],[139.69905599156141,35.688277757066203],[139.69906282809666,35.688279322258609],[139.69905198218316,35.688311837038611],[139.69904578747617,35.688310412233477],[139.69904216238695,35.688321620330839],[139.69904829210202,35.688323009869805],[139.69903745186491,35.688355507488268],[139.69903167556151,35.688354204874429],[139.69902805157312,35.68836541297253],[139.69903526372343,35.688367007429406],[139.69903751262734,35.688360125274471],[139.69903923341383,35.688360486840679],[139.69903929778638,35.688360313849273],[139.69903993503431,35.688360471398653],[139.69903987066164,35.688360644389888],[139.69904180238962,35.688361059372028],[139.69905446372502,35.688364002046058],[139.69905638919272,35.688364446722687],[139.69905830719654,35.688364889675597],[139.69907099072759,35.688367774684821],[139.69907291258687,35.688368218960363],[139.69907490488265,35.688368679518533],[139.6990875873098,35.688371564524857],[139.69908944946155,35.688371961401344],[139.69908957076768,35.688371613498703],[139.69909049818511,35.688371842688696],[139.69909036943864,35.688372189572476]]]},"properties":{"FID":47,"id":"50087e69e33040668f2c117d073fab3c","category":"B029","floor_id":"63df68d1c60e42f3b2fab3161e030808","name":" ","restricted":"2","suite":" ","nonpublic":"2","toll":"2","source":"2"}},{"type":"Feature","id":48,"geometry":{"type":"Polygon","coordinates":[[[139.69900712433719,35.688479326391601],[139.69900391216265,35.68848609750399],[139.69900169660028,35.688485395129973],[139.69900128591152,35.688485261879364],[139.69899961877621,35.688484738065782],[139.69899927911138,35.688484632237234],[139.69897480601577,35.688476873969449],[139.69897224891452,35.688476059667465],[139.6989718730145,35.688476849191041],[139.69896278459984,35.688473955707046],[139.69893725811545,35.688465828820249],[139.69888698264126,35.688449935627695],[139.69886208806989,35.688442065891401],[139.69886927732639,35.688428336142088],[139.69890912010641,35.688440901566864],[139.69892130413939,35.688436602115637],[139.69893656062024,35.688431108172573],[139.69895909461692,35.688423150794371],[139.69896610252087,35.688421253286194],[139.69897339910176,35.688420330122248],[139.69898078230804,35.688420406866143],[139.69898804768948,35.688421481392723],[139.69899499405861,35.688423523947016],[139.69900142906155,35.688426477968115],[139.69900717450506,35.688430261655434],[139.69901207129033,35.688434770233904],[139.69901598381904,35.688439878855263],[139.69901880374809,35.688445446055297],[139.69902045909623,35.688451319607161],[139.69900712433719,35.688479326391601]]]},"properties":{"FID":48,"id":"2fe5670546b8419e800456bc87d36f5f","category":"B026","floor_id":"63df68d1c60e42f3b2fab3161e030808","name":" ","restricted":"1","suite":" ","nonpublic":"2","toll":"2","source":"2"}},{"type":"Feature","id":49,"geometry":{"type":"Polygon","coordinates":[[[139.69894317982883,35.688484945571915],[139.69894091526052,35.688486214977154],[139.69887858785407,35.688467329889718],[139.69887905108541,35.688466499343988],[139.698879460336,35.688465644690787],[139.69894317982883,35.688484945571915]]]},"properties":{"FID":49,"id":"a3f0274be3d54faa88ec6705ac5f8083","category":"B019","floor_id":"63df68d1c60e42f3b2fab3161e030808","name":" ","restricted":"1","suite":" ","nonpublic":"2","toll":"1","source":"2"}},{"type":"Feature","id":50,"geometry":{"type":"Polygon","coordinates":[[[139.69894091526052,35.688486214977154],[139.69893873204484,35.688487438910165],[139.69887778867457,35.688469007483732],[139.69887858785407,35.688467329889718],[139.69894091526052,35.688486214977154]]]},"properties":{"FID":50,"id":"6c610208c02a4ede9a283383bcfd26d3","category":"B019","floor_id":"63df68d1c60e42f3b2fab3161e030808","name":" ","restricted":"1","suite":" ","nonpublic":"2","toll":"1","source":"2"}},{"type":"Feature","id":51,"geometry":{"type":"Polygon","coordinates":[[[139.69893512586634,35.688489446839192],[139.69892468679996,35.688495309778894],[139.69887275754178,35.688479569796932],[139.69887778867457,35.688469007483732],[139.69893873204484,35.688487438910165],[139.69893834184413,35.688487657604597],[139.69893512586634,35.688489446839192]]]},"properties":{"FID":51,"id":"b8ec47354e724142b6021128ca8120bd","category":"B023","floor_id":"63df68d1c60e42f3b2fab3161e030808","name":" ","restricted":"2","suite":" ","nonpublic":"2","toll":"2","source":"2"}},{"type":"Feature","id":52,"geometry":{"type":"Polygon","coordinates":[[[139.69874309941125,35.688469879899145],[139.69872981717847,35.688495847037757],[139.69863896104263,35.688463331488585],[139.69865252539921,35.688437452889517],[139.69874309941125,35.688469879899145]]]},"properties":{"FID":52,"id":"64b36a90ee1645d28b0447651c5edda8","category":"B021","floor_id":"63df68d1c60e42f3b2fab3161e030808","name":" ","restricted":"2","suite":" ","nonpublic":"2","toll":"2","source":"2"}},{"type":"Feature","id":53,"geometry":{"type":"Polygon","coordinates":[[[139.69892468679996,35.688495309778894],[139.69892249861149,35.688496538740743],[139.69887194701792,35.688481269968541],[139.69887275754178,35.688479569796932],[139.69892468679996,35.688495309778894]]]},"properties":{"FID":53,"id":"b3b601b434764c5a9ab67352960112d4","category":"B019","floor_id":"63df68d1c60e42f3b2fab3161e030808","name":" ","restricted":"1","suite":" ","nonpublic":"2","toll":"1","source":"2"}},{"type":"Feature","id":54,"geometry":{"type":"Polygon","coordinates":[[[139.69892249861149,35.688496538740743],[139.69892023867851,35.688497807996747],[139.69887115398689,35.688482934655397],[139.69887194701792,35.688481269968541],[139.69892249861149,35.688496538740743]]]},"properties":{"FID":54,"id":"2cd0b1da9d6e4012b6fac47bc1120eff","category":"B019","floor_id":"63df68d1c60e42f3b2fab3161e030808","name":" ","restricted":"1","suite":" ","nonpublic":"2","toll":"1","source":"2"}},{"type":"Feature","id":55,"geometry":{"type":"Polygon","coordinates":[[[139.69874601461544,35.688468897960895],[139.69873082658668,35.688498744267932],[139.6986299040399,35.688462559462977],[139.69863098579975,35.688460477308034],[139.69863896104263,35.688463331488585],[139.69872981717847,35.688495847037757],[139.69874309941125,35.688469879899145],[139.69865252539921,35.688437452889517],[139.69864454644028,35.688434596421267],[139.69864547290894,35.68843293443021],[139.6986489245582,35.68842634837614],[139.69866487244244,35.688432064682701],[139.6987493744839,35.688462353264363],[139.69874601461544,35.688468897960895]]]},"properties":{"FID":55,"id":"0b671d4364f64ffc9e5c8b1a0608cef7","category":"B019","floor_id":"63df68d1c60e42f3b2fab3161e030808","name":" ","restricted":"1","suite":" ","nonpublic":"2","toll":"1","source":"2"}},{"type":"Feature","id":56,"geometry":{"type":"Polygon","coordinates":[[[139.69892023867851,35.688497807996747],[139.69890683413894,35.688505336444855],[139.69886624305519,35.688493243409852],[139.69887115398689,35.688482934655397],[139.69892023867851,35.688497807996747]]]},"properties":{"FID":56,"id":"86b9012d1c55474baa3be0cb80b63dd8","category":"B023","floor_id":"63df68d1c60e42f3b2fab3161e030808","name":" ","restricted":"2","suite":" ","nonpublic":"2","toll":"2","source":"2"}},{"type":"Feature","id":57,"geometry":{"type":"Polygon","coordinates":[[[139.69890683413894,35.688505336444855],[139.6989045758769,35.688506604761827],[139.69886550475229,35.688494774938718],[139.6988659333384,35.688493893549968],[139.69886624305519,35.688493243409852],[139.69890683413894,35.688505336444855]]]},"properties":{"FID":57,"id":"871fbc4611664f84a5cc97239c7374ba","category":"B019","floor_id":"63df68d1c60e42f3b2fab3161e030808","name":" ","restricted":"1","suite":" ","nonpublic":"2","toll":"1","source":"2"}},{"type":"Feature","id":58,"geometry":{"type":"Polygon","coordinates":[[[139.6989045758769,35.688506604761827],[139.69890044854444,35.688508922812218],[139.69886443817228,35.688496966795412],[139.69886550475229,35.688494774938718],[139.6989045758769,35.688506604761827]]]},"properties":{"FID":58,"id":"b1ad9121ccf341e2b8aff4501f66a745","category":"B019","floor_id":"63df68d1c60e42f3b2fab3161e030808","name":" ","restricted":"1","suite":" ","nonpublic":"2","toll":"1","source":"2"}},{"type":"Feature","id":59,"geometry":{"type":"Polygon","coordinates":[[[139.69841195582111,35.688502965381737],[139.69839845884835,35.688511418712444],[139.6983790339566,35.688504216538533],[139.69839380617347,35.688478108415296],[139.69843019607393,35.688491570655728],[139.69841505153624,35.688501083185287],[139.69841196250562,35.688498995756078],[139.69841506483672,35.688504995145678],[139.69841195582111,35.688502965381737]]]},"properties":{"FID":59,"id":"4740c265da39488cbf555b81bb7598a3","category":"B021","floor_id":"220cccd00be94faeb8f84cb191130c76","name":" ","restricted":"2","suite":" ","nonpublic":"2","toll":"2","source":"2"}},{"type":"Feature","id":60,"geometry":{"type":"Polygon","coordinates":[[[139.6989718730145,35.688476849191041],[139.69894915367414,35.688524567842265],[139.69891608740545,35.68851403457284],[139.69891402106592,35.688513376725695],[139.69891015407043,35.688512145198899],[139.69890044854444,35.688508922812218],[139.6989045758769,35.688506604761827],[139.69890683413894,35.688505336444855],[139.69892023867851,35.688497807996747],[139.69892249861149,35.688496538740743],[139.69892468679996,35.688495309778894],[139.69893512586634,35.688489446839192],[139.69893834184413,35.688487657604597],[139.69893873204484,35.688487438910165],[139.69894091526052,35.688486214977154],[139.69894317982883,35.688484945571915],[139.69895715003139,35.688477114282996],[139.69895940964588,35.688475847608601],[139.69896278459984,35.688473955707046],[139.6989718730145,35.688476849191041]]]},"properties":{"FID":60,"id":"939e6600b06c41e6861263e9e6194749","category":"B019","floor_id":"63df68d1c60e42f3b2fab3161e030808","name":" ","restricted":"1","suite":" ","nonpublic":"2","toll":"1","source":"2"}},{"type":"Feature","id":61,"geometry":{"type":"Polygon","coordinates":[[[139.69844178171516,35.688517529789372],[139.69843631353763,35.688527462167102],[139.69837810748157,35.688505878527508],[139.6983790339566,35.688504216538533],[139.69839845884835,35.688511418712444],[139.69843520304275,35.688525044841143],[139.69844074164942,35.688515129177233],[139.69846731105011,35.688525357044348],[139.69847669668201,35.68850877322425],[139.69847856775112,35.688509465883243],[139.69846847986469,35.688527411674428],[139.69844178171516,35.688517529789372]]]},"properties":{"FID":61,"id":"05569ccaa2264282b8070fe3ab9e9d03","category":"B019","floor_id":"220cccd00be94faeb8f84cb191130c76","name":" ","restricted":"1","suite":" ","nonpublic":"2","toll":"1","source":"2"}},{"type":"Feature","id":62,"geometry":{"type":"Polygon","coordinates":[[[139.69837810748157,35.688505878527508],[139.69836407558884,35.688531172191091],[139.69832963316264,35.688518412710181],[139.69835938842019,35.688465375782151],[139.69839380617347,35.688478108415296],[139.6983790339566,35.688504216538533],[139.69837810748157,35.688505878527508]]]},"properties":{"FID":62,"id":"d5f41ab9bed04a5c805ce98577dbc45e","category":"B029","floor_id":"220cccd00be94faeb8f84cb191130c76","name":" ","restricted":"2","suite":" ","nonpublic":"2","toll":"2","source":"2"}},{"type":"Feature","id":63,"geometry":{"type":"Polygon","coordinates":[[[139.69897845876278,35.688534293115993],[139.69897639019325,35.688533625873731],[139.69895171316091,35.688525419049199],[139.69895277987382,35.688523176638682],[139.69897747553716,35.688531341615487],[139.69899961877638,35.688484738065824],[139.69900128591166,35.68848526187935],[139.69900169660036,35.688485395130101],[139.69900167768503,35.688485434932204],[139.69897845876278,35.688534293115993]]]},"properties":{"FID":63,"id":"6b80b36dd0c3404da038d2e284bbb3ff","category":"B019","floor_id":"63df68d1c60e42f3b2fab3161e030808","name":" ","restricted":"1","suite":" ","nonpublic":"2","toll":"1","source":"2"}},{"type":"Feature","id":64,"geometry":{"type":"Polygon","coordinates":[[[139.69894609342541,35.688525997014487],[139.69893685616375,35.688545398605598],[139.6989058544402,35.688535528243648],[139.69891509170972,35.688516125753523],[139.69894609342541,35.688525997014487]]]},"properties":{"FID":64,"id":"e50b6f71ff2e40dfba66800200f6927b","category":"B022","floor_id":"63df68d1c60e42f3b2fab3161e030808","name":" ","restricted":"2","suite":" ","nonpublic":"2","toll":"2","source":"2"}},{"type":"Feature","id":65,"geometry":{"type":"Polygon","coordinates":[[[139.6989401262922,35.688543528519403],[139.69893811902477,35.688547744486868],[139.69890298445682,35.688536557107511],[139.698914021066,35.68851337672578],[139.69891608740545,35.688514034572904],[139.69894915367411,35.688524567842251],[139.69894690907472,35.688529282290858],[139.69894485632301,35.688528595377761],[139.69894609342566,35.688525997014608],[139.69891509170998,35.688516125753495],[139.69890585444023,35.688535528243733],[139.69893685616387,35.688545398605697],[139.69893805992115,35.68854287028023],[139.6989401262922,35.688543528519403]]]},"properties":{"FID":65,"id":"696cc693710f462b8194fa444644e212","category":"B019","floor_id":"63df68d1c60e42f3b2fab3161e030808","name":" ","restricted":"1","suite":" ","nonpublic":"2","toll":"1","source":"2"}},{"type":"Feature","id":66,"geometry":{"type":"Polygon","coordinates":[[[139.6989381190248,35.688547744486812],[139.69893731526963,35.688549432654746],[139.69890166930651,35.688538081658209],[139.69887522586092,35.688513333859319],[139.69884357270365,35.688502894676873],[139.69883249415597,35.688499240979318],[139.69883792442863,35.688488163801317],[139.69886443817228,35.688496966795412],[139.69890044854444,35.688508922812218],[139.69891015407043,35.688512145198899],[139.69891402106592,35.688513376725695],[139.69890298445674,35.68853655710749],[139.6989381190248,35.688547744486812]]]},"properties":{"FID":66,"id":"c4b6757841e4439ea410369b81e336d0","category":"B019","floor_id":"63df68d1c60e42f3b2fab3161e030808","name":" ","restricted":"1","suite":" ","nonpublic":"2","toll":"1","source":"2"}},{"type":"Feature","id":67,"geometry":{"type":"Polygon","coordinates":[[[139.69843631353763,35.688527462167102],[139.69842223684691,35.688552718477283],[139.69836407558884,35.688531172191091],[139.69837810748157,35.688505878527508],[139.69843631353763,35.688527462167102]]]},"properties":{"FID":67,"id":"9c9de2fe0347451a8a2342464f45a0c8","category":"B021","floor_id":"220cccd00be94faeb8f84cb191130c76","name":" ","restricted":"2","suite":" ","nonpublic":"2","toll":"2","source":"2"}},{"type":"Feature","id":68,"geometry":{"type":"Polygon","coordinates":[[[139.69893731526963,35.688549432654746],[139.69892294583403,35.688579613500245],[139.69888344488362,35.688566753714042],[139.69882197616013,35.688546473955867],[139.69884357270365,35.688502894676873],[139.69887522586092,35.688513333859319],[139.69890166930651,35.688538081658209],[139.69893731526963,35.688549432654746]]]},"properties":{"FID":68,"id":"7f76fe0f630c4107a1385cc0214e4637","category":"B021","floor_id":"63df68d1c60e42f3b2fab3161e030808","name":" ","restricted":"2","suite":" ","nonpublic":"2","toll":"2","source":"2"}},{"type":"Feature","id":69,"geometry":{"type":"Polygon","coordinates":[[[139.69894915367411,35.688524567842251],[139.69897187301478,35.688476849191034],[139.69897224891463,35.688476059667551],[139.69897480601583,35.688476873969421],[139.69895171316057,35.688525419049029],[139.69894915367411,35.688524567842251]]]},"properties":{"FID":69,"id":"6b73c2cb6d0b4e0f84cfc3b4f8da2c21","category":"B019","floor_id":"63df68d1c60e42f3b2fab3161e030808","name":" ","restricted":"1","suite":" ","nonpublic":"2","toll":"1","source":"2"}},{"type":"Feature","id":70,"geometry":{"type":"Polygon","coordinates":[[[139.69895277987382,35.688523176638682],[139.69897480601583,35.688476873969591],[139.69899927911138,35.688484632237248],[139.69899961877638,35.688484738065824],[139.69897747553716,35.688531341615487],[139.69895277987382,35.688523176638682]]]},"properties":{"FID":70,"id":"0b5f0008f123487a87e0e44d789a5f83","category":"B026","floor_id":"63df68d1c60e42f3b2fab3161e030808","name":" ","restricted":"1","suite":" ","nonpublic":"2","toll":"2","source":"2"}},{"type":"Feature","id":71,"geometry":{"type":"Polygon","coordinates":[[[139.69896544833819,35.688556639349656],[139.69896751354133,35.688557311510692],[139.69895227958091,35.688589264765824],[139.69895020382251,35.688588616573554],[139.69896472413438,35.688558158455066],[139.69893989867194,35.688550255098676],[139.69894069425607,35.688548582646661],[139.69896544833819,35.688556639349656]]]},"properties":{"FID":71,"id":"fdb34986a1a74e60b346550b2fae1328","category":"B019","floor_id":"63df68d1c60e42f3b2fab3161e030808","name":" ","restricted":"1","suite":" ","nonpublic":"2","toll":"1","source":"2"}},{"type":"Feature","id":72,"geometry":{"type":"Polygon","coordinates":[[[139.69918118228682,35.688611080826632],[139.69916609739255,35.688646058801922],[139.69906935950726,35.688618264280677],[139.69908440716927,35.688583280463256],[139.69918118228682,35.688611080826632]]]},"properties":{"FID":72,"id":"efd7ca9d14564404887ebe2ef96a01f3","category":"B021","floor_id":"63df68d1c60e42f3b2fab3161e030808","name":" ","restricted":"2","suite":" ","nonpublic":"2","toll":"2","source":"2"}},{"type":"Feature","id":73,"geometry":{"type":"Polygon","coordinates":[[[139.69889237731613,35.688729031907457],[139.69888765582081,35.688756227181159],[139.69888537466949,35.688755984962299],[139.69887231115135,35.688754329879096],[139.69887009919529,35.688754057506813],[139.69886824824712,35.688753829587704],[139.69885504336446,35.688752139191294],[139.69885304614849,35.688751898097287],[139.69884645278816,35.688751091346809],[139.69885398274121,35.688707997922343],[139.69884984011182,35.68870167829715],[139.6987054027596,35.688653658625569],[139.69867826239224,35.688644550575326],[139.6986179702883,35.688624215820063],[139.69850732668121,35.68858424059048],[139.69842223684691,35.688552718477283],[139.69843631353763,35.688527462167102],[139.69844178171516,35.688517529789372],[139.69846847986469,35.688527411674428],[139.69847856775112,35.688509465883243],[139.69864500458687,35.68856956085709],[139.69873218365819,35.688600517661264],[139.69886341950939,35.688644136489991],[139.69886712811254,35.688643099550134],[139.6989249678287,35.688661632172071],[139.69892105958979,35.688685123954343],[139.69891298061691,35.688731606627037],[139.69889362331259,35.688729214474264],[139.69889237731613,35.688729031907457]]]},"properties":{"FID":73,"id":"83c58650f59e476aa36b8c5b93a150bd","category":"B029","floor_id":"220cccd00be94faeb8f84cb191130c76","name":" ","restricted":"2","suite":" ","nonpublic":"2","toll":"2","source":"2"}},{"type":"Feature","id":74,"geometry":{"type":"Polygon","coordinates":[[[139.69886824824712,35.688753829587704],[139.69884980132258,35.688860244625054],[139.69883453361376,35.688858495069518],[139.69885304614849,35.688751898097287],[139.69885504336446,35.688752139191294],[139.69886824824712,35.688753829587704]]]},"properties":{"FID":74,"id":"cdea335093e74ee491e36dcff457f672","category":"B023","floor_id":"220cccd00be94faeb8f84cb191130c76","name":" ","restricted":"2","suite":" ","nonpublic":"2","toll":"2","source":"2"}},{"type":"Feature","id":75,"geometry":{"type":"Polygon","coordinates":[[[139.69887009919529,35.688754057506813],[139.69885184249449,35.688860477356563],[139.69884980132258,35.688860244625054],[139.69886824824712,35.688753829587704],[139.69887009919529,35.688754057506813]]]},"properties":{"FID":75,"id":"6d0d841b54124a15864a88d119cb5071","category":"B019","floor_id":"220cccd00be94faeb8f84cb191130c76","name":" ","restricted":"1","suite":" ","nonpublic":"2","toll":"1","source":"2"}},{"type":"Feature","id":76,"geometry":{"type":"Polygon","coordinates":[[[139.69887231115135,35.688754329879096],[139.6988537978975,35.688860702584769],[139.69885184249449,35.688860477356563],[139.69887009919529,35.688754057506813],[139.69887231115135,35.688754329879096]]]},"properties":{"FID":76,"id":"ac87f6b045bd46b493a074521b5d390e","category":"B019","floor_id":"220cccd00be94faeb8f84cb191130c76","name":" ","restricted":"1","suite":" ","nonpublic":"2","toll":"1","source":"2"}},{"type":"Feature","id":77,"geometry":{"type":"Polygon","coordinates":[[[139.69888765582081,35.688756227181159],[139.69886921104461,35.688862466804004],[139.6988537978975,35.688860702584769],[139.69887231115135,35.688754329879096],[139.69888537466949,35.688755984962299],[139.69888765582081,35.688756227181159]]]},"properties":{"FID":77,"id":"8f652fe816674f389fad7ee4b7b8d21a","category":"B023","floor_id":"220cccd00be94faeb8f84cb191130c76","name":" ","restricted":"2","suite":" ","nonpublic":"2","toll":"2","source":"2"}},{"type":"Feature","id":78,"geometry":{"type":"Polygon","coordinates":[[[139.69889362331259,35.688729214474264],[139.69887054690955,35.688862619805342],[139.69886921104461,35.688862466804004],[139.69888765582081,35.688756227181159],[139.69889237731613,35.688729031907457],[139.69889362331259,35.688729214474264]]]},"properties":{"FID":78,"id":"059f33d4f327458ea53ddb5bf133b1cf","category":"B019","floor_id":"220cccd00be94faeb8f84cb191130c76","name":" ","restricted":"1","suite":" ","nonpublic":"2","toll":"1","source":"2"}},{"type":"Feature","id":79,"geometry":{"type":"Polygon","coordinates":[[[139.69891298061691,35.688731606627037],[139.69888982368681,35.688864827641282],[139.69887054690955,35.688862619805342],[139.69889362331259,35.688729214474264],[139.69891298061691,35.688731606627037]]]},"properties":{"FID":79,"id":"c8d0b7db6f1441bf9e2a252d0419e01b","category":"B021","floor_id":"220cccd00be94faeb8f84cb191130c76","name":" ","restricted":"2","suite":" ","nonpublic":"2","toll":"2","source":"2"}},{"type":"Feature","id":80,"geometry":{"type":"Polygon","coordinates":[[[139.69894069425584,35.68854858264649],[139.69892535019972,35.688580838442363],[139.69892294583406,35.688579613500281],[139.69893731526986,35.688549432654725],[139.69893811902477,35.688547744486868],[139.69894069425584,35.68854858264649]]]},"properties":{"FID":80,"id":"6b73c2cb6d0b4e0f84cfc3b4f8da2c21","category":"B019","floor_id":"63df68d1c60e42f3b2fab3161e030808","name":" ","restricted":"1","suite":" ","nonpublic":"2","toll":"1","source":"2"}},{"type":"Feature","id":81,"geometry":{"type":"Polygon","coordinates":[[[139.69894270737973,35.68854435072052],[139.69894069425584,35.68854858264649],[139.69893811902477,35.688547744486868],[139.6989401262922,35.688543528519403],[139.69894270737973,35.68854435072052]]]},"properties":{"FID":81,"id":"6b73c2cb6d0b4e0f84cfc3b4f8da2c21","category":"B019","floor_id":"63df68d1c60e42f3b2fab3161e030808","name":" ","restricted":"1","suite":" ","nonpublic":"2","toll":"1","source":"2"}},{"type":"Feature","id":82,"geometry":{"type":"Polygon","coordinates":[[[139.69894690907472,35.688529282290858],[139.69894915367411,35.688524567842251],[139.69895171316057,35.688525419049029],[139.69894946807005,35.688530138608371],[139.69894690907472,35.688529282290858]]]},"properties":{"FID":82,"id":"6b73c2cb6d0b4e0f84cfc3b4f8da2c21","category":"B019","floor_id":"63df68d1c60e42f3b2fab3161e030808","name":" ","restricted":"1","suite":" ","nonpublic":"2","toll":"1","source":"2"}},{"type":"Feature","id":83,"geometry":{"type":"Polygon","coordinates":[[[139.69896472413438,35.688558158455066],[139.69895020382251,35.688588616573554],[139.69892535019983,35.688580838442363],[139.69893989867194,35.688550255098676],[139.69896472413438,35.688558158455066]]]},"properties":{"FID":83,"id":"0b5f0008f123487a87e0e44d789a5f83","category":"B026","floor_id":"63df68d1c60e42f3b2fab3161e030808","name":" ","restricted":"1","suite":" ","nonpublic":"2","toll":"2","source":"2"}}]}