{"type":"FeatureCollection","crs":{"type":"name","properties":{"name":"EPSG:6668"}},"features":[{"type":"Feature","id":0,"geometry":{"type":"Polygon","coordinates":[[[139.69892702087782,35.689027337489946],[139.69892135265604,35.689030734734104],[139.69887571943124,35.689025090775971],[139.69887148336704,35.689020449398136],[139.69887156252148,35.689020027645455],[139.69886497656401,35.689019222576995],[139.6988690780334,35.688995434599242],[139.69887218419098,35.688977459345203],[139.69887681123799,35.688950582959521],[139.69887846824273,35.688940895985397],[139.69889402855691,35.68885052218873],[139.69887756442159,35.688848804978406],[139.69887584623282,35.688848563414524],[139.69887815738852,35.688835120784091],[139.69887697986263,35.688834956320996],[139.6988865829347,35.688785896469049],[139.69894372690479,35.688577304856139],[139.69897995868592,35.688445776833483],[139.69899293245615,35.68840076698109],[139.69900850069726,35.688356271098669],[139.69902351281192,35.68831264802089],[139.6990544097138,35.688222840237181],[139.69908641845865,35.688136083018705],[139.69913473908153,35.688005329175503],[139.69923102520792,35.687745816669917],[139.6992310397429,35.687745777618424],[139.69927471171772,35.687628812496506],[139.69928128243197,35.687630427303212],[139.69928305826593,35.687630863728835],[139.69931044023295,35.687637593065816],[139.69931460802454,35.687626351107497],[139.69935181330334,35.687635531510438],[139.69934766002899,35.687646734324815],[139.69937531238722,35.687653620333428],[139.69937717151043,35.687654083293275],[139.69938164929889,35.687655198354321],[139.69938490951193,35.687656002398406],[139.69919675935472,35.688163308404214],[139.69916482139968,35.688250083758057],[139.69913499243745,35.688338262181958],[139.69912031270337,35.688382029863277],[139.6991059717592,35.688424051966606],[139.69909378636419,35.688466101709842],[139.6990809424438,35.688510133731022],[139.69905564914399,35.688599431282448],[139.69899325583205,35.688816130320774],[139.69898494514402,35.688849606938014],[139.69898266187823,35.688849296121418],[139.69898052996126,35.6888615163179],[139.69897235960849,35.688860434785411],[139.69897054184105,35.688860194162366],[139.698964529324,35.688859398268164],[139.69896396364274,35.688859343016524],[139.69894598688592,35.688959069980761],[139.6989411267229,35.688985951517061],[139.69893787810989,35.689003891460374],[139.69893363639812,35.689027645031842],[139.69892712112147,35.689026858073078],[139.69892702087782,35.689027337489946]]]},"properties":{"FID":0,"id":"8e00d6d1991a4a55a20320af3cd8639f","category":"１","name":"地下6階","ordinal":"-6.0","short_name":" ","source":"2"}}]}