{"type":"FeatureCollection","crs":{"type":"name","properties":{"name":"EPSG:6668"}},"features":[{"type":"Feature","id":0,"geometry":{"type":"Polygon","coordinates":[[[139.69944541476619,35.687067749935238],[139.6994213204465,35.687062241003723],[139.6994231798007,35.687057022335907],[139.69941248779301,35.687054571334961],[139.69941062954152,35.687059790905195],[139.69936894450055,35.687050234755162],[139.69936679581494,35.687049742176058],[139.69934648413306,35.687045085787496],[139.69934834238683,35.687039867119651],[139.69934513400372,35.687039137044522],[139.69935024775438,35.687024312492483],[139.69935345724332,35.68702504166729],[139.69935524481576,35.687019804893232],[139.69935629869525,35.687020045520931],[139.69935690247436,35.687018258184068],[139.69936320967221,35.687000005246034],[139.69937157891232,35.686975573005469],[139.69938002307222,35.686951145538529],[139.69938752131947,35.686952822133442],[139.6993911841254,35.686942117930933],[139.69931512092725,35.68690617407136],[139.69930049551132,35.686899271457506],[139.69926043189062,35.686880366441017],[139.69928661882784,35.686843552094928],[139.69928833111314,35.686844353516769],[139.69929603591703,35.686833386110415],[139.69929432252854,35.686832583786021],[139.69930276696695,35.686820662651677],[139.69935205974764,35.686843932301592],[139.69939332101251,35.686863402748777],[139.69937291487724,35.686874673180135],[139.69937022547469,35.68687615855287],[139.69935625697752,35.686883873433551],[139.69935494781737,35.686884596489961],[139.6994050149984,35.68690817616033],[139.69942634908176,35.686878184103257],[139.69947261477742,35.686900018967997],[139.69946700828078,35.686916173400036],[139.69946253384228,35.68691405921841],[139.69945692358027,35.686921884985331],[139.69946396700394,35.686925201747528],[139.69945674385954,35.686946130741966],[139.69945032488613,35.68694467239775],[139.69944732057849,35.686953394319985],[139.6994580114704,35.686955844415266],[139.69945979903449,35.686950607639588],[139.69949673237676,35.686959034150561],[139.69949487413299,35.686964253722167],[139.6995018374711,35.686965910069226],[139.69948919984282,35.687002473621575],[139.69948228499032,35.687000892141413],[139.69947928068402,35.687009614064408],[139.69947878547876,35.68701095059707],[139.69956007354568,35.687029588908878],[139.6995417520325,35.687040010366026],[139.69953992740952,35.687041048229304],[139.6995164710066,35.687054390453518],[139.69945484177438,35.687040276326996],[139.69945409679525,35.687042447458211],[139.69944541476619,35.687067749935238]]]},"properties":{"FID":0,"id":"f570ed519db442faa0c85f1a934547e5","category":"1","name":"地下1階","ordinal":"-1.0","short_name":" ","source":"2"}},{"type":"Feature","id":1,"geometry":{"type":"Polygon","coordinates":[[[139.69905423539419,35.689036892457274],[139.69874121628854,35.6890055258716],[139.69876797056227,35.688824780228757],[139.69876590208662,35.688823625237717],[139.69875248048072,35.688816130908293],[139.69875387235547,35.688813004710724],[139.69874784119935,35.688817382231569],[139.69874921087839,35.688814314598311],[139.69873587878348,35.688806777682373],[139.69874391423502,35.688753001887996],[139.69874435012727,35.688750084756471],[139.69873716695216,35.688749418472788],[139.69874779674007,35.688677434589778],[139.69873017155078,35.68867491178041],[139.69872782474295,35.688663102111953],[139.69872147218393,35.688660839781491],[139.69869328497612,35.688650724635245],[139.69869414187252,35.688649042735925],[139.69869231448257,35.68864833942645],[139.69869143760295,35.688650078089658],[139.69869073164963,35.688651355442666],[139.69868356451107,35.688665042841095],[139.69868325852485,35.688665661739989],[139.69865691763567,35.688656822285978],[139.69865724691994,35.688656146626961],[139.69866588707438,35.688640361587247],[139.6986677144624,35.688641065798564],[139.69866826567545,35.68864006935943],[139.69866841931113,35.688639788444455],[139.69866474344252,35.68863843948867],[139.69863073185991,35.688626195127],[139.69863127789037,35.688625253765593],[139.69861227214017,35.688618708704261],[139.69856976745498,35.688604071236611],[139.69851958321598,35.688586126461693],[139.69851301898876,35.688559139398208],[139.69851221847244,35.688555850301327],[139.69851220287003,35.688555786197441],[139.69851582928447,35.688554347165308],[139.69850781166394,35.688554071380914],[139.69851148877672,35.688552707219394],[139.69850863952192,35.688541022921683],[139.69850816486309,35.688539060694303],[139.698507678911,35.688537065598148],[139.69850406517276,35.68852222916523],[139.69863001578653,35.688567562670762],[139.69866154323148,35.688578910340638],[139.6987129873165,35.688596177525667],[139.69873196479762,35.688602547301642],[139.69873992117397,35.688587981946853],[139.69865512958927,35.688559092857602],[139.69865407653151,35.68856047347964],[139.6985438717513,35.688521082861939],[139.69854193348132,35.688521928880888],[139.69836451929058,35.688456287947822],[139.69836602297536,35.688453693688174],[139.69835791374368,35.688450745229233],[139.69835650293629,35.688453299031281],[139.69833684397,35.688446046198642],[139.69841826752398,35.688280791072302],[139.69844745263964,35.688291340960355],[139.69844621166155,35.688293432551021],[139.69844781379115,35.688294013586628],[139.69845439156197,35.688296399110648],[139.69845576128751,35.688293961538129],[139.69862629933797,35.688356453370091],[139.69862835663275,35.688358412546222],[139.69875262316498,35.688402826017878],[139.69875515531771,35.688403731019918],[139.69879134449306,35.688329954678018],[139.69879044492413,35.688329647790425],[139.69879558031607,35.688319581037995],[139.69874689540802,35.688303016227366],[139.69877175020412,35.688254579150374],[139.6988009341608,35.688264520924008],[139.69885529094864,35.688283038020401],[139.6988233472585,35.688302543112599],[139.69882121490269,35.688303845146727],[139.69884084708525,35.68831053926764],[139.69882512767089,35.688341452446089],[139.69881247338438,35.68836722289597],[139.69880894889482,35.688374428114585],[139.69886950239635,35.688392977452992],[139.69890570763695,35.688380024638114],[139.69892829666793,35.688386675829939],[139.69892907528185,35.68838686778961],[139.69893373659812,35.688388271919742],[139.69896309731632,35.688396952437522],[139.69895866513102,35.688406495702395],[139.69896026837063,35.68840700617514],[139.69896574028854,35.688408743503651],[139.6989462306698,35.688450757114573],[139.69894536706775,35.688450512780669],[139.69894494385267,35.68845185895492],[139.69886513212035,35.688426851462665],[139.69885952570741,35.688438210574098],[139.69886160388435,35.688438858359063],[139.69893039151503,35.688460442679961],[139.69893081239209,35.688461807823927],[139.6989529927734,35.688468366227028],[139.69900977179009,35.688485154899524],[139.69901049666356,35.688484450837002],[139.69908016195711,35.688505123947884],[139.69908013654518,35.688506442623812],[139.69908831688431,35.688508783191665],[139.69909041130919,35.688509385347544],[139.69916220754592,35.688529947978388],[139.69917765800093,35.688534373022314],[139.69917846833644,35.688533437401944],[139.6992364063403,35.688548656561416],[139.69923877688532,35.688549279255675],[139.69925420077362,35.688601539146347],[139.69925059233492,35.688602906669928],[139.69926712010579,35.688676149106371],[139.69928718760093,35.68875745664559],[139.69929220317715,35.688758620835799],[139.69928069981776,35.688787956631231],[139.6992798550796,35.688787736416941],[139.69920723759174,35.688911330033406],[139.69909400992958,35.688961793214752],[139.69909317324738,35.68896196444345],[139.69907668006684,35.688960352429319],[139.69907812720515,35.688950614741685],[139.69906715531386,35.688949546099849],[139.69905423539419,35.689036892457274]]]},"properties":{"FID":1,"id":"918d35f85b4c4cef84c6ba5225f954d2","category":"1","name":"地下1階","ordinal":"-1.0","short_name":" ","source":"2"}}]}