{"type":"FeatureCollection","crs":{"type":"name","properties":{"name":"EPSG:6668"}},"features":[{"type":"Feature","id":0,"geometry":{"type":"Polygon","coordinates":[[[139.69942685661493,35.686879263607864],[139.69941572458873,35.686894940785983],[139.69934098406546,35.686859597870459],[139.69935203215377,35.686843952800999],[139.69942685661493,35.686879263607864]]]},"properties":{"FID":0,"id":"4885b73128064d0daee621a8f785d31c","category":"B021","floor_id":"760b5e4d053149f3b1a757570e2daefd","name":" ","restricted":"2","suite":" ","nonpublic":"2","toll":"3","source":"2"}},{"type":"Feature","id":1,"geometry":{"type":"Polygon","coordinates":[[[139.69941572458873,35.686894940785983],[139.69941424165376,35.686897029195492],[139.69932482913669,35.686854699352644],[139.69932628435245,35.686852646736376],[139.69934098406546,35.686859597870459],[139.69941572458873,35.686894940785983]]]},"properties":{"FID":1,"id":"51ad710dde234215b66d94298b974585","category":"B019","floor_id":"760b5e4d053149f3b1a757570e2daefd","name":" ","restricted":"1","suite":" ","nonpublic":"2","toll":"1","source":"2"}},{"type":"Feature","id":2,"geometry":{"type":"Polygon","coordinates":[[[139.69931161516476,35.686883638172326],[139.69930048488104,35.686899277913248],[139.69926042193342,35.686880374542234],[139.69928660555155,35.686843562896563],[139.69928831783685,35.686844364318425],[139.6992960215359,35.686833396910856],[139.69929430814739,35.686832594586491],[139.69930269635216,35.686820677189573],[139.69935203215377,35.686843952800999],[139.69934098406546,35.686859597870459],[139.69932628435245,35.686852646736376],[139.69932482913669,35.686854699352644],[139.69931715064445,35.686865530045317],[139.69931647124437,35.686866488354866],[139.69931592225294,35.686867262719922],[139.69930762491322,35.686878966307006],[139.69930652845693,35.686878447372656],[139.69930505439066,35.686880544121408],[139.69931161516476,35.686883638172326]]]},"properties":{"FID":2,"id":"cc41486eb5da40768fa92aa0541ef8d4","category":"B029","floor_id":"760b5e4d053149f3b1a757570e2daefd","name":" ","restricted":"2","suite":" ","nonpublic":"2","toll":"3","source":"2"}},{"type":"Feature","id":3,"geometry":{"type":"Polygon","coordinates":[[[139.69941424165376,35.686897029195492],[139.69940663656365,35.68690773940201],[139.69931715064445,35.686865530045317],[139.69932482913669,35.686854699352644],[139.69941424165376,35.686897029195492]]]},"properties":{"FID":3,"id":"056bc313610a4fbea14f57e124444ab5","category":"B023","floor_id":"760b5e4d053149f3b1a757570e2daefd","name":" ","restricted":"2","suite":" ","nonpublic":"2","toll":"3","source":"2"}},{"type":"Feature","id":4,"geometry":{"type":"Polygon","coordinates":[[[139.69940663656365,35.68690773940201],[139.69940596992652,35.68690867822324],[139.69931647124437,35.686866488354866],[139.69931715064445,35.686865530045317],[139.69940663656365,35.68690773940201]]]},"properties":{"FID":4,"id":"6f698380c3c64870ae4fd61f3d89e53f","category":"B019","floor_id":"760b5e4d053149f3b1a757570e2daefd","name":" ","restricted":"1","suite":" ","nonpublic":"2","toll":"1","source":"2"}},{"type":"Feature","id":5,"geometry":{"type":"Polygon","coordinates":[[[139.69940766510985,35.686909422747149],[139.69940618190225,35.686909877812667],[139.69935370116085,35.686885110528479],[139.69931592225294,35.686867262719922],[139.69931647124437,35.686866488354866],[139.69940596992652,35.68690867822324],[139.69940766510985,35.686909422747149]]]},"properties":{"FID":5,"id":"8e5c665486e64d33b3467f0f7b8ab80e","category":"B019","floor_id":"760b5e4d053149f3b1a757570e2daefd","name":" ","restricted":"1","suite":" ","nonpublic":"2","toll":"1","source":"2"}},{"type":"Feature","id":6,"geometry":{"type":"Polygon","coordinates":[[[139.69940618190225,35.686909877812667],[139.69938612830606,35.686916046049397],[139.69933829987121,35.686893484242745],[139.69930762491322,35.686878966307006],[139.69931592225294,35.686867262719922],[139.69935370116085,35.686885110528479],[139.69940618190225,35.686909877812667]]]},"properties":{"FID":6,"id":"7bce147a6c7d47f681ae1f7b9efb1cf5","category":"B023","floor_id":"760b5e4d053149f3b1a757570e2daefd","name":" ","restricted":"2","suite":" ","nonpublic":"2","toll":"3","source":"2"}},{"type":"Feature","id":7,"geometry":{"type":"Polygon","coordinates":[[[139.69938612830606,35.686916046049397],[139.69938276136665,35.686917081660894],[139.69933565788151,35.686894976675283],[139.69931161516476,35.686883638172326],[139.69930505439066,35.686880544121408],[139.69930652845693,35.686878447372656],[139.69930762491322,35.686878966307006],[139.69933829987121,35.686893484242745],[139.69938612830606,35.686916046049397]]]},"properties":{"FID":7,"id":"5e2c3ab6cc4b4424aea65bcd87e5a365","category":"B019","floor_id":"760b5e4d053149f3b1a757570e2daefd","name":" ","restricted":"1","suite":" ","nonpublic":"2","toll":"1","source":"2"}},{"type":"Feature","id":8,"geometry":{"type":"Polygon","coordinates":[[[139.69938276136665,35.686917081660894],[139.6993557592123,35.686925386927662],[139.69931510986973,35.686906179467236],[139.69930048488104,35.686899277913248],[139.69931161516476,35.686883638172326],[139.69933565788151,35.686894976675283],[139.69938276136665,35.686917081660894]]]},"properties":{"FID":8,"id":"4003f9204ecd420090971a57dfadea6f","category":"B021","floor_id":"760b5e4d053149f3b1a757570e2daefd","name":" ","restricted":"2","suite":" ","nonpublic":"2","toll":"3","source":"2"}},{"type":"Feature","id":9,"geometry":{"type":"Polygon","coordinates":[[[139.69936996916758,35.687040533692766],[139.69936901393044,35.687043297741866],[139.69935164024034,35.687039289406094],[139.69935611027546,35.687026198373573],[139.6993735265286,35.687030229171562],[139.699372975572,35.687031813658891],[139.69936996916758,35.687040533692766]]]},"properties":{"FID":9,"id":"f1d162d0c5274ff2b535c99b2850fcde","category":"B022","floor_id":"f521c9e601be4434aee84f3c8d901316","name":" ","restricted":"2","suite":" ","nonpublic":"2","toll":"3","source":"2"}},{"type":"Feature","id":10,"geometry":{"type":"Polygon","coordinates":[[[139.69940040232621,35.687059280172598],[139.6993997965902,35.68706102004073],[139.69934532961159,35.687048553414257],[139.69934833204829,35.687039864741813],[139.69934513400372,35.687039137044522],[139.69935024775435,35.687024312492476],[139.69935345724332,35.687025041667283],[139.69935588476568,35.687018008123189],[139.69941041439952,35.687030522275307],[139.69940980544882,35.687032271378371],[139.69940762473453,35.687031788301184],[139.69937770019769,35.687024904595084],[139.69937509799223,35.687032337102117],[139.699372975572,35.687031813658891],[139.6993735265286,35.687030229171562],[139.69935611027546,35.687026198373573],[139.69935164024034,35.687039289406094],[139.69936901393044,35.687043297741866],[139.69936996916758,35.687040533692766],[139.69937209367308,35.687041059022356],[139.69936839006647,35.687051941608644],[139.69939822145972,35.687058801819177],[139.69940040232621,35.687059280172598]]]},"properties":{"FID":10,"id":"b3d75c3c07e74bad9c6a155810c31888","category":"B019","floor_id":"f521c9e601be4434aee84f3c8d901316","name":" ","restricted":"1","suite":" ","nonpublic":"2","toll":"1","source":"2"}},{"type":"Feature","id":11,"geometry":{"type":"Polygon","coordinates":[[[139.69885513073837,35.688282877338864],[139.6988418098052,35.688308745044417],[139.69878777374581,35.688290356208874],[139.69882425408926,35.688272366384432],[139.69885513073837,35.688282877338864]]]},"properties":{"FID":11,"id":"de3842e7ee52466694bd2812f8ad3442","category":"B021","floor_id":"728f2dd21d10464d8a913e3b4cf6001f","name":" ","restricted":"2","suite":" ","nonpublic":"2","toll":"3","source":"2"}},{"type":"Feature","id":12,"geometry":{"type":"Polygon","coordinates":[[[139.6988418098052,35.688308745044417],[139.69884095402196,35.68831042604473],[139.69878691796163,35.688292037208811],[139.69878777374581,35.688290356208874],[139.6988418098052,35.688308745044417]]]},"properties":{"FID":12,"id":"8bff23b6f6ab4feab2582094c07d802b","category":"B019","floor_id":"728f2dd21d10464d8a913e3b4cf6001f","name":" ","restricted":"1","suite":" ","nonpublic":"2","toll":"1","source":"2"}},{"type":"Feature","id":13,"geometry":{"type":"Polygon","coordinates":[[[139.69878691796163,35.688292037208811],[139.69877104681797,35.688322918595617],[139.69876995444241,35.688322546748481],[139.69872354866376,35.688306538754468],[139.69875336805831,35.688248235492289],[139.69880102039596,35.688264457219546],[139.69880100904726,35.688264478511108],[139.69878777374581,35.688290356208874],[139.69878691796163,35.688292037208811]]]},"properties":{"FID":13,"id":"1031813953cb4f07a155a08847c52bc2","category":"B029","floor_id":"728f2dd21d10464d8a913e3b4cf6001f","name":" ","restricted":"2","suite":" ","nonpublic":"2","toll":"3","source":"2"}},{"type":"Feature","id":14,"geometry":{"type":"Polygon","coordinates":[[[139.69884095402196,35.68831042604473],[139.69882522487302,35.68834136202171],[139.69877104681797,35.688322918595617],[139.69878691796163,35.688292037208811],[139.69884095402196,35.68831042604473]]]},"properties":{"FID":14,"id":"047641ec207d42a08dad71f56e4c161a","category":"B021","floor_id":"728f2dd21d10464d8a913e3b4cf6001f","name":" ","restricted":"2","suite":" ","nonpublic":"2","toll":"3","source":"2"}},{"type":"Feature","id":15,"geometry":{"type":"Polygon","coordinates":[[[139.69888965458324,35.68829462985024],[139.69885969176329,35.688353093493404],[139.69882522487302,35.68834136202171],[139.69884095402196,35.68831042604473],[139.6988418098052,35.688308745044417],[139.69885513073837,35.688282877338864],[139.69888965458324,35.68829462985024]]]},"properties":{"FID":15,"id":"147d4c452ffd40a0b3c6078b9ee2abb7","category":"B029","floor_id":"728f2dd21d10464d8a913e3b4cf6001f","name":" ","restricted":"2","suite":" ","nonpublic":"2","toll":"3","source":"2"}},{"type":"Feature","id":16,"geometry":{"type":"Polygon","coordinates":[[[139.69876601626532,35.688823423699667],[139.69875341188626,35.688908884713207],[139.69875334020603,35.688908874228019],[139.69872148686855,35.688905720445888],[139.69873606435735,35.688806817629256],[139.6987493348245,35.688814195756045],[139.69874796404062,35.688817263388074],[139.69875399519671,35.688812885867222],[139.69875260442834,35.688816011164668],[139.69876601626532,35.688823423699667]]]},"properties":{"FID":16,"id":"052818f3739b4cd79599d3d78d6adc21","category":"B021","floor_id":"fc864b5d0418434087b974400fbf6599","name":" ","restricted":"2","suite":" ","nonpublic":"2","toll":"3","source":"2"}}]}